"scientificName","genus","specificEpithet","infraspecificEpithet","basisOfRecord","eventDate","institutionCode","collectionCode","collectionID","country","county","stateProvince","locality","latitude","longitude","identificationID","coordinateUncertaintyInMeters","informationWithheld","habitat"
"Asclepias curtissii A.Gray","Asclepias","curtissii",NA,"HUMAN_OBSERVATION","2022-05-01T18:25:14","iNaturalist","Observations",NA,"United States of America",NA,"Florida","locality:  NA, occurrenceRemarks: Endangered, verbatimLocality: United States",26.260963,-80.029772,"255007903",29868,"Coordinate uncertainty increased to 29868m at the request of the observer",NA
"Asclepias curtissii A.Gray","Asclepias","curtissii",NA,"HUMAN_OBSERVATION","2022-05-01T18:26:50","iNaturalist","Observations",NA,"United States of America",NA,"Florida","locality:  NA, occurrenceRemarks: Endangered, verbatimLocality: United States",26.233288,-80.05981,"255008587",29868,"Coordinate uncertainty increased to 29868m at the request of the observer",NA
"Asclepias curtissii A.Gray","Asclepias","curtissii",NA,"HUMAN_OBSERVATION","2022-05-14T08:48:17","iNaturalist","Observations",NA,"United States of America",NA,"Florida","locality:  NA, occurrenceRemarks: NA, verbatimLocality: Florida, US",27.508047,-81.42766,"260598616",29727,"Coordinate uncertainty increased to 29727m to protect threatened taxon",NA
"Asclepias curtissii A.Gray","Asclepias","curtissii",NA,"HUMAN_OBSERVATION","2022-05-19T14:16:19","iNaturalist","Observations",NA,"United States of America",NA,"Florida","locality:  NA, occurrenceRemarks: NA, verbatimLocality: Florida, US",27.489185,-82.062517,"261912996",29727,"Coordinate uncertainty increased to 29727m to protect threatened taxon",NA
"Asclepias curtissii A.Gray","Asclepias","curtissii",NA,"HUMAN_OBSERVATION","2022-05-25T09:52:48","iNaturalist","Observations",NA,"United States of America",NA,"Florida","locality:  NA, occurrenceRemarks: NA, verbatimLocality: Volusia County, US-FL, US",28.899223,-81.353328,"263774409",29558,"Coordinate uncertainty increased to 29558m at the request of the observer",NA
"Asclepias curtissii A.Gray","Asclepias","curtissii",NA,"HUMAN_OBSERVATION","2022-05-25T09:19:54","iNaturalist","Observations",NA,"United States of America",NA,"Florida","locality:  NA, occurrenceRemarks: NA, verbatimLocality: Florida, US",27.865394,-80.564489,"263819148",29680,"Coordinate uncertainty increased to 29680m at the request of the observer",NA
"Asclepias curtissii A.Gray","Asclepias","curtissii",NA,"HUMAN_OBSERVATION","2022-06-02T11:02:20","iNaturalist","Observations",NA,"United States of America",NA,"Florida","locality:  NA, occurrenceRemarks: NA, verbatimLocality: Volusia County, US-FL, US",29.103222,-81.128394,"266299877",29533,"Coordinate uncertainty increased to 29533m at the request of the observer",NA
"Asclepias curtissii A.Gray","Asclepias","curtissii",NA,"HUMAN_OBSERVATION","2022-06-02T10:33:37","iNaturalist","Observations",NA,"United States of America",NA,"Florida","locality:  NA, occurrenceRemarks: NA, verbatimLocality: Volusia County, US-FL, US",29.046658,-81.050168,"266301616",29533,"Coordinate uncertainty increased to 29533m at the request of the observer",NA
"Asclepias curtissii A.Gray","Asclepias","curtissii",NA,"HUMAN_OBSERVATION","2022-06-03T11:37:49","iNaturalist","Observations",NA,"United States of America",NA,"Florida","locality:  NA, occurrenceRemarks: NA, verbatimLocality: Florida, US",27.498766,-81.584575,"266569150",29727,"Coordinate uncertainty increased to 29727m to protect threatened taxon",NA
"Asclepias curtissii A.Gray","Asclepias","curtissii",NA,"HUMAN_OBSERVATION","2022-06-10T11:26:00","iNaturalist","Observations",NA,"United States of America",NA,"Florida","locality:  NA, occurrenceRemarks: NA, verbatimLocality: Florida, US",27.579923,-82.394583,"268798900",29727,"Coordinate uncertainty increased to 29727m to protect threatened taxon",NA
"Asclepias curtissii A.Gray","Asclepias","curtissii",NA,"HUMAN_OBSERVATION","2022-06-12T09:45:00","iNaturalist","Observations",NA,"United States of America",NA,"Florida","locality:  NA, occurrenceRemarks: NA, verbatimLocality: Florida, US",28.698463,-81.094728,"269836837",29582,"Coordinate uncertainty increased to 29582m to protect threatened taxon",NA
"Asclepias curtissii A.Gray","Asclepias","curtissii",NA,"HUMAN_OBSERVATION","2022-06-15T08:06:55","iNaturalist","Observations",NA,"United States of America",NA,"Florida","locality:  NA, occurrenceRemarks: NA, verbatimLocality: Florida, US",27.588305,-81.400742,"270222597",29727,"Coordinate uncertainty increased to 29727m to protect threatened taxon",NA
"Asclepias curtissii A.Gray","Asclepias","curtissii",NA,"HUMAN_OBSERVATION","2022-06-25T12:15:40","iNaturalist","Observations",NA,"United States of America",NA,"Florida","locality:  NA, occurrenceRemarks: NA, verbatimLocality: Polk County, US-FL, US",27.88612,-81.430799,"273271014",29680,"Coordinate uncertainty increased to 29680m to protect threatened taxon",NA
"Asclepias curtissii A.Gray","Asclepias","curtissii",NA,"HUMAN_OBSERVATION","2022-06-28T11:10:48","iNaturalist","Observations",NA,"United States of America",NA,"Florida","locality:  NA, occurrenceRemarks: NA, verbatimLocality: Florida, US",27.769631,-81.593981,"274219038",29704,"Coordinate uncertainty increased to 29704m to protect threatened taxon",NA
"Asclepias curtissii A.Gray","Asclepias","curtissii",NA,"HUMAN_OBSERVATION","2022-07-01T14:43:45","iNaturalist","Observations",NA,"United States of America",NA,"Florida","locality:  NA, occurrenceRemarks: NA, verbatimLocality: Florida, US",27.321349,-81.478649,"275208822",29751,"Coordinate uncertainty increased to 29751m to protect threatened taxon",NA
"Asclepias curtissii A.Gray","Asclepias","curtissii",NA,"HUMAN_OBSERVATION","2022-07-08T08:28:22","iNaturalist","Observations",NA,"United States of America",NA,"Florida","locality:  NA, occurrenceRemarks: NA, verbatimLocality: Florida, US",28.34172,-81.666999,"277625197",29631,"Coordinate uncertainty increased to 29631m to protect threatened taxon",NA
"Asclepias curtissii A.Gray","Asclepias","curtissii",NA,"HUMAN_OBSERVATION","2022-07-15T20:44:35","iNaturalist","Observations",NA,"United States of America",NA,"Florida","locality:  NA, occurrenceRemarks: NA, verbatimLocality: Florida, US",29.867665,-81.898042,"279479564",29433,"Coordinate uncertainty increased to 29433m to protect threatened taxon",NA
"Asclepias curtissii A.Gray","Asclepias","curtissii",NA,"HUMAN_OBSERVATION","2022-07-23T10:58:00","iNaturalist","Observations",NA,"United States of America",NA,"Florida","locality:  NA, occurrenceRemarks: NA, verbatimLocality: Florida, US",29.775437,-81.831509,"281791049",29458,"Coordinate uncertainty increased to 29458m to protect threatened taxon",NA
"Asclepias curtissii A.Gray","Asclepias","curtissii",NA,"HUMAN_OBSERVATION","2022-07-17T17:55:00","iNaturalist","Observations",NA,"United States of America",NA,"Florida","locality:  NA, occurrenceRemarks: Archbold Research Station., verbatimLocality: Florida, US",27.078897,-81.277741,"282746521",29775,"Coordinate uncertainty increased to 29775m at the request of the observer",NA
"Asclepias curtissii A.Gray","Asclepias","curtissii",NA,"HUMAN_OBSERVATION","2022-07-18T08:25:27","iNaturalist","Observations",NA,"United States of America",NA,"Florida","locality:  NA, occurrenceRemarks: NA, verbatimLocality: Florida, US",27.670501,-81.479108,"283579988",29704,"Coordinate uncertainty increased to 29704m at the request of the observer",NA
"Asclepias curtissii A.Gray","Asclepias","curtissii",NA,"HUMAN_OBSERVATION","2022-07-31T08:33:22","iNaturalist","Observations",NA,"United States of America",NA,"Florida","locality:  NA, occurrenceRemarks: NA, verbatimLocality: Florida, US",27.595315,-80.396633,"287332121",29727,"Coordinate uncertainty increased to 29727m to protect threatened taxon",NA
"Asclepias curtissii A.Gray","Asclepias","curtissii",NA,"HUMAN_OBSERVATION","2022-07-28T14:41:16","iNaturalist","Observations",NA,"United States of America",NA,"Florida","locality:  NA, occurrenceRemarks: NA, verbatimLocality: Florida, US",26.014032,-81.626344,"287886018",29891,"Coordinate uncertainty increased to 29891m at the request of the observer",NA
"Asclepias curtissii A.Gray","Asclepias","curtissii",NA,"HUMAN_OBSERVATION","2022-07-28T15:03:41","iNaturalist","Observations",NA,"United States of America",NA,"Florida","locality:  NA, occurrenceRemarks: NA, verbatimLocality: Florida, US",26.19727,-81.728237,"287886211",29891,"Coordinate uncertainty increased to 29891m at the request of the observer",NA
"Asclepias curtissii A.Gray","Asclepias","curtissii",NA,"HUMAN_OBSERVATION","2022-08-01T10:34:45","iNaturalist","Observations",NA,"United States of America",NA,"Florida","locality:  NA, occurrenceRemarks: NA, verbatimLocality: Volusia County, US-FL, US",29.090633,-81.073639,"284661951",29533,"Coordinate uncertainty increased to 29533m to protect threatened taxon",NA
"Asclepias curtissii A.Gray","Asclepias","curtissii",NA,"HUMAN_OBSERVATION","2022-08-03T15:44:00","iNaturalist","Observations",NA,"United States of America",NA,"Florida","locality:  NA, occurrenceRemarks: NA, verbatimLocality: Florida, US",27.645999,-82.795856,"285392211",29704,"Coordinate uncertainty increased to 29704m at the request of the observer",NA
"Asclepias curtissii A.Gray","Asclepias","curtissii",NA,"HUMAN_OBSERVATION","2022-08-08T00:00:00","iNaturalist","Observations",NA,"United States of America",NA,"Florida","locality:  NA, occurrenceRemarks: NA, verbatimLocality: Polk County, US-FL, US",28.104526,-81.507507,"286788920",29656,"Coordinate uncertainty increased to 29656m to protect threatened taxon",NA
"Asclepias curtissii A.Gray","Asclepias","curtissii",NA,"HUMAN_OBSERVATION","2022-08-08T00:00:00","iNaturalist","Observations",NA,"United States of America",NA,"Florida","locality:  NA, occurrenceRemarks: NA, verbatimLocality: Polk County, US-FL, US",28.141252,-81.580189,"286789040",29656,"Coordinate uncertainty increased to 29656m to protect threatened taxon",NA
"Asclepias curtissii A.Gray","Asclepias","curtissii",NA,"HUMAN_OBSERVATION","2022-08-08T13:11:15","iNaturalist","Observations",NA,"United States of America",NA,"Florida","locality:  NA, occurrenceRemarks: NA, verbatimLocality: Volusia County, US-FL, US",29.073534,-81.144782,"286826142",29533,"Coordinate uncertainty increased to 29533m at the request of the observer",NA
"Asclepias curtissii A.Gray","Asclepias","curtissii",NA,"HUMAN_OBSERVATION","2022-08-08T13:28:01","iNaturalist","Observations",NA,"United States of America",NA,"Florida","locality:  NA, occurrenceRemarks: NA, verbatimLocality: Volusia County, US-FL, US",29.193646,-81.195624,"286826457",29533,"Coordinate uncertainty increased to 29533m at the request of the observer",NA
"Asclepias curtissii A.Gray","Asclepias","curtissii",NA,"HUMAN_OBSERVATION","2022-08-08T13:25:57","iNaturalist","Observations",NA,"United States of America",NA,"Florida","locality:  NA, occurrenceRemarks: NA, verbatimLocality: Volusia County, US-FL, US",29.029778,-81.091304,"286826633",29533,"Coordinate uncertainty increased to 29533m at the request of the observer",NA
"Asclepias curtissii A.Gray","Asclepias","curtissii",NA,"HUMAN_OBSERVATION","2022-08-28T10:21:19","iNaturalist","Observations",NA,"United States of America",NA,"Florida","locality:  NA, occurrenceRemarks: NA, verbatimLocality: Florida, US",27.691175,-81.534886,"292291887",29704,"Coordinate uncertainty increased to 29704m to protect threatened taxon",NA
"Asclepias curtissii A.Gray","Asclepias","curtissii",NA,"HUMAN_OBSERVATION","2022-08-30T19:27:23","iNaturalist","Observations",NA,"United States of America",NA,"Florida","locality:  NA, occurrenceRemarks: NA, verbatimLocality: Florida, US",28.576132,-81.016078,"293185668",29607,"Coordinate uncertainty increased to 29607m to protect threatened taxon",NA
"Asclepias curtissii A.Gray","Asclepias","curtissii",NA,"HUMAN_OBSERVATION","2022-09-09T10:32:59","iNaturalist","Observations",NA,"United States of America",NA,"Florida","locality:  NA, occurrenceRemarks: NA, verbatimLocality: Volusia County, US-FL, US",28.945146,-81.353401,"295904724",29558,"Coordinate uncertainty increased to 29558m to protect threatened taxon",NA
"Asclepias curtissii A.Gray","Asclepias","curtissii",NA,"HUMAN_OBSERVATION","2022-09-12T09:27:00","iNaturalist","Observations",NA,"United States of America",NA,"Florida","locality:  NA, occurrenceRemarks: NA, verbatimLocality: Florida, US",27.785725,-81.531313,"297172573",29704,"Coordinate uncertainty increased to 29704m to protect threatened taxon",NA
"Asclepias curtissii A.Gray","Asclepias","curtissii",NA,"HUMAN_OBSERVATION","2022-09-04T16:36:00","iNaturalist","Observations",NA,"United States of America",NA,"Florida","locality:  NA, occurrenceRemarks: NA, verbatimLocality: Florida, US",29.809071,-81.948223,"298977259",29433,"Coordinate uncertainty increased to 29433m at the request of the observer",NA
"Asclepias curtissii A.Gray","Asclepias","curtissii",NA,"HUMAN_OBSERVATION","2022-09-25T10:23:46","iNaturalist","Observations",NA,"United States of America",NA,"Florida","locality:  NA, occurrenceRemarks: NA, verbatimLocality: United States",27.040221,-80.0974,"301274981",29775,"Coordinate uncertainty increased to 29775m to protect threatened taxon",NA
"Asclepias curtissii A.Gray","Asclepias","curtissii",NA,"HUMAN_OBSERVATION","2022-10-11T18:01:00","iNaturalist","Observations",NA,"United States of America",NA,"Florida","locality:  NA, occurrenceRemarks: Savannas Preserve State Park, verbatimLocality: Florida, US",27.25765,-80.362483,"305116862",29751,"Coordinate uncertainty increased to 29751m to protect threatened taxon",NA
"Asclepias curtissii A.Gray","Asclepias","curtissii",NA,"HUMAN_OBSERVATION","2021-03-16T10:54:56","iNaturalist","Observations",NA,"United States of America",NA,"Florida","locality:  NA, occurrenceRemarks: NA, verbatimLocality: Florida, US",27.423588,-81.533469,"160058087",29727,"Coordinate uncertainty increased to 29727m to protect threatened taxon",NA
"Asclepias curtissii A.Gray","Asclepias","curtissii",NA,"HUMAN_OBSERVATION","2021-05-14T13:04:00","iNaturalist","Observations",NA,"United States of America",NA,"Florida","locality:  NA, occurrenceRemarks: NA, verbatimLocality: Polk County, US-FL, US",27.95127,-81.784566,"174765165",29680,"Coordinate uncertainty increased to 29680m to protect threatened taxon",NA
"Asclepias curtissii A.Gray","Asclepias","curtissii",NA,"HUMAN_OBSERVATION","2021-05-15T08:52:46","iNaturalist","Observations",NA,"United States of America",NA,"Florida","locality:  NA, occurrenceRemarks: NA, verbatimLocality: Florida, US",27.583523,-81.517439,"174964153",29727,"Coordinate uncertainty increased to 29727m to protect threatened taxon",NA
"Asclepias curtissii A.Gray","Asclepias","curtissii",NA,"HUMAN_OBSERVATION","2021-05-19T10:35:23","iNaturalist","Observations",NA,"United States of America",NA,"Florida","locality:  NA, occurrenceRemarks: NA, verbatimLocality: Florida, US",27.521669,-81.511335,"176029710",29727,"Coordinate uncertainty increased to 29727m at the request of the observer",NA
"Asclepias curtissii A.Gray","Asclepias","curtissii",NA,"HUMAN_OBSERVATION","2021-05-21T10:57:04","iNaturalist","Observations",NA,"United States of America",NA,"Florida","locality:  NA, occurrenceRemarks: NA, verbatimLocality: Florida, US",27.489645,-81.420694,"176548415",29727,"Coordinate uncertainty increased to 29727m to protect threatened taxon",NA
"Asclepias curtissii A.Gray","Asclepias","curtissii",NA,"HUMAN_OBSERVATION","2021-05-22T13:23:06","iNaturalist","Observations",NA,"United States of America",NA,"Florida","locality:  NA, occurrenceRemarks: NA, verbatimLocality: Florida, US",27.258697,-81.435812,"177004875",29751,"Coordinate uncertainty increased to 29751m to protect threatened taxon",NA
"Asclepias curtissii A.Gray","Asclepias","curtissii",NA,"HUMAN_OBSERVATION","2021-05-23T14:01:01","iNaturalist","Observations",NA,"United States of America",NA,"Florida","locality:  NA, occurrenceRemarks: NA, verbatimLocality: Florida, US",27.553436,-82.003036,"177163894",29727,"Coordinate uncertainty increased to 29727m at the request of the observer",NA
"Asclepias curtissii A.Gray","Asclepias","curtissii",NA,"HUMAN_OBSERVATION","2021-05-26T10:27:00","iNaturalist","Observations",NA,"United States of America",NA,"Florida","locality:  NA, occurrenceRemarks: NA, verbatimLocality: Florida, US",27.570311,-81.434557,"178055887",29727,"Coordinate uncertainty increased to 29727m to protect threatened taxon",NA
"Asclepias curtissii A.Gray","Asclepias","curtissii",NA,"HUMAN_OBSERVATION","2021-05-30T14:19:00","iNaturalist","Observations",NA,"United States of America",NA,"Florida","locality:  NA, occurrenceRemarks: NA, verbatimLocality: Florida, US",28.437509,-82.796725,"179309616",29607,"Coordinate uncertainty increased to 29607m at the request of the observer",NA
"Asclepias curtissii A.Gray","Asclepias","curtissii",NA,"HUMAN_OBSERVATION","2021-05-29T09:11:14","iNaturalist","Observations",NA,"United States of America",NA,"Florida","locality:  NA, occurrenceRemarks: NA, verbatimLocality: Florida, US",27.865928,-80.497166,"179318181",29680,"Coordinate uncertainty increased to 29680m at the request of the observer",NA
"Asclepias curtissii A.Gray","Asclepias","curtissii",NA,"HUMAN_OBSERVATION","2021-05-23T14:03:19","iNaturalist","Observations",NA,"United States of America",NA,"Florida","locality:  NA, occurrenceRemarks: NA, verbatimLocality: Florida, US",27.486857,-82.062059,"181631380",29727,"Coordinate uncertainty increased to 29727m at the request of the observer",NA
"Asclepias curtissii A.Gray","Asclepias","curtissii",NA,"HUMAN_OBSERVATION","2021-06-21T10:16:00","iNaturalist","Observations",NA,"United States of America",NA,"Florida","locality:  NA, occurrenceRemarks: NA, verbatimLocality: Florida, US",26.486837,-81.883781,"185087111",29845,"Coordinate uncertainty increased to 29845m to protect threatened taxon",NA
"Asclepias curtissii A.Gray","Asclepias","curtissii",NA,"HUMAN_OBSERVATION","2021-06-25T10:25:35","iNaturalist","Observations",NA,"United States of America",NA,"Florida","locality:  NA, occurrenceRemarks: NA, verbatimLocality: Florida, US",27.236256,-81.259859,"185966594",29751,"Coordinate uncertainty increased to 29751m to protect threatened taxon",NA
"Asclepias curtissii A.Gray","Asclepias","curtissii",NA,"HUMAN_OBSERVATION","2021-06-25T11:14:07","iNaturalist","Observations",NA,"United States of America",NA,"Florida","locality:  NA, occurrenceRemarks: NA, verbatimLocality: Florida, US",28.743637,-81.088116,"185988980",29582,"Coordinate uncertainty increased to 29582m to protect threatened taxon",NA
"Asclepias curtissii A.Gray","Asclepias","curtissii",NA,"HUMAN_OBSERVATION","2021-07-01T15:38:18","iNaturalist","Observations",NA,"United States of America",NA,"Florida","locality:  NA, occurrenceRemarks: NA, verbatimLocality: Polk County, US-FL, US",27.842975,-81.482627,"187568047",29680,"Coordinate uncertainty increased to 29680m to protect threatened taxon",NA
"Asclepias curtissii A.Gray","Asclepias","curtissii",NA,"HUMAN_OBSERVATION","2021-07-14T09:57:00","iNaturalist","Observations",NA,"United States of America",NA,"Florida","locality:  NA, occurrenceRemarks: NA, verbatimLocality: Florida, US",27.443462,-81.517075,"191027450",29727,"Coordinate uncertainty increased to 29727m to protect threatened taxon",NA
"Asclepias curtissii A.Gray","Asclepias","curtissii",NA,"HUMAN_OBSERVATION","2021-07-19T11:48:32","iNaturalist","Observations",NA,"United States of America",NA,"Florida","locality:  NA, occurrenceRemarks: NA, verbatimLocality: Florida, US",29.904273,-81.821742,"193442638",29433,"Coordinate uncertainty increased to 29433m to protect threatened taxon",NA
"Asclepias curtissii A.Gray","Asclepias","curtissii",NA,"HUMAN_OBSERVATION","2021-08-16T09:52:56","iNaturalist","Observations",NA,"United States of America",NA,"Florida","locality:  NA, occurrenceRemarks: NA, verbatimLocality: Florida, US",28.788378,-81.728077,"199768714",29582,"Coordinate uncertainty increased to 29582m to protect threatened taxon",NA
"Asclepias curtissii A.Gray","Asclepias","curtissii",NA,"HUMAN_OBSERVATION","2021-08-31T07:26:33","iNaturalist","Observations",NA,"United States of America",NA,"Florida","locality:  NA, occurrenceRemarks: NA, verbatimLocality: Florida, US",27.840594,-81.533814,"205772141",29680,"Coordinate uncertainty increased to 29680m to protect threatened taxon",NA
"Asclepias curtissii A.Gray","Asclepias","curtissii",NA,"HUMAN_OBSERVATION","2021-08-19T10:59:40","iNaturalist","Observations",NA,"United States of America",NA,"Florida","locality:  NA, occurrenceRemarks: NA, verbatimLocality: United States",26.598499,-80.162694,"209138237",29845,"Coordinate uncertainty increased to 29845m to protect threatened taxon",NA
"Asclepias curtissii A.Gray","Asclepias","curtissii",NA,"HUMAN_OBSERVATION","2021-09-10T15:26:00","iNaturalist","Observations",NA,"United States of America",NA,"Florida","locality:  NA, occurrenceRemarks: NA, verbatimLocality: Florida, US",27.28145,-81.299953,"205956423",29751,"Coordinate uncertainty increased to 29751m to protect threatened taxon",NA
"Asclepias curtissii A.Gray","Asclepias","curtissii",NA,"HUMAN_OBSERVATION","2021-10-04T18:21:29","iNaturalist","Observations",NA,"United States of America",NA,"Florida","locality:  NA, occurrenceRemarks: NA, verbatimLocality: Florida, US",27.10672,-81.34024,"211679102",29775,"Coordinate uncertainty increased to 29775m to protect threatened taxon",NA
"Asclepias curtissii A.Gray","Asclepias","curtissii",NA,"HUMAN_OBSERVATION","2020-04-10T09:49:30","iNaturalist","Observations",NA,"United States of America",NA,"Florida","locality:  NA, occurrenceRemarks: NA, verbatimLocality: Florida, US",27.452825,-81.574701,"94643858",29727,"Coordinate uncertainty increased to 29727m to protect threatened taxon",NA
"Asclepias curtissii A.Gray","Asclepias","curtissii",NA,"HUMAN_OBSERVATION","2020-04-10T14:05:42","iNaturalist","Observations",NA,"United States of America",NA,"Florida","locality:  NA, occurrenceRemarks: NA, verbatimLocality: Florida, US",27.456625,-81.506466,"94728771",29727,"Coordinate uncertainty increased to 29727m to protect threatened taxon",NA
"Asclepias curtissii A.Gray","Asclepias","curtissii",NA,"HUMAN_OBSERVATION","2020-04-13T11:40:35","iNaturalist","Observations",NA,"United States of America",NA,"Florida","locality:  NA, occurrenceRemarks: NA, verbatimLocality: Florida, US",27.508897,-81.569088,"95252597",29727,"Coordinate uncertainty increased to 29727m to protect threatened taxon",NA
"Asclepias curtissii A.Gray","Asclepias","curtissii",NA,"HUMAN_OBSERVATION","2020-04-23T10:58:40","iNaturalist","Observations",NA,"United States of America",NA,"Florida","locality:  NA, occurrenceRemarks: NA, verbatimLocality: Florida, US",27.517263,-81.235586,"97128528",29727,"Coordinate uncertainty increased to 29727m to protect threatened taxon",NA
"Asclepias curtissii A.Gray","Asclepias","curtissii",NA,"HUMAN_OBSERVATION","2020-04-25T14:04:17","iNaturalist","Observations",NA,"United States of America",NA,"Florida","locality:  NA, occurrenceRemarks: NA, verbatimLocality: Florida, US",27.735095,-81.548219,"98002225",29704,"Coordinate uncertainty increased to 29704m to protect threatened taxon",NA
"Asclepias curtissii A.Gray","Asclepias","curtissii",NA,"HUMAN_OBSERVATION","2020-05-13T11:17:46","iNaturalist","Observations",NA,"United States of America",NA,"Florida","locality:  NA, occurrenceRemarks: NA, verbatimLocality: Polk County, US-FL, US",27.99916,-81.533001,"102728134",29680,"Coordinate uncertainty increased to 29680m at the request of the observer",NA
"Asclepias curtissii A.Gray","Asclepias","curtissii",NA,"HUMAN_OBSERVATION","2020-05-16T13:22:53","iNaturalist","Observations",NA,"United States of America",NA,"Florida","locality:  NA, occurrenceRemarks: NA, verbatimLocality: Polk County, US-FL, US",27.807021,-81.550627,"103582911",29680,"Coordinate uncertainty increased to 29680m at the request of the observer",NA
"Asclepias curtissii A.Gray","Asclepias","curtissii",NA,"HUMAN_OBSERVATION","2020-05-20T15:26:33","iNaturalist","Observations",NA,"United States of America",NA,"Florida","locality:  NA, occurrenceRemarks: NA, verbatimLocality: Florida, US",27.958101,-81.571891,"104444476",29680,"Coordinate uncertainty increased to 29680m at the request of the observer",NA
"Asclepias curtissii A.Gray","Asclepias","curtissii",NA,"HUMAN_OBSERVATION","2020-05-22T06:40:45","iNaturalist","Observations",NA,"United States of America",NA,"Florida","locality:  NA, occurrenceRemarks: NA, verbatimLocality: Florida, US",27.726357,-81.51309,"104767841",29704,"Coordinate uncertainty increased to 29704m to protect threatened taxon",NA
"Asclepias curtissii A.Gray","Asclepias","curtissii",NA,"HUMAN_OBSERVATION","2020-05-24T15:00:20","iNaturalist","Observations",NA,"United States of America",NA,"Florida","locality:  NA, occurrenceRemarks: NA, verbatimLocality: Florida, US",27.726505,-81.295847,"105389901",29704,"Coordinate uncertainty increased to 29704m to protect threatened taxon",NA
"Asclepias curtissii A.Gray","Asclepias","curtissii",NA,"HUMAN_OBSERVATION","2020-05-28T10:07:37","iNaturalist","Observations",NA,"United States of America",NA,"Florida","locality:  NA, occurrenceRemarks: NA, verbatimLocality: Florida, US",29.829473,-81.880853,"106355198",29433,"Coordinate uncertainty increased to 29433m to protect threatened taxon",NA
"Asclepias curtissii A.Gray","Asclepias","curtissii",NA,"HUMAN_OBSERVATION","2020-05-30T00:00:00","iNaturalist","Observations",NA,"United States of America",NA,"Florida","locality:  NA, occurrenceRemarks: NA, verbatimLocality: Florida, US",27.282491,-81.552629,"106816806",29751,"Coordinate uncertainty increased to 29751m to protect threatened taxon",NA
"Asclepias curtissii A.Gray","Asclepias","curtissii",NA,"HUMAN_OBSERVATION","2020-05-31T00:00:00","iNaturalist","Observations",NA,"United States of America",NA,"Florida","locality:  NA, occurrenceRemarks: NA, verbatimLocality: Polk County, US-FL, US",28.121817,-81.579273,"107116497",29656,"Coordinate uncertainty increased to 29656m to protect threatened taxon",NA
"Asclepias curtissii A.Gray","Asclepias","curtissii",NA,"HUMAN_OBSERVATION","2020-06-03T07:23:02","iNaturalist","Observations",NA,"United States of America",NA,"Florida","locality:  NA, occurrenceRemarks: NA, verbatimLocality: Florida, US",27.895716,-81.455109,"107832226",29680,"Coordinate uncertainty increased to 29680m to protect threatened taxon",NA
"Asclepias curtissii A.Gray","Asclepias","curtissii",NA,"HUMAN_OBSERVATION","2020-06-05T07:42:54","iNaturalist","Observations",NA,"United States of America",NA,"Florida","locality:  NA, occurrenceRemarks: NA, verbatimLocality: Florida, US",27.668457,-81.431032,"108105960",29704,"Coordinate uncertainty increased to 29704m to protect threatened taxon",NA
"Asclepias curtissii A.Gray","Asclepias","curtissii",NA,"HUMAN_OBSERVATION","2020-06-05T12:47:16","iNaturalist","Observations",NA,"United States of America",NA,"Florida","locality:  NA, occurrenceRemarks: @brettbudach told me what dis wassss, verbatimLocality: Florida, US",27.593749,-81.517592,"108247554",29727,"Coordinate uncertainty increased to 29727m to protect threatened taxon",NA
"Asclepias curtissii A.Gray","Asclepias","curtissii",NA,"HUMAN_OBSERVATION","2020-06-06T15:01:20","iNaturalist","Observations",NA,"United States of America",NA,"Florida","locality:  NA, occurrenceRemarks: NA, verbatimLocality: Florida, US",27.43809,-81.466897,"108563505",29727,"Coordinate uncertainty increased to 29727m to protect threatened taxon",NA
"Asclepias curtissii A.Gray","Asclepias","curtissii",NA,"HUMAN_OBSERVATION","2020-06-06T15:02:32","iNaturalist","Observations",NA,"United States of America",NA,"Florida","locality:  NA, occurrenceRemarks: NA, verbatimLocality: Florida, US",27.554036,-81.494466,"108701919",29727,"Coordinate uncertainty increased to 29727m to protect threatened taxon",NA
"Asclepias curtissii A.Gray","Asclepias","curtissii",NA,"HUMAN_OBSERVATION","2020-06-06T15:18:32","iNaturalist","Observations",NA,"United States of America",NA,"Florida","locality:  NA, occurrenceRemarks: Are these narrow-leaved plants that I often see in xeric scrub just weird juvenile Asclepias curtisii, or are they sterile stems of Asclepias feayi? I know other species of milkweed often look VERY different as seedlings or young plants compared to the adult form., verbatimLocality: Florida, US",27.565631,-81.561625,"123760012",29727,"Coordinate uncertainty increased to 29727m to protect threatened taxon",NA
"Asclepias curtissii A.Gray","Asclepias","curtissii",NA,"HUMAN_OBSERVATION","2020-06-07T14:18:15","iNaturalist","Observations",NA,"United States of America",NA,"Florida","locality:  NA, occurrenceRemarks: NA, verbatimLocality: Florida, US",27.47538,-81.400968,"108703081",29727,"Coordinate uncertainty increased to 29727m to protect threatened taxon",NA
"Asclepias curtissii A.Gray","Asclepias","curtissii",NA,"HUMAN_OBSERVATION","2020-06-11T09:32:11","iNaturalist","Observations",NA,"United States of America",NA,"Florida","locality:  NA, occurrenceRemarks: NA, verbatimLocality: Polk County, US-FL, US",27.811607,-81.414451,"109550141",29680,"Coordinate uncertainty increased to 29680m at the request of the observer",NA
"Asclepias curtissii A.Gray","Asclepias","curtissii",NA,"HUMAN_OBSERVATION","2020-06-13T11:48:58","iNaturalist","Observations",NA,"United States of America",NA,"Florida","locality:  NA, occurrenceRemarks: NA, verbatimLocality: Florida, US",27.654097,-81.416267,"110020307",29704,"Coordinate uncertainty increased to 29704m to protect threatened taxon",NA
"Asclepias curtissii A.Gray","Asclepias","curtissii",NA,"HUMAN_OBSERVATION","2020-06-24T09:27:42","iNaturalist","Observations",NA,"United States of America",NA,"Florida","locality:  NA, occurrenceRemarks: Had the most flower heads on 1 plant I have ever seen, verbatimLocality: Florida, US",27.623036,-81.564002,"112700124",29704,"Coordinate uncertainty increased to 29704m at the request of the observer",NA
"Asclepias curtissii A.Gray","Asclepias","curtissii",NA,"HUMAN_OBSERVATION","2020-06-30T10:21:20","iNaturalist","Observations",NA,"United States of America",NA,"Florida","locality:  NA, occurrenceRemarks: NA, verbatimLocality: Florida, US",27.72522,-81.42272,"113964069",29704,"Coordinate uncertainty increased to 29704m to protect threatened taxon",NA
"Asclepias curtissii A.Gray","Asclepias","curtissii",NA,"HUMAN_OBSERVATION","2020-06-30T08:52:54","iNaturalist","Observations",NA,"United States of America",NA,"Florida","locality:  NA, occurrenceRemarks: NA, verbatimLocality: Florida, US",27.62901,-81.420715,"113964309",29704,"Coordinate uncertainty increased to 29704m to protect threatened taxon",NA
"Asclepias curtissii A.Gray","Asclepias","curtissii",NA,"HUMAN_OBSERVATION","2020-07-03T11:57:59","iNaturalist","Observations",NA,"United States of America",NA,"Florida","locality:  NA, occurrenceRemarks: NA, verbatimLocality: Florida, US",29.289745,-81.722051,"114665924",29508,"Coordinate uncertainty increased to 29508m at the request of the observer",NA
"Asclepias curtissii A.Gray","Asclepias","curtissii",NA,"HUMAN_OBSERVATION","2020-07-05T12:25:00","iNaturalist","Observations",NA,"United States of America",NA,"Florida","locality:  NA, occurrenceRemarks: NA, verbatimLocality: Polk County, US-FL, US",28.053414,-81.594761,"115092512",29656,"Coordinate uncertainty increased to 29656m to protect threatened taxon",NA
"Asclepias curtissii A.Gray","Asclepias","curtissii",NA,"HUMAN_OBSERVATION","2020-07-06T07:41:41","iNaturalist","Observations",NA,"United States of America",NA,"Florida","locality:  NA, occurrenceRemarks: NA, verbatimLocality: Florida, US",27.278813,-81.409952,"115241739",29751,"Coordinate uncertainty increased to 29751m to protect threatened taxon",NA
"Asclepias curtissii A.Gray","Asclepias","curtissii",NA,"HUMAN_OBSERVATION","2020-07-10T07:03:03","iNaturalist","Observations",NA,"United States of America",NA,"Florida","locality:  NA, occurrenceRemarks: NA, verbatimLocality: Florida, US",27.835222,-81.450791,"116138590",29680,"Coordinate uncertainty increased to 29680m to protect threatened taxon",NA
"Asclepias curtissii A.Gray","Asclepias","curtissii",NA,"HUMAN_OBSERVATION","2020-07-11T11:22:33","iNaturalist","Observations",NA,"United States of America",NA,"Florida","locality:  NA, occurrenceRemarks: NA, verbatimLocality: Florida, US",29.186956,-81.722648,"116409543",29533,"Coordinate uncertainty increased to 29533m at the request of the observer",NA
"Asclepias curtissii A.Gray","Asclepias","curtissii",NA,"HUMAN_OBSERVATION","2020-07-16T00:00:00","iNaturalist","Observations",NA,"United States of America",NA,"Florida","locality:  NA, occurrenceRemarks: NA, verbatimLocality: Florida, US",27.64653,-81.501254,"117532098",29704,"Coordinate uncertainty increased to 29704m to protect threatened taxon",NA
"Asclepias curtissii A.Gray","Asclepias","curtissii",NA,"HUMAN_OBSERVATION","2020-07-18T08:49:03","iNaturalist","Observations",NA,"United States of America",NA,"Florida","locality:  NA, occurrenceRemarks: NA, verbatimLocality: Florida, US",27.763517,-81.452972,"117912126",29704,"Coordinate uncertainty increased to 29704m to protect threatened taxon",NA
"Asclepias curtissii A.Gray","Asclepias","curtissii",NA,"HUMAN_OBSERVATION","2020-07-14T09:17:00","iNaturalist","Observations",NA,"United States of America",NA,"Florida","locality:  NA, occurrenceRemarks: Such a cool plant! Yay endemics!, verbatimLocality: Florida, US",27.146039,-81.246411,"118416182",29775,"Coordinate uncertainty increased to 29775m to protect threatened taxon",NA
"Asclepias curtissii A.Gray","Asclepias","curtissii",NA,"HUMAN_OBSERVATION","2020-07-23T08:52:13","iNaturalist","Observations",NA,"United States of America",NA,"Florida","locality:  NA, occurrenceRemarks: NA, verbatimLocality: Florida, US",27.531222,-81.426721,"119028755",29727,"Coordinate uncertainty increased to 29727m to protect threatened taxon",NA
"Asclepias curtissii A.Gray","Asclepias","curtissii",NA,"HUMAN_OBSERVATION","2020-07-25T10:56:23","iNaturalist","Observations",NA,"United States of America",NA,"Florida","locality:  NA, occurrenceRemarks: NA, verbatimLocality: Florida, US",27.579066,-81.443533,"119659626",29727,"Coordinate uncertainty increased to 29727m to protect threatened taxon",NA
"Asclepias curtissii A.Gray","Asclepias","curtissii",NA,"HUMAN_OBSERVATION","2020-07-28T17:22:00","iNaturalist","Observations",NA,"United States of America",NA,"Florida","locality:  NA, occurrenceRemarks: NA, verbatimLocality: Florida, US",27.213647,-81.315286,"120390502",29751,"Coordinate uncertainty increased to 29751m to protect threatened taxon",NA
"Asclepias curtissii A.Gray","Asclepias","curtissii",NA,"HUMAN_OBSERVATION","2020-07-13T09:56:00","iNaturalist","Observations",NA,"United States of America",NA,"Florida","locality:  NA, occurrenceRemarks: NA, verbatimLocality: Florida, US",29.154048,-81.614512,"125601401",29533,"Coordinate uncertainty increased to 29533m at the request of the observer",NA
"Asclepias curtissii A.Gray","Asclepias","curtissii",NA,"HUMAN_OBSERVATION","2020-08-12T09:17:00","iNaturalist","Observations",NA,"United States of America",NA,"Florida","locality:  NA, occurrenceRemarks: NA, verbatimLocality: Florida, US",27.402982,-81.441158,"329657437",29727,"Coordinate uncertainty increased to 29727m at the request of the observer",NA
"Asclepias curtissii A.Gray","Asclepias","curtissii",NA,"HUMAN_OBSERVATION","2020-08-01T11:12:14","iNaturalist","Observations",NA,"United States of America",NA,"Florida","locality:  NA, occurrenceRemarks: NA, verbatimLocality: Florida, US",27.627009,-81.47672,"121000271",29704,"Coordinate uncertainty increased to 29704m to protect threatened taxon",NA
"Asclepias curtissii A.Gray","Asclepias","curtissii",NA,"HUMAN_OBSERVATION","2020-08-03T07:35:26","iNaturalist","Observations",NA,"United States of America",NA,"Florida","locality:  NA, occurrenceRemarks: NA, verbatimLocality: Florida, US",27.977031,-81.525841,"121422972",29680,"Coordinate uncertainty increased to 29680m to protect threatened taxon",NA
"Asclepias curtissii A.Gray","Asclepias","curtissii",NA,"HUMAN_OBSERVATION","2020-08-07T11:05:47","iNaturalist","Observations",NA,"United States of America",NA,"Florida","locality:  NA, occurrenceRemarks: NA, verbatimLocality: Florida, US",27.508793,-81.406383,"122402614",29727,"Coordinate uncertainty increased to 29727m to protect threatened taxon",NA
"Asclepias curtissii A.Gray","Asclepias","curtissii",NA,"HUMAN_OBSERVATION","2020-08-14T20:02:00","iNaturalist","Observations",NA,"United States of America",NA,"Florida","locality:  NA, occurrenceRemarks: NA, verbatimLocality: Florida, US",28.317689,-82.675163,"123876074",29631,"Coordinate uncertainty increased to 29631m to protect threatened taxon",NA
"Asclepias curtissii A.Gray","Asclepias","curtissii",NA,"HUMAN_OBSERVATION","2020-08-15T13:31:45","iNaturalist","Observations",NA,"United States of America",NA,"Florida","locality:  NA, occurrenceRemarks: NA, verbatimLocality: Florida, US",27.721533,-81.293441,"124068858",29704,"Coordinate uncertainty increased to 29704m to protect threatened taxon",NA
"Asclepias curtissii A.Gray","Asclepias","curtissii",NA,"HUMAN_OBSERVATION","2020-08-15T12:48:56","iNaturalist","Observations",NA,"United States of America",NA,"Florida","locality:  NA, occurrenceRemarks: NA, verbatimLocality: Florida, US",27.707013,-81.319347,"124070985",29704,"Coordinate uncertainty increased to 29704m to protect threatened taxon",NA
"Asclepias curtissii A.Gray","Asclepias","curtissii",NA,"HUMAN_OBSERVATION","2020-08-19T16:28:12","iNaturalist","Observations",NA,"United States of America",NA,"Florida","locality:  NA, occurrenceRemarks: NA, verbatimLocality: Florida, US",27.581493,-81.426054,"124865656",29727,"Coordinate uncertainty increased to 29727m to protect threatened taxon",NA
"Asclepias curtissii A.Gray","Asclepias","curtissii",NA,"HUMAN_OBSERVATION","2020-08-19T16:55:14","iNaturalist","Observations",NA,"United States of America",NA,"Florida","locality:  NA, occurrenceRemarks: NA, verbatimLocality: Florida, US",27.487814,-81.4146,"124866248",29727,"Coordinate uncertainty increased to 29727m to protect threatened taxon",NA
"Asclepias curtissii A.Gray","Asclepias","curtissii",NA,"HUMAN_OBSERVATION","2020-08-19T16:59:19","iNaturalist","Observations",NA,"United States of America",NA,"Florida","locality:  NA, occurrenceRemarks: NA, verbatimLocality: Florida, US",27.415743,-81.495567,"124866872",29727,"Coordinate uncertainty increased to 29727m to protect threatened taxon",NA
"Asclepias curtissii A.Gray","Asclepias","curtissii",NA,"HUMAN_OBSERVATION","2020-08-19T18:31:04","iNaturalist","Observations",NA,"United States of America",NA,"Florida","locality:  NA, occurrenceRemarks: NA, verbatimLocality: Florida, US",27.373269,-80.302675,"124884346",29751,"Coordinate uncertainty increased to 29751m to protect threatened taxon",NA
"Asclepias curtissii A.Gray","Asclepias","curtissii",NA,"HUMAN_OBSERVATION","2020-08-21T11:31:32","iNaturalist","Observations",NA,"United States of America",NA,"Florida","locality:  NA, occurrenceRemarks: NA, verbatimLocality: Florida, US",27.703092,-81.408106,"125294080",29704,"Coordinate uncertainty increased to 29704m to protect threatened taxon",NA
"Asclepias curtissii A.Gray","Asclepias","curtissii",NA,"HUMAN_OBSERVATION","2020-08-22T07:12:00","iNaturalist","Observations",NA,"United States of America",NA,"Florida","locality:  NA, occurrenceRemarks: NA, verbatimLocality: Florida, US",27.786897,-81.518471,"125397186",29704,"Coordinate uncertainty increased to 29704m to protect threatened taxon",NA
"Asclepias curtissii A.Gray","Asclepias","curtissii",NA,"HUMAN_OBSERVATION","2020-08-23T08:48:22","iNaturalist","Observations",NA,"United States of America",NA,"Florida","locality:  NA, occurrenceRemarks: NA, verbatimLocality: Florida, US",27.729207,-81.58957,"125633451",29704,"Coordinate uncertainty increased to 29704m to protect threatened taxon",NA
"Asclepias curtissii A.Gray","Asclepias","curtissii",NA,"HUMAN_OBSERVATION","2020-08-23T08:47:32","iNaturalist","Observations",NA,"United States of America",NA,"Florida","locality:  NA, occurrenceRemarks: NA, verbatimLocality: Florida, US",27.75661,-81.54701,"125646959",29704,"Coordinate uncertainty increased to 29704m to protect threatened taxon",NA
"Asclepias curtissii A.Gray","Asclepias","curtissii",NA,"HUMAN_OBSERVATION","2020-08-25T09:34:34","iNaturalist","Observations",NA,"United States of America",NA,"Florida","locality:  NA, occurrenceRemarks: NA, verbatimLocality: Florida, US",27.005297,-81.374491,"126053162",29775,"Coordinate uncertainty increased to 29775m to protect threatened taxon",NA
"Asclepias curtissii A.Gray","Asclepias","curtissii",NA,"HUMAN_OBSERVATION","2020-08-25T10:51:45","iNaturalist","Observations",NA,"United States of America",NA,"Florida","locality:  NA, occurrenceRemarks: NA, verbatimLocality: Florida, US",27.177729,-81.236798,"126066631",29775,"Coordinate uncertainty increased to 29775m to protect threatened taxon",NA
"Asclepias curtissii A.Gray","Asclepias","curtissii",NA,"HUMAN_OBSERVATION","2020-08-27T10:24:46","iNaturalist","Observations",NA,"United States of America",NA,"Florida","locality:  NA, occurrenceRemarks: NA, verbatimLocality: Florida, US",27.2076,-81.234801,"126462224",29751,"Coordinate uncertainty increased to 29751m to protect threatened taxon",NA
"Asclepias curtissii A.Gray","Asclepias","curtissii",NA,"HUMAN_OBSERVATION","2020-08-27T17:01:50","iNaturalist","Observations",NA,"United States of America",NA,"Florida","locality:  NA, occurrenceRemarks: NA, verbatimLocality: Florida, US",27.442649,-81.564807,"126537302",29727,"Coordinate uncertainty increased to 29727m to protect threatened taxon",NA
"Asclepias curtissii A.Gray","Asclepias","curtissii",NA,"HUMAN_OBSERVATION","2020-08-28T15:16:21","iNaturalist","Observations",NA,"United States of America",NA,"Florida","locality:  NA, occurrenceRemarks: NA, verbatimLocality: Florida, US",26.034581,-81.749755,"126790588",29891,"Coordinate uncertainty increased to 29891m to protect threatened taxon",NA
"Asclepias curtissii A.Gray","Asclepias","curtissii",NA,"HUMAN_OBSERVATION","2020-08-31T10:40:14","iNaturalist","Observations",NA,"United States of America",NA,"Florida","locality:  NA, occurrenceRemarks: NA, verbatimLocality: Florida, US",27.200007,-81.261813,"127310297",29751,"Coordinate uncertainty increased to 29751m to protect threatened taxon",NA
"Asclepias curtissii A.Gray","Asclepias","curtissii",NA,"HUMAN_OBSERVATION","2020-08-31T10:43:55","iNaturalist","Observations",NA,"United States of America",NA,"Florida","locality:  NA, occurrenceRemarks: NA, verbatimLocality: Florida, US",27.08538,-81.301609,"127348991",29775,"Coordinate uncertainty increased to 29775m to protect threatened taxon",NA
"Asclepias curtissii A.Gray","Asclepias","curtissii",NA,"HUMAN_OBSERVATION","2020-09-02T10:12:00","iNaturalist","Observations",NA,"United States of America",NA,"Florida","locality:  NA, occurrenceRemarks: NA, verbatimLocality: Florida, US",27.760369,-82.662274,"239336608",29704,"Coordinate uncertainty increased to 29704m at the request of the observer",NA
"Asclepias curtissii A.Gray","Asclepias","curtissii",NA,"HUMAN_OBSERVATION","2020-09-06T11:09:28","iNaturalist","Observations",NA,"United States of America",NA,"Florida","locality:  NA, occurrenceRemarks: NA, verbatimLocality: Florida, US",27.448069,-82.017577,"128550721",29727,"Coordinate uncertainty increased to 29727m to protect threatened taxon",NA
"Asclepias curtissii A.Gray","Asclepias","curtissii",NA,"HUMAN_OBSERVATION","2020-09-07T10:41:35","iNaturalist","Observations",NA,"United States of America",NA,"Florida","locality:  NA, occurrenceRemarks: NA, verbatimLocality: Florida, US",27.775553,-81.438993,"128793325",29704,"Coordinate uncertainty increased to 29704m to protect threatened taxon",NA
"Asclepias curtissii A.Gray","Asclepias","curtissii",NA,"HUMAN_OBSERVATION","2020-09-10T14:08:28","iNaturalist","Observations",NA,"United States of America",NA,"Florida","locality:  NA, occurrenceRemarks: NA, verbatimLocality: Florida, US",27.918295,-80.530209,"129397504",29680,"Coordinate uncertainty increased to 29680m at the request of the observer",NA
"Asclepias curtissii A.Gray","Asclepias","curtissii",NA,"HUMAN_OBSERVATION","2020-11-24T15:55:10","iNaturalist","Observations",NA,"United States of America",NA,"Florida","locality:  NA, occurrenceRemarks: A single plant observed, although approximately 20 others have been seen during the growing season., verbatimLocality: United States",26.894605,-80.047377,"143395791",29798,"Coordinate uncertainty increased to 29798m to protect threatened taxon",NA
"Asclepias curtissii A.Gray","Asclepias","curtissii",NA,"HUMAN_OBSERVATION","2019-03-20T16:31:25","iNaturalist","Observations",NA,"United States of America",NA,"Florida","locality:  NA, occurrenceRemarks: Approximately 21 plants emerging from winter dormancy in fire-suppressed scrub @ JILONA. With Lechea cernua, Cladonia perforata, Cladonia leporina, Quercus myrtifolia, and Pinus clausa., verbatimLocality: United States",26.866026,-80.034655,"47866986",29798,"Coordinate uncertainty increased to 29798m to protect threatened taxon",NA
"Asclepias curtissii A.Gray","Asclepias","curtissii",NA,"HUMAN_OBSERVATION","2019-05-27T00:00:00","iNaturalist","Observations",NA,"United States of America",NA,"Florida","locality:  NA, occurrenceRemarks: NA, verbatimLocality: Florida, US",27.636453,-81.400477,"56712704",29704,"Coordinate uncertainty increased to 29704m to protect threatened taxon",NA
"Asclepias curtissii A.Gray","Asclepias","curtissii",NA,"HUMAN_OBSERVATION","2019-05-17T12:03:45","iNaturalist","Observations",NA,"United States of America",NA,"Florida","locality:  NA, occurrenceRemarks: NA, verbatimLocality: Florida, US",29.044095,-81.63611,"57812144",29533,"Coordinate uncertainty increased to 29533m at the request of the observer",NA
"Asclepias curtissii A.Gray","Asclepias","curtissii",NA,"HUMAN_OBSERVATION","2019-06-27T07:29:49","iNaturalist","Observations",NA,"United States of America",NA,"Florida","locality:  NA, occurrenceRemarks: NA, verbatimLocality: Florida, US",27.852425,-81.786541,"60878862",29680,"Coordinate uncertainty increased to 29680m to protect threatened taxon",NA
"Asclepias curtissii A.Gray","Asclepias","curtissii",NA,"HUMAN_OBSERVATION","2019-07-27T12:37:00","iNaturalist","Observations",NA,"United States of America",NA,"Florida","locality:  NA, occurrenceRemarks: Curtis Milkweed, verbatimLocality: Volusia County, US-FL, US",28.915802,-81.30705,"305895160",29558,"Coordinate uncertainty increased to 29558m to protect threatened taxon",NA
"Asclepias curtissii A.Gray","Asclepias","curtissii",NA,"HUMAN_OBSERVATION","2019-07-04T10:00:00","iNaturalist","Observations",NA,"United States of America",NA,"Florida","locality:  NA, occurrenceRemarks: NA, verbatimLocality: Florida, US",27.746917,-82.337231,"61402743",29704,"Coordinate uncertainty increased to 29704m at the request of the observer",NA
"Asclepias curtissii A.Gray","Asclepias","curtissii",NA,"HUMAN_OBSERVATION","2019-07-08T08:33:29","iNaturalist","Observations",NA,"United States of America",NA,"Florida","locality:  NA, occurrenceRemarks: NA, verbatimLocality: Florida, US",27.653378,-81.419708,"61917877",29704,"Coordinate uncertainty increased to 29704m to protect threatened taxon",NA
"Asclepias curtissii A.Gray","Asclepias","curtissii",NA,"HUMAN_OBSERVATION","2019-07-08T10:42:35","iNaturalist","Observations",NA,"United States of America",NA,"Florida","locality:  NA, occurrenceRemarks: NA, verbatimLocality: Florida, US",27.757175,-81.504813,"61917332",29704,"Coordinate uncertainty increased to 29704m to protect threatened taxon",NA
"Asclepias curtissii A.Gray","Asclepias","curtissii",NA,"HUMAN_OBSERVATION","2019-07-09T09:25:32","iNaturalist","Observations",NA,"United States of America",NA,"Florida","locality:  NA, occurrenceRemarks: NA, verbatimLocality: Florida, US",27.236115,-81.303223,"61976459",29751,"Coordinate uncertainty increased to 29751m to protect threatened taxon",NA
"Asclepias curtissii A.Gray","Asclepias","curtissii",NA,"HUMAN_OBSERVATION","2019-07-12T08:14:41","iNaturalist","Observations",NA,"United States of America",NA,"Florida","locality:  NA, occurrenceRemarks: NA, verbatimLocality: Florida, US",27.749615,-81.538941,"62354010",29704,"Coordinate uncertainty increased to 29704m to protect threatened taxon",NA
"Asclepias curtissii A.Gray","Asclepias","curtissii",NA,"HUMAN_OBSERVATION","2019-07-13T09:27:39","iNaturalist","Observations",NA,"United States of America",NA,"Florida","locality:  NA, occurrenceRemarks: NA, verbatimLocality: Florida, US",27.714023,-81.501642,"62473462",29704,"Coordinate uncertainty increased to 29704m to protect threatened taxon",NA
"Asclepias curtissii A.Gray","Asclepias","curtissii",NA,"HUMAN_OBSERVATION","2019-07-13T09:43:06","iNaturalist","Observations",NA,"United States of America",NA,"Florida","locality:  NA, occurrenceRemarks: NA, verbatimLocality: Florida, US",27.728593,-81.572055,"62475411",29704,"Coordinate uncertainty increased to 29704m to protect threatened taxon",NA
"Asclepias curtissii A.Gray","Asclepias","curtissii",NA,"HUMAN_OBSERVATION","2019-07-13T09:19:56","iNaturalist","Observations",NA,"United States of America",NA,"Florida","locality:  NA, occurrenceRemarks: NA, verbatimLocality: Florida, US",27.608619,-81.529847,"62488659",29704,"Coordinate uncertainty increased to 29704m to protect threatened taxon",NA
"Asclepias curtissii A.Gray","Asclepias","curtissii",NA,"HUMAN_OBSERVATION","2019-07-14T16:31:26","iNaturalist","Observations",NA,"United States of America",NA,"Florida","locality:  NA, occurrenceRemarks: NA, verbatimLocality: Florida, US",27.545109,-81.425289,"62658582",29727,"Coordinate uncertainty increased to 29727m to protect threatened taxon",NA
"Asclepias curtissii A.Gray","Asclepias","curtissii",NA,"HUMAN_OBSERVATION","2019-07-18T00:00:00","iNaturalist","Observations",NA,"United States of America",NA,"Florida","locality:  NA, occurrenceRemarks: NA, verbatimLocality: Florida, US",28.151395,-81.519764,"63191864",29656,"Coordinate uncertainty increased to 29656m to protect threatened taxon",NA
"Asclepias curtissii A.Gray","Asclepias","curtissii",NA,"HUMAN_OBSERVATION","2019-07-21T13:21:54","iNaturalist","Observations",NA,"United States of America",NA,"Florida","locality:  NA, occurrenceRemarks: NA, verbatimLocality: Florida, US",27.617921,-81.513644,"63594469",29704,"Coordinate uncertainty increased to 29704m to protect threatened taxon",NA
"Asclepias curtissii A.Gray","Asclepias","curtissii",NA,"HUMAN_OBSERVATION","2019-07-21T13:11:35","iNaturalist","Observations",NA,"United States of America",NA,"Florida","locality:  NA, occurrenceRemarks: NA, verbatimLocality: Florida, US",27.728685,-81.597818,"63637321",29704,"Coordinate uncertainty increased to 29704m to protect threatened taxon",NA
"Asclepias curtissii A.Gray","Asclepias","curtissii",NA,"HUMAN_OBSERVATION","2019-07-21T13:10:52","iNaturalist","Observations",NA,"United States of America",NA,"Florida","locality:  NA, occurrenceRemarks: NA, verbatimLocality: Florida, US",27.700566,-81.478076,"64371605",29704,"Coordinate uncertainty increased to 29704m to protect threatened taxon",NA
"Asclepias curtissii A.Gray","Asclepias","curtissii",NA,"HUMAN_OBSERVATION","2019-07-21T13:16:56","iNaturalist","Observations",NA,"United States of America",NA,"Florida","locality:  NA, occurrenceRemarks: NA, verbatimLocality: Florida, US",27.654213,-81.570542,"64371636",29704,"Coordinate uncertainty increased to 29704m to protect threatened taxon",NA
"Asclepias curtissii A.Gray","Asclepias","curtissii",NA,"HUMAN_OBSERVATION","2019-07-21T13:22:05","iNaturalist","Observations",NA,"United States of America",NA,"Florida","locality:  NA, occurrenceRemarks: NA, verbatimLocality: Florida, US",27.618094,-81.416489,"64371668",29704,"Coordinate uncertainty increased to 29704m to protect threatened taxon",NA
"Asclepias curtissii A.Gray","Asclepias","curtissii",NA,"HUMAN_OBSERVATION","2019-07-28T16:25:00","iNaturalist","Observations",NA,"United States of America",NA,"Florida","locality:  NA, occurrenceRemarks: NA, verbatimLocality: Florida, US",27.130375,-81.205456,"65005782",29775,"Coordinate uncertainty increased to 29775m to protect threatened taxon",NA
"Asclepias curtissii A.Gray","Asclepias","curtissii",NA,"HUMAN_OBSERVATION","2019-07-28T16:38:00","iNaturalist","Observations",NA,"United States of America",NA,"Florida","locality:  NA, occurrenceRemarks: NA, verbatimLocality: Florida, US",27.050895,-81.23878,"65188060",29775,"Coordinate uncertainty increased to 29775m to protect threatened taxon",NA
"Asclepias curtissii A.Gray","Asclepias","curtissii",NA,"HUMAN_OBSERVATION","2019-08-04T09:34:53","iNaturalist","Observations",NA,"United States of America",NA,"Florida","locality:  NA, occurrenceRemarks: NA, verbatimLocality: Florida, US",27.673727,-81.563336,"65440281",29704,"Coordinate uncertainty increased to 29704m to protect threatened taxon",NA
"Asclepias curtissii A.Gray","Asclepias","curtissii",NA,"HUMAN_OBSERVATION","2019-08-09T13:59:05","iNaturalist","Observations",NA,"United States of America",NA,"Florida","locality:  NA, occurrenceRemarks: NA, verbatimLocality: Florida, US",27.001089,-81.297408,"66111573",29775,"Coordinate uncertainty increased to 29775m to protect threatened taxon",NA
"Asclepias curtissii A.Gray","Asclepias","curtissii",NA,"HUMAN_OBSERVATION","2019-08-10T00:00:00","iNaturalist","Observations",NA,"United States of America",NA,"Florida","locality:  NA, occurrenceRemarks: NA, verbatimLocality: Polk County, US-FL, US",27.89545,-81.420266,"66254136",29680,"Coordinate uncertainty increased to 29680m to protect threatened taxon",NA
"Asclepias curtissii A.Gray","Asclepias","curtissii",NA,"HUMAN_OBSERVATION","2019-08-10T18:01:52","iNaturalist","Observations",NA,"United States of America",NA,"Florida","locality:  NA, occurrenceRemarks: NA, verbatimLocality: Florida, US",27.065642,-81.369492,"66266076",29775,"Coordinate uncertainty increased to 29775m to protect threatened taxon",NA
"Asclepias curtissii A.Gray","Asclepias","curtissii",NA,"HUMAN_OBSERVATION","2019-08-11T08:24:40","iNaturalist","Observations",NA,"United States of America",NA,"Florida","locality:  NA, occurrenceRemarks: NA, verbatimLocality: Florida, US",27.738187,-81.523215,"66356570",29704,"Coordinate uncertainty increased to 29704m to protect threatened taxon",NA
"Asclepias curtissii A.Gray","Asclepias","curtissii",NA,"HUMAN_OBSERVATION","2019-08-25T19:24:36","iNaturalist","Observations",NA,"United States of America",NA,"Florida","locality:  NA, occurrenceRemarks: 7 plants observed in Pinus Claudia clear-cut. All plants flowering., verbatimLocality: Florida, US",29.192544,-81.768132,"68326500",29533,"Coordinate uncertainty increased to 29533m to protect threatened taxon",NA
"Asclepias curtissii A.Gray","Asclepias","curtissii",NA,"HUMAN_OBSERVATION","2019-08-17T17:10:33","iNaturalist","Observations",NA,"United States of America",NA,"Florida","locality:  NA, occurrenceRemarks: Approximately 40 plants observed along 1/2 mile of sandhill through low, ancient scrub. Developing follicles and flowers observed on same plants., verbatimLocality: Florida, US",29.962912,-81.847521,"68328972",29433,"Coordinate uncertainty increased to 29433m to protect threatened taxon",NA
"Asclepias curtissii A.Gray","Asclepias","curtissii",NA,"HUMAN_OBSERVATION","2019-08-25T19:23:40","iNaturalist","Observations",NA,"United States of America",NA,"Florida","locality:  NA, occurrenceRemarks: NA, verbatimLocality: Florida, US",29.075008,-81.649665,"68915726",29533,"Coordinate uncertainty increased to 29533m at the request of the observer",NA
"Asclepias curtissii A.Gray","Asclepias","curtissii",NA,"HUMAN_OBSERVATION","2019-08-11T10:59:00","iNaturalist","Observations",NA,"United States of America",NA,"Florida","locality:  NA, occurrenceRemarks: i found a whole population in a coastal sand pine scrub soon to be developed, verbatimLocality: Florida, US",27.814411,-80.455934,"77315775",29680,"Coordinate uncertainty increased to 29680m to protect threatened taxon",NA
"Asclepias curtissii A.Gray","Asclepias","curtissii",NA,"HUMAN_OBSERVATION","2019-09-09T18:25:02","iNaturalist","Observations",NA,"United States of America",NA,"Florida","locality:  NA, occurrenceRemarks: NA, verbatimLocality: Florida, US",27.631263,-81.446771,"70292193",29704,"Coordinate uncertainty increased to 29704m to protect threatened taxon",NA
"Asclepias curtissii A.Gray","Asclepias","curtissii",NA,"HUMAN_OBSERVATION","2019-09-14T11:49:00","iNaturalist","Observations",NA,"United States of America",NA,"Florida","locality:  NA, occurrenceRemarks: NA, verbatimLocality: Florida, US",29.648548,-81.930053,"70891943",29458,"Coordinate uncertainty increased to 29458m to protect threatened taxon",NA
"Asclepias curtissii A.Gray","Asclepias","curtissii",NA,"HUMAN_OBSERVATION","2019-09-16T10:31:36","iNaturalist","Observations",NA,"United States of America",NA,"Florida","locality:  NA, occurrenceRemarks: NA, verbatimLocality: Florida, US",26.519376,-81.834731,"71128318",29845,"Coordinate uncertainty increased to 29845m to protect threatened taxon",NA
"Asclepias curtissii A.Gray","Asclepias","curtissii",NA,"HUMAN_OBSERVATION","2019-10-29T13:48:47","iNaturalist","Observations",NA,"United States of America",NA,"Florida","locality:  NA, occurrenceRemarks: Found in heavily disturbed xeric white sands embankment with gopher apple and young scrub oaks, near sand pine., verbatimLocality: Florida, US",27.398368,-81.551192,"76161679",29751,"Coordinate uncertainty increased to 29751m to protect threatened taxon",NA
"Asclepias curtissii A.Gray","Asclepias","curtissii",NA,"HUMAN_OBSERVATION","2018-07-01T00:00:00","iNaturalist","Observations",NA,"United States of America",NA,"Florida","locality:  NA, occurrenceRemarks: NA, verbatimLocality: Polk County, US-FL, US",27.872728,-81.717465,"30300378",401,"Coordinate uncertainty increased to 401m to protect threatened taxon",NA
"Asclepias curtissii A.Gray","Asclepias","curtissii",NA,"HUMAN_OBSERVATION","2018-07-01T00:00:00","iNaturalist","Observations",NA,"United States of America",NA,"Florida","locality:  NA, occurrenceRemarks: NA, verbatimLocality: Polk County, US-FL, US",27.944209,-81.61976,"30300707",469,"Coordinate uncertainty increased to 469m to protect threatened taxon",NA
"Asclepias curtissii A.Gray","Asclepias","curtissii",NA,"HUMAN_OBSERVATION","2018-07-16T08:53:20","iNaturalist","Observations",NA,"United States of America",NA,"Florida","locality:  NA, occurrenceRemarks: NA, verbatimLocality: Florida, US",27.914283,-81.454297,"31264225",6,"Coordinate uncertainty increased to 6m to protect threatened taxon",NA
"Asclepias curtissii A.Gray","Asclepias","curtissii",NA,"HUMAN_OBSERVATION","2018-07-15T08:42:00","iNaturalist","Observations",NA,"United States of America",NA,"Florida","locality:  NA, occurrenceRemarks: NA, verbatimLocality: Florida, US",27.95713,-81.489644,"31366206",202,"Coordinate uncertainty increased to 202m to protect threatened taxon",NA
"Asclepias curtissii A.Gray","Asclepias","curtissii",NA,"HUMAN_OBSERVATION","2018-07-22T00:00:00","iNaturalist","Observations",NA,"United States of America",NA,"Florida","locality:  NA, occurrenceRemarks: NA, verbatimLocality: Polk County, US-FL, US",28.13971,-81.632501,"31700270",67,"Coordinate uncertainty increased to 67m to protect threatened taxon",NA
"Asclepias curtissii A.Gray","Asclepias","curtissii",NA,"HUMAN_OBSERVATION","2018-07-29T00:00:00","iNaturalist","Observations",NA,"United States of America",NA,"Florida","locality:  NA, occurrenceRemarks: NA, verbatimLocality: Polk County, US-FL, US",28.075744,-81.573272,"32247275",29656,"Coordinate uncertainty increased to 29656m to protect threatened taxon",NA
"Asclepias curtissii A.Gray","Asclepias","curtissii",NA,"HUMAN_OBSERVATION","2018-07-25T18:17:08","iNaturalist","Observations",NA,"United States of America",NA,"Florida","locality:  NA, occurrenceRemarks: NA, verbatimLocality: Florida, US",26.203482,-81.727377,"32302128",29868,"Coordinate uncertainty increased to 29868m to protect threatened taxon",NA
"Asclepias curtissii A.Gray","Asclepias","curtissii",NA,"HUMAN_OBSERVATION","2018-07-16T20:01:03","iNaturalist","Observations",NA,"United States of America",NA,"Florida","locality:  NA, occurrenceRemarks: A cluster of about 4 total plants, with one juvenile., verbatimLocality: Florida, US",26.363555,-81.701084,"32303679",29868,"Coordinate uncertainty increased to 29868m to protect threatened taxon",NA
"Asclepias curtissii A.Gray","Asclepias","curtissii",NA,"HUMAN_OBSERVATION","2018-07-11T09:15:20","iNaturalist","Observations",NA,"United States of America",NA,"Florida","locality:  NA, occurrenceRemarks: NA, verbatimLocality: Florida, US",29.316604,-81.789688,"36904073",29508,"Coordinate uncertainty increased to 29508m at the request of the observer",NA
"Asclepias curtissii A.Gray","Asclepias","curtissii",NA,"HUMAN_OBSERVATION","2018-08-05T00:00:00","iNaturalist","Observations",NA,"United States of America",NA,"Florida","locality:  NA, occurrenceRemarks: NA, verbatimLocality: Florida, US",27.764238,-81.517358,"32723300",29704,"Coordinate uncertainty increased to 29704m to protect threatened taxon",NA
"Asclepias curtissii A.Gray","Asclepias","curtissii",NA,"HUMAN_OBSERVATION","2018-08-05T00:00:00","iNaturalist","Observations",NA,"United States of America",NA,"Florida","locality:  NA, occurrenceRemarks: NA, verbatimLocality: Florida, US",27.786915,-81.580989,"32723608",275,"Coordinate uncertainty increased to 275m to protect threatened taxon",NA
"Asclepias curtissii A.Gray","Asclepias","curtissii",NA,"HUMAN_OBSERVATION","2018-08-11T12:55:00","iNaturalist","Observations",NA,"United States of America",NA,"Florida","locality:  NA, occurrenceRemarks: NA, verbatimLocality: Volusia County, US-FL, US",28.889417,-81.278118,"35268001",199,"Coordinate uncertainty increased to 199m to protect threatened taxon",NA
"Asclepias curtissii A.Gray","Asclepias","curtissii",NA,"HUMAN_OBSERVATION","2018-08-11T13:16:00","iNaturalist","Observations",NA,"United States of America",NA,"Florida","locality:  NA, occurrenceRemarks: NA, verbatimLocality: Volusia County, US-FL, US",28.9124,-81.257239,"33101998",199,"Coordinate uncertainty increased to 199m to protect threatened taxon",NA
"Asclepias curtissii A.Gray","Asclepias","curtissii",NA,"HUMAN_OBSERVATION","2018-08-11T08:25:06","iNaturalist","Observations",NA,"United States of America",NA,"Florida","locality:  NA, occurrenceRemarks: NA, verbatimLocality: Volusia County, US-FL, US",28.993913,-81.209987,"33103111",29558,"Coordinate uncertainty increased to 29558m at the request of the observer",NA
"Asclepias curtissii A.Gray","Asclepias","curtissii",NA,"HUMAN_OBSERVATION","2018-09-15T08:54:01","iNaturalist","Observations",NA,"United States of America",NA,"Florida","locality:  NA, occurrenceRemarks: NA, verbatimLocality: Florida, US",28.125553,-81.428362,"35550663",3,"Coordinate uncertainty increased to 3m to protect threatened taxon",NA
"Asclepias curtissii A.Gray","Asclepias","curtissii",NA,"HUMAN_OBSERVATION","2018-09-15T08:55:31","iNaturalist","Observations",NA,"United States of America",NA,"Florida","locality:  NA, occurrenceRemarks: NA, verbatimLocality: Florida, US",28.065663,-81.463993,"35550632",4,"Coordinate uncertainty increased to 4m to protect threatened taxon",NA
"Asclepias curtissii A.Gray","Asclepias","curtissii",NA,"HUMAN_OBSERVATION","2017-06-28T14:45:48","iNaturalist","Observations",NA,"United States of America",NA,"Florida","locality:  NA, occurrenceRemarks: Lake Blue Scrub WEA, verbatimLocality: Polk County, US-FL, US",28.016359,-81.66742,"15040807",12,"Coordinate uncertainty increased to 12m to protect threatened taxon",NA
"Asclepias curtissii A.Gray","Asclepias","curtissii",NA,"HUMAN_OBSERVATION","2017-07-08T11:37:00","iNaturalist","Observations",NA,"United States of America",NA,"Florida","locality:  NA, occurrenceRemarks: NA, verbatimLocality: Florida, US",27.723289,-81.544419,"14859309",199,"Coordinate uncertainty increased to 199m to protect threatened taxon",NA
"Asclepias curtissii A.Gray","Asclepias","curtissii",NA,"HUMAN_OBSERVATION","2017-08-08T15:59:37","iNaturalist","Observations",NA,"United States of America",NA,"Florida","locality:  NA, occurrenceRemarks: NA, verbatimLocality: Polk County, US-FL, US",28.110058,-81.690698,"15449660",29656,"Coordinate uncertainty increased to 29656m to protect threatened taxon",NA
"Asclepias curtissii A.Gray","Asclepias","curtissii",NA,"HUMAN_OBSERVATION","2016-05-28T10:24:00","iNaturalist","Observations",NA,"United States of America",NA,"Florida","locality:  NA, occurrenceRemarks: NA, verbatimLocality: Florida, US",27.881165,-80.587706,"307673539",29680,"Coordinate uncertainty increased to 29680m at the request of the observer",NA
"Asclepias curtissii A.Gray","Asclepias","curtissii",NA,"HUMAN_OBSERVATION","2016-05-26T20:29:00","iNaturalist","Observations",NA,"United States of America",NA,"Florida","locality:  NA, occurrenceRemarks: NA, verbatimLocality: Florida, US",27.445868,-81.592093,"43863578",29727,"Coordinate uncertainty increased to 29727m at the request of the observer",NA
"Asclepias curtissii A.Gray","Asclepias","curtissii",NA,"HUMAN_OBSERVATION","2016-05-27T16:38:00","iNaturalist","Observations",NA,"United States of America",NA,"Florida","locality:  NA, occurrenceRemarks: NA, verbatimLocality: Florida, US",29.146955,-81.716381,"43863579",29533,"Coordinate uncertainty increased to 29533m at the request of the observer",NA
"Asclepias curtissii A.Gray","Asclepias","curtissii",NA,"HUMAN_OBSERVATION","2016-05-26T12:49:00","iNaturalist","Observations",NA,"United States of America",NA,"Florida","locality:  NA, occurrenceRemarks: NA, verbatimLocality: United States",26.546053,-80.095226,"43863580",29845,"Coordinate uncertainty increased to 29845m at the request of the observer",NA
"Asclepias curtissii A.Gray","Asclepias","curtissii",NA,"HUMAN_OBSERVATION","2016-05-26T11:42:00","iNaturalist","Observations",NA,"United States of America",NA,"Florida","locality:  NA, occurrenceRemarks: NA, verbatimLocality: United States",26.53738,-80.069947,"43863583",29845,"Coordinate uncertainty increased to 29845m at the request of the observer",NA
"Asclepias curtissii A.Gray","Asclepias","curtissii",NA,"HUMAN_OBSERVATION","2016-05-26T12:04:00","iNaturalist","Observations",NA,"United States of America",NA,"Florida","locality:  NA, occurrenceRemarks: NA, verbatimLocality: United States",26.590399,-80.191324,"43863586",29845,"Coordinate uncertainty increased to 29845m at the request of the observer",NA
"Asclepias curtissii A.Gray","Asclepias","curtissii",NA,"HUMAN_OBSERVATION","2016-05-26T15:26:00","iNaturalist","Observations",NA,"United States of America",NA,"Florida","locality:  NA, occurrenceRemarks: NA, verbatimLocality: United States",26.940679,-80.15444,"43863593",29798,"Coordinate uncertainty increased to 29798m at the request of the observer",NA
"Asclepias curtissii A.Gray","Asclepias","curtissii",NA,"HUMAN_OBSERVATION","2016-07-03T07:39:00","iNaturalist","Observations",NA,"United States of America",NA,"Florida","locality:  NA, occurrenceRemarks: scrub, verbatimLocality: Florida, US",27.967931,-81.620237,"162033906",78169,"Coordinate uncertainty increased to 78169m to protect threatened taxon",NA
"Asclepias curtissii A.Gray","Asclepias","curtissii",NA,"HUMAN_OBSERVATION","2016-08-12T18:12:26","iNaturalist","Observations",NA,"United States of America",NA,"Florida","locality:  NA, occurrenceRemarks: NA, verbatimLocality: Florida, US",27.538206,-81.490524,"7481274",5,"Coordinate uncertainty increased to 5m to protect threatened taxon",NA
"Asclepias curtissii A.Gray","Asclepias","curtissii",NA,"HUMAN_OBSERVATION","2016-12-21T11:29:24",NA,NA,NA,"United States of America",NA,NA,"locality:  NA, occurrenceRemarks: NA, verbatimLocality: NA",26.887674,-80.058574,NA,NA,NA,NA
"Asclepias curtissii A.Gray","Asclepias","curtissii",NA,"HUMAN_OBSERVATION","2016-12-21T11:29:24",NA,NA,NA,"United States of America",NA,NA,"locality:  NA, occurrenceRemarks: NA, verbatimLocality: NA",26.887674,-80.058574,NA,NA,NA,NA
"Asclepias curtissii A.Gray","Asclepias","curtissii",NA,"HUMAN_OBSERVATION","2016-12-21T11:29:24",NA,NA,NA,"United States of America",NA,NA,"locality:  NA, occurrenceRemarks: NA, verbatimLocality: NA",26.887674,-80.058574,NA,NA,NA,NA
"Asclepias curtissii A.Gray","Asclepias","curtissii",NA,"HUMAN_OBSERVATION","2015-05-22T11:10:07","iNaturalist","Observations",NA,"United States of America",NA,"Florida","locality:  NA, occurrenceRemarks: OLYMPUS DIGITAL CAMERA, verbatimLocality: Florida, US",27.449521,-82.25048,"2875864",612,"Coordinate uncertainty increased to 612m to protect threatened taxon",NA
"Asclepias curtissii A.Gray","Asclepias","curtissii",NA,"HUMAN_OBSERVATION","2014-07-02T20:59:00","iNaturalist","Observations",NA,"United States of America",NA,"Florida","locality:  NA, occurrenceRemarks: NA, verbatimLocality: Florida, US",27.264782,-81.302646,"20270718",29751,"Coordinate uncertainty increased to 29751m to protect threatened taxon",NA
"Asclepias curtissii A.Gray","Asclepias","curtissii",NA,"HUMAN_OBSERVATION","2013-06-24T10:50:30","iNaturalist","Observations",NA,"United States of America",NA,"Florida","locality:  NA, occurrenceRemarks: Jason Sharp; Lake June-In-Winter Scrub State Park, Highlands County, Florida, verbatimLocality: Florida, US",27.263308,-81.441864,"888053",4447,"Coordinate uncertainty increased to 4447m to protect threatened taxon",NA
"Asclepias curtissii A.Gray","Asclepias","curtissii",NA,"HUMAN_OBSERVATION","2012-05-30T13:20:00","iNaturalist","Observations",NA,"United States of America",NA,"Florida","locality:  NA, occurrenceRemarks: Jason Sharp; Rye Preserve, Manatee County, Florida, verbatimLocality: Florida, US",27.444292,-82.363046,"175702",1924,"Coordinate uncertainty increased to 1924m to protect threatened taxon",NA
"Asclepias curtissii A.Gray","Asclepias","curtissii",NA,"PRESERVED_SPECIMEN","2011-07-25T00:00:00","USF","Herb",NA,"United States of America","Hillsborough Co.","Florida","locality:  Balm Boyette Scrub Preserve, Lithia., occurrenceRemarks: NA, verbatimLocality: Balm Boyette Scrub Preserve, Lithia.",27.7819,-82.2575,"299688",NA,NA,"Both sides of N - S fire lane in sand pine [Pinus clausa] - oak scrub."
"Asclepias curtissii A.Gray","Asclepias","curtissii",NA,"HUMAN_OBSERVATION","2009-07-05T07:22:00","iNaturalist","Observations",NA,"United States of America",NA,"Florida","locality:  NA, occurrenceRemarks: NA, verbatimLocality: Florida, US",27.190956,-81.376293,"190558979",29775,"Coordinate uncertainty increased to 29775m to protect threatened taxon",NA
"Asclepias curtissii A.Gray","Asclepias","curtissii",NA,"PRESERVED_SPECIMEN","1991-05-24T00:00:00","FTG","Herbarium",NA,"United States of America","Highlands","Florida","locality:  NA, occurrenceRemarks: NA, verbatimLocality: NA",27.3434,-81.341,"168904",47866,NA,NA
"Asclepias curtissii A.Gray","Asclepias","curtissii",NA,"PRESERVED_SPECIMEN","1991-05-23T00:00:00","FTG","Herbarium",NA,"United States of America","Palm Beach","Florida","locality:  NA, occurrenceRemarks: NA, verbatimLocality: NA",26.6476,-80.4365,"168905",67392,NA,NA
"Asclepias curtissii A.Gray","Asclepias","curtissii",NA,"PRESERVED_SPECIMEN","1990-11-09T00:00:00","FTG","Herbarium",NA,"United States of America","Highlands","Florida","locality:  NA, occurrenceRemarks: NA, verbatimLocality: NA",27.3434,-81.341,"222164",47866,NA,NA
"Asclepias curtissii A.Gray","Asclepias","curtissii",NA,"PRESERVED_SPECIMEN","1988-06-11T00:00:00","FTG","Herbarium",NA,"United States of America","Highlands","Florida","locality:  NA, occurrenceRemarks: NA, verbatimLocality: NA",27.3434,-81.341,"190869",47866,NA,NA
"Asclepias curtissii A.Gray","Asclepias","curtissii",NA,"PRESERVED_SPECIMEN","1980-05-24T00:00:00","FTG","Herbarium",NA,"United States of America","Highlands","Florida","locality:  NA, occurrenceRemarks: NA, verbatimLocality: NA",27.3434,-81.341,"183531",47866,NA,NA
"Asclepias curtissii A.Gray","Asclepias","curtissii",NA,"PRESERVED_SPECIMEN","1978-06-17T00:00:00","FTG","Herbarium",NA,"United States of America","Broward","Florida","locality:  NA, occurrenceRemarks: NA, verbatimLocality: NA",26.1519,-80.4559,"167015",56415,NA,NA
"Asclepias curtissii A.Gray","Asclepias","curtissii",NA,"PRESERVED_SPECIMEN","1971-07-28T00:00:00","FTG","Herbarium",NA,"United States of America","Martin","Florida","locality:  NA, occurrenceRemarks: NA, verbatimLocality: NA",27.0816,-80.3985,"192206",51521,NA,NA
"Asclepias curtissii A.Gray","Asclepias","curtissii",NA,"PRESERVED_SPECIMEN","1935-05-25T00:00:00","FTG","Herbarium",NA,"United States of America","Highlands","Florida","locality:  NA, occurrenceRemarks: NA, verbatimLocality: NA",27.3434,-81.341,"200308",47866,NA,NA
"Asclepias curtissii A.Gray","Asclepias","curtissii",NA,"PRESERVED_SPECIMEN","1928-05-15T00:00:00","FTG","Herbarium",NA,"United States of America","Highlands","Florida","locality:  NA, occurrenceRemarks: NA, verbatimLocality: NA",27.3434,-81.341,"200317",47866,NA,NA
"Asclepias aceratoides Nash","Asclepias","aceratoides",NA,"PRESERVED_SPECIMEN","1894-06-16T00:00:00","NY","NY","http://biocol.org/urn:lsid:biocol.org:col:15556","United States of America","Lake Co.","Florida","locality:  Vicinity of Eustis, occurrenceRemarks: NA, verbatimLocality: NA",28.852768,-81.685353,NA,NA,NA,"Exclusively in ""scrub"""
"Asclepias curtissii A.Gray","Asclepias","curtissii",NA,"PRESERVED_SPECIMEN",NA,"F","Botany","Botany","United States of America","Lake","Florida","locality:  vicinity of Eustis, occurrenceRemarks: NA, verbatimLocality: NA",28.852768,-81.685353,NA,NA,NA,NA
"Asclepias curtissii A.Gray","Asclepias","curtissii",NA,"PRESERVED_SPECIMEN",NA,"F","Botany","Botany","United States of America","Columbia","Florida","locality:  Lake City, occurrenceRemarks: NA, verbatimLocality: NA",30.189676,-82.63929,NA,NA,NA,NA
"Asclepias curtissii A.Gray","Asclepias","curtissii",NA,"HUMAN_OBSERVATION","2022-06-29T07:29:00","iNaturalist","Observations",NA,NA,NA,NA,"locality:  NA, occurrenceRemarks: NA, verbatimLocality: NA",NA,NA,"276325034",29558,"Coordinates hidden at the request of the observer",NA
"Asclepias curtissii A.Gray","Asclepias","curtissii",NA,"HUMAN_OBSERVATION","2022-07-11T08:26:00","iNaturalist","Observations",NA,NA,NA,NA,"locality:  NA, occurrenceRemarks: NA, verbatimLocality: NA",NA,NA,"278394536",29533,"Coordinates hidden at the request of the observer",NA
"Asclepias curtissii A.Gray","Asclepias","curtissii",NA,"HUMAN_OBSERVATION","2021-05-19T10:39:00","iNaturalist","Observations",NA,NA,NA,NA,"locality:  NA, occurrenceRemarks: NA, verbatimLocality: NA",NA,NA,"249767453",29727,"Coordinates hidden at the request of the observer",NA
"Asclepias curtissii A.Gray","Asclepias","curtissii",NA,"HUMAN_OBSERVATION","2020-06-24T11:00:44","iNaturalist","Observations",NA,NA,NA,NA,"locality:  NA, occurrenceRemarks: NA, verbatimLocality: NA",NA,NA,"112697353",29704,"Coordinates hidden at the request of the observer",NA
"Asclepias curtissii A.Gray","Asclepias","curtissii",NA,"HUMAN_OBSERVATION","2020-06-24T11:01:02","iNaturalist","Observations",NA,NA,NA,NA,"locality:  NA, occurrenceRemarks: NA, verbatimLocality: Florida, US",NA,NA,"112643276",29704,"Coordinates hidden at the request of the observer",NA
"Asclepias curtissii A.Gray","Asclepias","curtissii",NA,"HUMAN_OBSERVATION","2019-07-05T00:00:00","iNaturalist","Observations",NA,NA,NA,NA,"locality:  NA, occurrenceRemarks: NA, verbatimLocality: NA",NA,NA,"61655961",29704,"Coordinates hidden at the request of the observer",NA
"Asclepias curtissii A.Gray","Asclepias","curtissii",NA,"HUMAN_OBSERVATION","2018-08-23T00:42:00","iNaturalist","Observations",NA,NA,NA,NA,"locality:  NA, occurrenceRemarks: NA, verbatimLocality: NA",NA,NA,"34075227",29704,"Coordinates hidden at the request of the observer",NA
"Asclepias curtissii A.Gray","Asclepias","curtissii",NA,"HUMAN_OBSERVATION","2017-07-26T12:22:39","iNaturalist","Observations",NA,NA,NA,NA,"locality:  NA, occurrenceRemarks: NA, verbatimLocality: NA",NA,NA,"273384591",29680,"Coordinates hidden at the request of the observer",NA
"Asclepias curtissii A.Gray","Asclepias","curtissii",NA,"HUMAN_OBSERVATION","2016-04-29T15:01:52","iNaturalist","Observations",NA,NA,NA,NA,"locality:  NA, occurrenceRemarks: NA, verbatimLocality: NA",NA,NA,"102455348",29798,"Coordinates hidden at the request of the observer",NA
"Asclepias curtissii A.Gray","Asclepias","curtissii",NA,"PRESERVED_SPECIMEN","2009-10-04T00:00:00","USF","Herb",NA,"United States of America","Hernando Co.","Florida","locality:  NA, occurrenceRemarks: NA, verbatimLocality: NA",NA,NA,"93218",NA,NA,"Scrub just S of scrubby flatwoods.."
"Asclepias curtissii A.Gray","Asclepias","curtissii",NA,"PRESERVED_SPECIMEN","2008-08-23T00:00:00","US","US","urn:uuid:60e28f81-e634-4869-aa3e-732caed713c8","United States of America",NA,"Florida","locality:  Marion County: just N of the Sumter/Marion County line, near southern edge of Marion Oaks, W of the end of SW 179th Pl., 8 km (by air) SSW of Pedro., occurrenceRemarks: NA, verbatimLocality: NA",NA,NA,NA,NA,NA,NA
"Asclepias curtissii A.Gray","Asclepias","curtissii",NA,"PRESERVED_SPECIMEN","2007-06-28T00:00:00","USF","Herb",NA,"United States of America","Brevard Co.","Florida","locality:  NA, occurrenceRemarks: NA, verbatimLocality: NA",NA,NA,"103933",NA,NA,"Scrub."
"Asclepias curtissii A.Gray","Asclepias","curtissii",NA,"PRESERVED_SPECIMEN","2006-05-23T00:00:00","USF","Herb",NA,"United States of America","Manatee Co.","Florida","locality:  NA, occurrenceRemarks: NA, verbatimLocality: NA",NA,NA,"44473",NA,NA,"Scrub."
"Asclepias curtissii A.Gray","Asclepias","curtissii",NA,"PRESERVED_SPECIMEN","2005-06-10T00:00:00","FLAS",NA,NA,"United States of America","Polk","Florida","locality:  NA, occurrenceRemarks: NA, verbatimLocality: NA",NA,NA,NA,NA,"location information not given for endangered species",NA
"Asclepias curtissii A.Gray","Asclepias","curtissii",NA,"PRESERVED_SPECIMEN","2005-07-31T00:00:00","FLAS",NA,NA,"United States of America","Marion County","Florida","locality:  NA, occurrenceRemarks: Voucher for: Hubbard, Jeffery. Floristic Inventory of Silver River State Park. University of Florida, Gainesville, FL., verbatimLocality: NA",NA,NA,NA,NA,"location information not given for endangered species",NA
"Asclepias curtissii A.Gray","Asclepias","curtissii",NA,"PRESERVED_SPECIMEN","2004-07-20T00:00:00","USF","Herb",NA,"United States of America","Brevard Co.","Florida","locality:  NA, occurrenceRemarks: NA, verbatimLocality: NA",NA,NA,"31878",NA,NA,"Edge of sandy road, scrubby flatwoods."
"Asclepias curtissii A.Gray","Asclepias","curtissii",NA,"PRESERVED_SPECIMEN","2003-08-19T00:00:00","USF","Herb",NA,"United States of America","Brevard Co.","Florida","locality:  NA, occurrenceRemarks: NA, verbatimLocality: NA",NA,NA,"31908",NA,NA,"Sand pine [Pinus clausa] scrub, xeric. Soil sandy."
"Asclepias curtissii A.Gray","Asclepias","curtissii",NA,"HUMAN_OBSERVATION","2003-01-01T00:00:00","NTSRV","FL-NHP",NA,"United States of America","Palm Beach","Florida","locality:  NA, occurrenceRemarks: NA, verbatimLocality: NA",NA,NA,NA,NA,NA,NA
"Asclepias curtissii A.Gray","Asclepias","curtissii",NA,"PRESERVED_SPECIMEN","1999-08-16T00:00:00","USF","Herb",NA,"United States of America","Manatee Co.","Florida","locality:  NA, occurrenceRemarks: NA, verbatimLocality: NA",NA,NA,"31905",NA,NA,"Sand pine [Pinus clausa] scrub."
"Asclepias curtissii A.Gray","Asclepias","curtissii",NA,"PRESERVED_SPECIMEN","1998-07-16T00:00:00","USF","Herb",NA,"United States of America","Highlands Co.","Florida","locality:  NA, occurrenceRemarks: NA, verbatimLocality: NA",NA,NA,"31911",NA,NA,"Scrub."
"Asclepias curtissii A.Gray","Asclepias","curtissii",NA,"PRESERVED_SPECIMEN","1995-06-11T00:00:00","USF","Herb",NA,"United States of America","Highlands Co.","Florida","locality:  NA, occurrenceRemarks: NA, verbatimLocality: NA",NA,NA,"31820",NA,NA,"Dense low xeric oak [Quercus] scrub. Soils - Archbold (Typic Quartzipsamments). Community dominated by Quercus inopina, Q. chapmanii, Q. myrtifolia, Q. geminata."
"Asclepias curtissii A.Gray","Asclepias","curtissii",NA,"PRESERVED_SPECIMEN","1995-06-11T00:00:00","USF","Herb",NA,"United States of America","Highlands Co.","Florida","locality:  NA, occurrenceRemarks: NA, verbatimLocality: NA",NA,NA,"31823",NA,NA,"Vacant lots cleared of former sand pine [Pinus clausa] scrub. Soils - Archbold (Typic Quartzipsamments). Community dominated by: Polygonella myriophylla, Paronychia chartacea, Chapmannia floridana."
"Asclepias curtissii A.Gray","Asclepias","curtissii",NA,"PRESERVED_SPECIMEN","1995-06-08T00:00:00","USF","Herb",NA,"United States of America","Hillsborough Co.","Florida","locality:  NA, occurrenceRemarks: NA, verbatimLocality: NA",NA,NA,"31916",NA,NA,NA
"Asclepias curtissii A.Gray","Asclepias","curtissii",NA,"PRESERVED_SPECIMEN","1995-06-04T00:00:00","USF","Herb",NA,"United States of America","Hardee Co.","Florida","locality:  NA, occurrenceRemarks: NA, verbatimLocality: NA",NA,NA,"31833",NA,NA,"Open rosemary [Ceratiola ericoides]-low oak [Quercus] scrub on white sand. Soils - St. Lucie (Typic Quartzipsamments)."
"Asclepias curtissii A.Gray","Asclepias","curtissii",NA,"PRESERVED_SPECIMEN","1995-06-11T00:00:00","FLAS",NA,NA,"United States of America","Highlands County","Florida","locality:  NA, occurrenceRemarks: NA, verbatimLocality: NA",NA,NA,NA,NA,"location information not given for endangered species",NA
"Asclepias curtissii A.Gray","Asclepias","curtissii",NA,"PRESERVED_SPECIMEN","1994-05-09T00:00:00","USF","Herb",NA,"United States of America","Pasco Co.","Florida","locality:  NA, occurrenceRemarks: NA, verbatimLocality: NA",NA,NA,"31918",NA,NA,"Mature sand pine [Pinus clausa]/rosemary [Ceratiola ericoides] scrub."
"Asclepias curtissii A.Gray","Asclepias","curtissii",NA,"PRESERVED_SPECIMEN","1994-07-11T00:00:00","FLAS",NA,NA,"United States of America","Lee County","Florida","locality:  NA, occurrenceRemarks: Rcd. for plant id., verbatimLocality: NA",NA,NA,NA,NA,"location information not given for endangered species",NA
"Asclepias curtissii A.Gray","Asclepias","curtissii",NA,"PRESERVED_SPECIMEN","1992-06-30T00:00:00","USF","Herb",NA,"United States of America","Seminole Co.","Florida","locality:  NA, occurrenceRemarks: NA, verbatimLocality: NA",NA,NA,"31759",NA,NA,"Unburned sand pine [Pinus clausa] and burned low oak-ericad scrub. Soils - St. Lucie (Typic Quartzipsamments)."
"Asclepias curtissii A.Gray","Asclepias","curtissii",NA,"PRESERVED_SPECIMEN","1992-08-05T00:00:00","USF","Herb",NA,"United States of America","Lee Co.","Florida","locality:  NA, occurrenceRemarks: NA, verbatimLocality: NA",NA,NA,"31757",NA,NA,"Xeric oak [Quercus]-rosemary [Ceratiola ericoides] scrub. Soils - Satelite (Aquic Quartzipsamments)."
"Asclepias curtissii A.Gray","Asclepias","curtissii",NA,"PRESERVED_SPECIMEN","1991-05-23T00:00:00","FLAS",NA,NA,"United States of America","Palm Beach County","Florida","locality:  NA, occurrenceRemarks: NA, verbatimLocality: NA",NA,NA,NA,NA,"location information not given for endangered species",NA
"Asclepias curtissii A.Gray","Asclepias","curtissii",NA,"PRESERVED_SPECIMEN","1991-05-23T00:00:00","USF","Herb",NA,"United States of America","Palm Beach Co.","Florida","locality:  NA, occurrenceRemarks: NA, verbatimLocality: NA",NA,NA,"31758",NA,NA,"Coastal dwarf oak [Quercus] scrub. Soils - Paola (Spodic Quartzipsamments)."
"Asclepias curtissii A.Gray","Asclepias","curtissii",NA,"PRESERVED_SPECIMEN","1991-07-06T00:00:00","FLAS",NA,NA,"United States of America","Marion County","Florida","locality:  NA, occurrenceRemarks: Photograph & Specimen, verbatimLocality: NA",NA,NA,NA,NA,"location information not given for endangered species",NA
"Asclepias curtissii A.Gray","Asclepias","curtissii",NA,"PRESERVED_SPECIMEN","1990-09-14T00:00:00","USF","Herb",NA,"United States of America","Collier Co.","Florida","locality:  NA, occurrenceRemarks: NA, verbatimLocality: NA",NA,NA,"237027",NA,NA,"Scrub."
"Asclepias curtissii A.Gray","Asclepias","curtissii",NA,"PRESERVED_SPECIMEN","1990-09-14T00:00:00","USF","Herb",NA,"United States of America","Collier Co.","Florida","locality:  NA, occurrenceRemarks: NA, verbatimLocality: NA",NA,NA,"237039",NA,NA,"Scrub."
"Asclepias curtissii A.Gray","Asclepias","curtissii",NA,"PRESERVED_SPECIMEN","1990-01-01T00:00:00","UAM",NA,"192ef3f0-8d79-4e7b-aaad-d2430f07e6cd","United States of America","Polk","Florida","locality:  NA, occurrenceRemarks: Stems decumbent; corolla lobes green; hoods erect, oblong-attenuate, white with purple lines., verbatimLocality: NA",NA,NA,NA,NA,"field values redacted: eventDate, month, day, startDayOfYear, verbatimEventDate, recordNumber, locality, habitat",NA
"Asclepias curtissii A.Gray","Asclepias","curtissii",NA,"PRESERVED_SPECIMEN","1989-07-03T00:00:00","FLAS",NA,NA,"United States of America","Hardee County","Florida","locality:  NA, occurrenceRemarks: Voucher for M.S. thesis., verbatimLocality: NA",NA,NA,NA,NA,"location information not given for endangered species",NA
"Asclepias curtissii A.Gray","Asclepias","curtissii",NA,"PRESERVED_SPECIMEN","1989-07-01T00:00:00","FLAS",NA,NA,"United States of America","Volusia","Florida","locality:  NA, occurrenceRemarks: Voucher for M.S. thesis, verbatimLocality: NA",NA,NA,NA,NA,"location information not given for endangered species",NA
"Asclepias curtissii A.Gray","Asclepias","curtissii",NA,"PRESERVED_SPECIMEN","1989-07-02T00:00:00","FLAS",NA,NA,"United States of America","Osceola","Florida","locality:  NA, occurrenceRemarks: Voucher for M.S. Thesis, verbatimLocality: NA",NA,NA,NA,NA,"location information not given for endangered species",NA
"Asclepias curtissii A.Gray","Asclepias","curtissii",NA,"PRESERVED_SPECIMEN","1989-07-02T00:00:00","FLAS",NA,NA,"United States of America","Broward County","Florida","locality:  NA, occurrenceRemarks: Voucher for M.S. thesis, verbatimLocality: NA",NA,NA,NA,NA,"location information not given for endangered species",NA
"Asclepias curtissii A.Gray","Asclepias","curtissii",NA,"PRESERVED_SPECIMEN","1989-07-01T00:00:00","FLAS",NA,NA,"United States of America","Flagler County","Florida","locality:  NA, occurrenceRemarks: Voucher for M.S. thesis., verbatimLocality: NA",NA,NA,NA,NA,"location information not given for endangered species",NA
"Asclepias curtissii A.Gray","Asclepias","curtissii",NA,"PRESERVED_SPECIMEN","1989-07-03T00:00:00","FLAS",NA,NA,"United States of America","Lee County","Florida","locality:  NA, occurrenceRemarks: Voucher for M.S. thesis, verbatimLocality: NA",NA,NA,NA,NA,"location information not given for endangered species",NA
"Asclepias curtissii A.Gray","Asclepias","curtissii",NA,"PRESERVED_SPECIMEN","1988-04-25T00:00:00","USF","Herb",NA,"United States of America","Highlands Co.","Florida","locality:  NA, occurrenceRemarks: Associate voucher for Cortalaria avonensis Delaney & Wunderlin., verbatimLocality: NA",NA,NA,"31855",NA,NA,"Sand pine [Pinus clausa] scrub. White sand."
"Asclepias curtissii A.Gray","Asclepias","curtissii",NA,"PRESERVED_SPECIMEN","1988-06-15T00:00:00","FTG","Herbarium",NA,"United States of America","Martin","Florida","locality:  Jonathan Dickinson State Park (N. of Girl Scout Camp, occurrenceRemarks: NA, verbatimLocality: Jonathan Dickinson State Park (N. of Girl Scout Camp",NA,NA,"232928",NA,NA,"Pine Sand Scrub Habitat."
"Asclepias curtissii A.Gray","Asclepias","curtissii",NA,"PRESERVED_SPECIMEN","1988-06-01T00:00:00","USF","Herb",NA,"United States of America","Martin Co.","Florida","locality:  NA, occurrenceRemarks: NA, verbatimLocality: NA",NA,NA,"93360",NA,NA,"Sand pine [Pinus clausa] scrub."
"Asclepias curtissii A.Gray","Asclepias","curtissii",NA,"PRESERVED_SPECIMEN","1988-06-15T00:00:00","FTG","Herbarium",NA,"United States of America","Martin","Florida","locality:  Jonathon Dickinson State Park north of girl scout camp, occurrenceRemarks: NA, verbatimLocality: Jonathon Dickinson State Park north of girl scout camp",NA,NA,"235305",NA,NA,"pine sand scrub"
"Asclepias curtissii A.Gray","Asclepias","curtissii",NA,"PRESERVED_SPECIMEN","1987-05-18T00:00:00","FLAS",NA,NA,"United States of America","Highlands County","Florida","locality:  NA, occurrenceRemarks: NA, verbatimLocality: NA",NA,NA,NA,NA,"location information not given for endangered species",NA
"Asclepias curtissii A.Gray","Asclepias","curtissii",NA,"PRESERVED_SPECIMEN","1987-06-24T00:00:00","FLAS",NA,NA,"United States of America","Highlands County","Florida","locality:  NA, occurrenceRemarks: NA, verbatimLocality: NA",NA,NA,NA,NA,"location information not given for endangered species",NA
"Asclepias curtissii A.Gray","Asclepias","curtissii",NA,"PRESERVED_SPECIMEN","1987-07-07T00:00:00","FLAS",NA,NA,"United States of America","Marion County","Florida","locality:  NA, occurrenceRemarks: NA, verbatimLocality: (Lake Kerr quad).",NA,NA,NA,NA,"location information not given for endangered species",NA
"Asclepias curtissii A.Gray","Asclepias","curtissii",NA,"PRESERVED_SPECIMEN","1987-08-08T00:00:00","USF","Herb",NA,"United States of America","Polk Co.","Florida","locality:  NA, occurrenceRemarks: NA, verbatimLocality: NA",NA,NA,"31915",NA,NA,"Scrub forest on white sand along old roadway."
"Asclepias curtissii A.Gray","Asclepias","curtissii",NA,"PRESERVED_SPECIMEN","1987-08-17T00:00:00","FLAS",NA,NA,"United States of America","Brevard County","Florida","locality:  NA, occurrenceRemarks: Email of 15 Oct. 2002 from Travis Macclendon states that in a personal conversation between Margaret Hames and Karen Weichman in early Oct. 2002 Margaret Hames indicates that the location of the specimen on the label should be ""SE"" and not ""SW"" Wickham Park. The small population Travis and Karen Weichman found [recently] is almost certainly part of the population Margaret Hames reported. Kent D. Perkins, FLAS 15 Oct. 2002., verbatimLocality: NA",NA,NA,NA,NA,"location information not given for endangered species",NA
"Asclepias curtissii A.Gray","Asclepias","curtissii",NA,"PRESERVED_SPECIMEN","1987-09-30T00:00:00","FLAS",NA,NA,"United States of America","Polk","Florida","locality:  NA, occurrenceRemarks: NA, verbatimLocality: NA",NA,NA,NA,NA,"location information not given for endangered species",NA
"Asclepias curtissii A.Gray","Asclepias","curtissii",NA,"PRESERVED_SPECIMEN","1987-09-15T00:00:00","FLAS",NA,NA,"United States of America","Indian River County","Florida","locality:  NA, occurrenceRemarks: NA, verbatimLocality: NA",NA,NA,NA,NA,"location information not given for endangered species",NA
"Asclepias curtissii A.Gray","Asclepias","curtissii",NA,"PRESERVED_SPECIMEN","1987-09-10T00:00:00","USF","Herb",NA,"United States of America","Highlands Co.","Florida","locality:  NA, occurrenceRemarks: NA, verbatimLocality: NA",NA,NA,"31839",NA,NA,"Scrub on rolling hills. Associate in type locality of Dicerandra christmanii."
"Asclepias curtissii A.Gray","Asclepias","curtissii",NA,"PRESERVED_SPECIMEN","1986-06-30T00:00:00","FLAS",NA,NA,"United States of America","Highlands County","Florida","locality:  NA, occurrenceRemarks: NA, verbatimLocality: NA",NA,NA,NA,NA,"location information not given for endangered species",NA
"Asclepias curtissii A.Gray","Asclepias","curtissii",NA,"PRESERVED_SPECIMEN","1986-07-26T00:00:00","FLAS",NA,NA,"United States of America","Highlands County","Florida","locality:  NA, occurrenceRemarks: NA, verbatimLocality: NA",NA,NA,NA,NA,"location information not given for endangered species",NA
"Asclepias curtissii A.Gray","Asclepias","curtissii",NA,"PRESERVED_SPECIMEN","1986-09-24T00:00:00","FLAS",NA,NA,"United States of America","Highlands County","Florida","locality:  NA, occurrenceRemarks: Miced collection. Filed under the rarer specimen, A. curtissii., verbatimLocality: NA",NA,NA,NA,NA,"location information not given for endangered species",NA
"Asclepias curtissii A.Gray","Asclepias","curtissii",NA,"PRESERVED_SPECIMEN","1986-09-30T00:00:00","FLAS",NA,NA,"United States of America","Highlands County","Florida","locality:  NA, occurrenceRemarks: NA, verbatimLocality: NA",NA,NA,NA,NA,"location information not given for endangered species",NA
"Asclepias curtissii A.Gray","Asclepias","curtissii",NA,"PRESERVED_SPECIMEN","1986-10-14T00:00:00","FLAS",NA,NA,"United States of America","Highlands County","Florida","locality:  NA, occurrenceRemarks: NA, verbatimLocality: NA",NA,NA,NA,NA,"location information not given for endangered species",NA
"Asclepias curtissii A.Gray","Asclepias","curtissii",NA,"PRESERVED_SPECIMEN","1986-10-09T00:00:00","FLAS",NA,NA,"United States of America","Polk","Florida","locality:  NA, occurrenceRemarks: NA, verbatimLocality: NA",NA,NA,NA,NA,"location information not given for endangered species",NA
"Asclepias curtissii A.Gray","Asclepias","curtissii",NA,"PRESERVED_SPECIMEN","1986-10-01T00:00:00","FLAS",NA,NA,"United States of America","Highlands County","Florida","locality:  NA, occurrenceRemarks: Voucher for Scrub Study, verbatimLocality: NA",NA,NA,NA,NA,"location information not given for endangered species",NA
"Asclepias curtissii A.Gray","Asclepias","curtissii",NA,"PRESERVED_SPECIMEN","1986-10-09T00:00:00","FLAS",NA,NA,"United States of America","Polk","Florida","locality:  NA, occurrenceRemarks: NA, verbatimLocality: NA",NA,NA,NA,NA,"location information not given for endangered species",NA
"Asclepias curtissii A.Gray","Asclepias","curtissii",NA,"PRESERVED_SPECIMEN","1985-10-08T00:00:00","FLAS",NA,NA,"United States of America","Polk","Florida","locality:  NA, occurrenceRemarks: NA, verbatimLocality: NA",NA,NA,NA,NA,"location information not given for endangered species",NA
"Asclepias curtissii A.Gray","Asclepias","curtissii",NA,"PRESERVED_SPECIMEN","1984-09-02T00:00:00","USF","Herb",NA,"United States of America","Highlands Co.","Florida","locality:  NA, occurrenceRemarks: NA, verbatimLocality: NA",NA,NA,"31913",NA,NA,"Sand pine [Pinus clausa] scrub community."
"Asclepias curtissii A.Gray","Asclepias","curtissii",NA,"PRESERVED_SPECIMEN","1981-09-05T00:00:00","USF","Herb",NA,"United States of America","Highlands Co.","Florida","locality:  NA, occurrenceRemarks: NA, verbatimLocality: NA",NA,NA,"31904",NA,NA,"Open sand pine [Pinus clausa] scrub."
"Asclepias curtissii A.Gray","Asclepias","curtissii",NA,"PRESERVED_SPECIMEN","1981-09-16T00:00:00","USF","Herb",NA,"United States of America","Highlands Co.","Florida","locality:  NA, occurrenceRemarks: NA, verbatimLocality: NA",NA,NA,"31888",NA,NA,"Disturbed white sand scrub."
"Asclepias curtissii A.Gray","Asclepias","curtissii",NA,"PRESERVED_SPECIMEN","1981-09-05T00:00:00","USF","Herb",NA,"United States of America","Highlands Co.","Florida","locality:  NA, occurrenceRemarks: NA, verbatimLocality: NA",NA,NA,"31864",NA,NA,"Open sand pine [Pinus clausa] scrub."
"Asclepias curtissii A.Gray","Asclepias","curtissii",NA,"PRESERVED_SPECIMEN","1979-05-28T00:00:00","TEX","TEX",NA,"United States of America","Marion","Florida","locality:  Sandhills by 19, ca. 2 mi. s. jct. Fla. 40., occurrenceRemarks: NA, verbatimLocality: NA",NA,NA,NA,NA,NA,NA
"Asclepias curtissii A.Gray","Asclepias","curtissii",NA,"PRESERVED_SPECIMEN","1979-07-26T00:00:00","USF","Herb",NA,"United States of America","Highlands Co.","Florida","locality:  NA, occurrenceRemarks: NA, verbatimLocality: NA",NA,NA,"31846",NA,NA,"Remnant white sand scrub on low hills along railroad."
"Asclepias curtissii A.Gray","Asclepias","curtissii",NA,"PRESERVED_SPECIMEN","1979-08-23T00:00:00","USF","Herb",NA,"United States of America","Polk Co.","Florida","locality:  NA, occurrenceRemarks: NA, verbatimLocality: NA",NA,NA,"31858",NA,NA,"More or less open white sand scrub, with scattered Pinus clausa."
"Asclepias curtissii A.Gray","Asclepias","curtissii",NA,"PRESERVED_SPECIMEN","1978-01-01T00:00:00","NCU","Vascular Plants","17f2d0fa-39a6-4465-8055-1d6fc12eeda2","United States of America","Broward","Florida","locality:  NA, occurrenceRemarks: Several scattered plants. Flowers whitish., verbatimLocality: NA",NA,NA,NA,NA,"field values redacted: eventDate, month, day, startDayOfYear, recordNumber, locality, decimalLatitude, decimalLongitude, geodeticDatum, coordinateUncertaintyInMeters, georeferenceRemarks, georeferencedBy, georeferenceSources, habitat",NA
"Asclepias curtissii A.Gray","Asclepias","curtissii",NA,"PRESERVED_SPECIMEN","1977-05-09T00:00:00","FLAS",NA,NA,"United States of America","Palm Beach County","Florida","locality:  NA, occurrenceRemarks: NA, verbatimLocality: About 100 yds. NE of corner of Overlook Rd. & Oleander Rd., Lantana.",NA,NA,NA,NA,"location information not given for endangered species",NA
"Asclepias curtissii A.Gray","Asclepias","curtissii",NA,"PRESERVED_SPECIMEN","1976-06-27T00:00:00","FLAS",NA,NA,"United States of America","Marion","Florida","locality:  NA, occurrenceRemarks: NA, verbatimLocality: NA",NA,NA,NA,NA,"location information not given for endangered species",NA
"Asclepias curtissii A.Gray","Asclepias","curtissii",NA,"PRESERVED_SPECIMEN","1975-08-25T00:00:00","USF","Herb",NA,"United States of America","Hillsborough Co.","Florida","locality:  NA, occurrenceRemarks: NA, verbatimLocality: NA",NA,NA,"31861",NA,NA,"From white sand pine-oak scrub."
"Asclepias curtissii A.Gray","Asclepias","curtissii",NA,"PRESERVED_SPECIMEN","1974-07-08T00:00:00","FLAS",NA,NA,"United States of America","Marion","Florida","locality:  NA, occurrenceRemarks: NA, verbatimLocality: approx. 1/3 mi. s. of Fla. 40, and 3 mi. s.s.e. of Lynn off of Fla. 40.",NA,NA,NA,NA,"location information not given for endangered species",NA
"Asclepias curtissii A.Gray","Asclepias","curtissii",NA,"PRESERVED_SPECIMEN","1973-06-29T00:00:00","USF","Herb",NA,"United States of America","Pinellas Co.","Florida","locality:  NA, occurrenceRemarks: NA, verbatimLocality: NA",NA,NA,"31890",NA,NA,"White sands area."
"Asclepias curtissii A.Gray","Asclepias","curtissii",NA,"PRESERVED_SPECIMEN","1972-08-03T00:00:00","FLAS",NA,NA,"United States of America","Clay County","Florida","locality:  NA, occurrenceRemarks: Northernmost station!-- DBW, verbatimLocality: near s.e. corner of Blue Pond, 5 mi. (airline) n. of Keystone Heights,",NA,NA,NA,NA,"location information not given for endangered species",NA
"Asclepias curtissii A.Gray","Asclepias","curtissii",NA,"PRESERVED_SPECIMEN","1971-08-02T00:00:00","USF","Herb",NA,"United States of America","Hernando Co.","Florida","locality:  NA, occurrenceRemarks: NA, verbatimLocality: NA",NA,NA,"31892",NA,NA,"White sand, road around lake."
"Asclepias curtissii A.Gray","Asclepias","curtissii",NA,"PRESERVED_SPECIMEN","1971-09-01T00:00:00","USF","Herb",NA,"United States of America","Hernando Co.","Florida","locality:  NA, occurrenceRemarks: NA, verbatimLocality: NA",NA,NA,"31887",NA,NA,"White sand, pinelands."
"Asclepias curtissii A.Gray","Asclepias","curtissii",NA,"PRESERVED_SPECIMEN","1970-06-28T00:00:00","USF","Herb",NA,"United States of America","Pinellas Co.","Florida","locality:  NA, occurrenceRemarks: NA, verbatimLocality: NA",NA,NA,"31884",NA,NA,"Sandy, pine area."
"Asclepias curtissii A.Gray","Asclepias","curtissii",NA,"PRESERVED_SPECIMEN","1968-08-01T00:00:00","FLAS",NA,NA,"United States of America","Polk","Florida","locality:  NA, occurrenceRemarks: NA, verbatimLocality: 9 mi. east of Lake Wales via U.S. 60, at Flaming Arrow Scout Reserve.",NA,NA,NA,NA,"location information not given for endangered species",NA
"Asclepias curtissii A.Gray","Asclepias","curtissii",NA,"HUMAN_OBSERVATION","1966-01-01T00:00:00","NTSRV","FL-NHP",NA,NA,NA,NA,"locality:  NA, occurrenceRemarks: NA, verbatimLocality: NA",NA,NA,NA,NA,NA,NA
"Asclepias curtissii A.Gray","Asclepias","curtissii",NA,"PRESERVED_SPECIMEN","1965-05-21T00:00:00","FLAS",NA,NA,"United States of America","Palm Beach County","Florida","locality:  NA, occurrenceRemarks: NA, verbatimLocality: NA",NA,NA,NA,NA,"location information not given for endangered species",NA
"Asclepias curtissii A.Gray","Asclepias","curtissii",NA,"PRESERVED_SPECIMEN","1963-05-01T00:00:00","FLAS",NA,NA,"United States of America","Martin County","Florida","locality:  NA, occurrenceRemarks: NA, verbatimLocality: NA",NA,NA,NA,NA,"location information not given for endangered species",NA
"Asclepias curtissii A.Gray","Asclepias","curtissii",NA,"PRESERVED_SPECIMEN","1963-06-11T00:00:00","FLAS",NA,NA,"United States of America","Hillsborough County","Florida","locality:  NA, occurrenceRemarks: NA, verbatimLocality: south side of Little Manatee River, Ruskin.",NA,NA,NA,NA,"location information not given for endangered species",NA
"Asclepias curtissii A.Gray","Asclepias","curtissii",NA,"PRESERVED_SPECIMEN","1963-06-11T00:00:00","USF","Herb",NA,"United States of America","Hillsborough Co.","Florida","locality:  NA, occurrenceRemarks: NA, verbatimLocality: NA",NA,NA,"31894",NA,NA,"Pinus clausa-Ceratiola association. White sand with scrub oaks and tallow wood [Ximenia americana]."
"Asclepias curtissii A.Gray","Asclepias","curtissii",NA,"PRESERVED_SPECIMEN","1962-07-18T00:00:00","FLAS",NA,NA,"United States of America","Hillsborough County","Florida","locality:  NA, occurrenceRemarks: NA, verbatimLocality: Little Manatee R. south of the bridge on US 41. Ruskin.",NA,NA,NA,NA,"location information not given for endangered species",NA
"Asclepias curtissii A.Gray","Asclepias","curtissii",NA,"PRESERVED_SPECIMEN","1962-07-18T00:00:00","USF","Herb",NA,"United States of America","Hillsborough Co.","Florida","locality:  NA, occurrenceRemarks: NA, verbatimLocality: NA",NA,NA,"31881",NA,NA,"White sand scrub. Ceratiola and Pinus clausa overhead. Quercus myrtifolia, Q. geminata with Ximenia, Vitis and Cassytha."
"Asclepias curtissii A.Gray","Asclepias","curtissii",NA,"PRESERVED_SPECIMEN","1962-09-02T00:00:00","USF","Herb",NA,"United States of America","Highlands Co.","Florida","locality:  NA, occurrenceRemarks: NA, verbatimLocality: NA",NA,NA,"31868",NA,NA,"In white sand scrub with Bumelia [Sideroxylon], Sabal etonia, Centrosema and Lechea."
"Asclepias curtissii A.Gray","Asclepias","curtissii",NA,"PRESERVED_SPECIMEN","1961-06-03T00:00:00","USF","Herb",NA,"United States of America","Polk Co.","Florida","locality:  NA, occurrenceRemarks: NA, verbatimLocality: NA",NA,NA,"31851",NA,NA,"In white sand scrub, with Dentoceras [Polygonella myriophylla], and Satureja [Calamintha]. Overstory of Pinus clausa, scrub oaks, Bumelia lacuum [Sideroxylon tenax], Asimina obovata."
"Asclepias curtissii A.Gray","Asclepias","curtissii",NA,"PRESERVED_SPECIMEN","1961-08-23T00:00:00","USF","Herb",NA,"United States of America","Polk Co.","Florida","locality:  NA, occurrenceRemarks: NA, verbatimLocality: NA",NA,NA,"31896",NA,NA,"Margin of white [sand] scrub withGalactia, Lyonia, and Bumelia [Sideroxylon] shrubs."
"Asclepias curtissii A.Gray","Asclepias","curtissii",NA,"PRESERVED_SPECIMEN","1960-08-12T00:00:00","USF","Herb",NA,"United States of America","Pinellas Co.","Florida","locality:  NA, occurrenceRemarks: NA, verbatimLocality: NA",NA,NA,"31901",NA,NA,"White sand scrub with sand pine [Pinus clausa], Osmanthus megacarpus, Ceratiola, and scrub oaks."
"Asclepias curtissii A.Gray","Asclepias","curtissii",NA,"PRESERVED_SPECIMEN","1959-07-04T00:00:00","MO","MO","http://biocol.org/urn:lsid:biocol.org:col:15859","United States of America","Highlands","Florida","locality:  4 mi S of Highlands Hammock State Park, occurrenceRemarks: NA, verbatimLocality: NA",NA,NA,NA,NA,NA,NA
"Asclepias curtissii A.Gray","Asclepias","curtissii",NA,"PRESERVED_SPECIMEN","1959-01-01T00:00:00","NCU","Vascular Plants","17f2d0fa-39a6-4465-8055-1d6fc12eeda2","United States of America","Highlands","Florida","locality:  NA, occurrenceRemarks: NA, verbatimLocality: NA",NA,NA,NA,NA,"field values redacted: eventDate, month, day, startDayOfYear, recordNumber, locality, decimalLatitude, decimalLongitude, geodeticDatum, coordinateUncertaintyInMeters, verbatimCoordinates, georeferenceRemarks, georeferenceSources",NA
"Asclepias curtissii A.Gray","Asclepias","curtissii",NA,"PRESERVED_SPECIMEN","1957-08-29T00:00:00","FLAS",NA,NA,"United States of America","Highlands County","Florida","locality:  NA, occurrenceRemarks: NA, verbatimLocality: between North Branch of Hickory Branch and U.S. 27 in near Archbold Foundation.",NA,NA,NA,NA,"location information not given for endangered species",NA
"Asclepias aceratoides Nash","Asclepias","aceratoides",NA,"PRESERVED_SPECIMEN","1945-04-10T00:00:00","SMU",NA,"fea81a47-2365-45cc-bef9-b6bbff7457e6","United States of America","Aransas","Texas","locality:  Aransas Refuge., occurrenceRemarks: NA, verbatimLocality: NA",NA,NA,NA,NA,NA,NA
"Asclepias curtissii A.Gray","Asclepias","curtissii",NA,"PRESERVED_SPECIMEN","1945-05-10T00:00:00","MO","MO","http://biocol.org/urn:lsid:biocol.org:col:15859","United States of America","Osceola","Florida","locality:  In pinelands near Kissimee, occurrenceRemarks: NA, verbatimLocality: NA",NA,NA,NA,NA,NA,NA
"Asclepias curtissii A.Gray","Asclepias","curtissii",NA,"PRESERVED_SPECIMEN","1938-01-01T00:00:00","NCSC",NA,"024f44f2-a2f5-4daa-b306-c11efb5aa4d0","United States of America","Osceola","Florida","locality:  NA, occurrenceRemarks: NA, verbatimLocality: NA",NA,NA,NA,NA,"field values redacted: eventDate, month, day, startDayOfYear, recordNumber, locality, habitat",NA
"Asclepias curtissii A.Gray","Asclepias","curtissii",NA,"PRESERVED_SPECIMEN","1937-07-24T00:00:00","FLAS",NA,NA,"United States of America","Collier County","Florida","locality:  NA, occurrenceRemarks: NA, verbatimLocality: north of Naples.",NA,NA,NA,NA,"location information not given for endangered species",NA
"Asclepias curtissii A.Gray","Asclepias","curtissii",NA,"PRESERVED_SPECIMEN","1935-07-21T00:00:00","FLAS",NA,NA,"United States of America","Marion County","Florida","locality:  NA, occurrenceRemarks: NA, verbatimLocality: Lake Kerr",NA,NA,NA,NA,"location information not given for endangered species",NA
"Asclepias curtissii A.Gray","Asclepias","curtissii",NA,"PRESERVED_SPECIMEN","1934-07-13T00:00:00","FLAS",NA,NA,"United States of America","Highlands County","Florida","locality:  NA, occurrenceRemarks: NA, verbatimLocality: west of Lake Jackson Sebring.",NA,NA,NA,NA,"location information not given for endangered species",NA
"Asclepias curtissii A.Gray","Asclepias","curtissii",NA,"PRESERVED_SPECIMEN","1934-09-04T00:00:00","FLAS",NA,NA,"United States of America","Highlands County","Florida","locality:  NA, occurrenceRemarks: NA, verbatimLocality: Avon Park.",NA,NA,NA,NA,"location information not given for endangered species",NA
"Asclepias curtissii A.Gray","Asclepias","curtissii",NA,"PRESERVED_SPECIMEN","1930-01-01T00:00:00","CM","Botany","a3883acd-bc7d-40f2-a6e4-372a3435e5d1","United States of America","Orange","Florida","locality:  NA, occurrenceRemarks: NA, verbatimLocality: NA",NA,NA,NA,NA,"field values redacted: eventDate, month, day, startDayOfYear, verbatimEventDate, recordNumber, locality, verbatimCoordinates, habitat",NA
"Asclepias curtissii A.Gray","Asclepias","curtissii",NA,"PRESERVED_SPECIMEN","1929-07-19T00:00:00","FLAS",NA,NA,"United States of America","Orange","Florida","locality:  NA, occurrenceRemarks: NA, verbatimLocality: S.E. of Windemere.",NA,NA,NA,NA,"location information not given for endangered species",NA
"Asclepias curtissii A.Gray","Asclepias","curtissii",NA,"PRESERVED_SPECIMEN","1929-07-19T00:00:00","FLAS",NA,NA,"United States of America","Orange","Florida","locality:  NA, occurrenceRemarks: NA, verbatimLocality: S.E. of Windemere.",NA,NA,NA,NA,"location information not given for endangered species",NA
"Asclepias curtissii A.Gray","Asclepias","curtissii",NA,"PRESERVED_SPECIMEN","1929-07-29T00:00:00","FLAS",NA,NA,"United States of America","Orange","Florida","locality:  NA, occurrenceRemarks: Collected first name mispelled as ""Claud"" on label., verbatimLocality: Vineland.",NA,NA,NA,NA,"location information not given for endangered species",NA
"Asclepias curtissii A.Gray","Asclepias","curtissii",NA,"PRESERVED_SPECIMEN","1929-08-30T00:00:00","FLAS",NA,NA,"United States of America","Orange","Florida","locality:  NA, occurrenceRemarks: NA, verbatimLocality: Gotha.",NA,NA,NA,NA,"location information not given for endangered species",NA
"Asclepias curtissii A.Gray","Asclepias","curtissii",NA,"PRESERVED_SPECIMEN","1929-08-10T00:00:00","FLAS",NA,NA,"United States of America","Orange","Florida","locality:  NA, occurrenceRemarks: NA, verbatimLocality: Gotha.",NA,NA,NA,NA,"location information not given for endangered species",NA
"Asclepias curtissii A.Gray","Asclepias","curtissii",NA,"PRESERVED_SPECIMEN","1929-08-16T00:00:00","FLAS",NA,NA,"United States of America","Orange","Florida","locality:  NA, occurrenceRemarks: NA, verbatimLocality: Gotha.",NA,NA,NA,NA,"location information not given for endangered species",NA
"Asclepias curtissii A.Gray","Asclepias","curtissii",NA,"PRESERVED_SPECIMEN","1924-07-17T00:00:00","US","US","urn:uuid:60e28f81-e634-4869-aa3e-732caed713c8","United States of America",NA,"Florida","locality:  Scrub between Avon park and Sebring., occurrenceRemarks: NA, verbatimLocality: NA",NA,NA,NA,NA,NA,NA
"Asclepias curtissii A.Gray","Asclepias","curtissii",NA,"PRESERVED_SPECIMEN","1922-04-22T00:00:00","US","US","urn:uuid:60e28f81-e634-4869-aa3e-732caed713c8","United States of America",NA,"Florida","locality:  Scrub near Weekiwachee Spring., occurrenceRemarks: NA, verbatimLocality: NA",NA,NA,NA,NA,NA,NA
"Asclepias curtissii A.Gray","Asclepias","curtissii",NA,"PRESERVED_SPECIMEN","1919-04-24T00:00:00","US","US","urn:uuid:60e28f81-e634-4869-aa3e-732caed713c8","United States of America",NA,"Florida","locality:  Ft. Pierce., occurrenceRemarks: NA, verbatimLocality: NA",NA,NA,NA,NA,NA,NA
"Asclepias curtissii A.Gray","Asclepias","curtissii",NA,"PRESERVED_SPECIMEN","1895-05-28T00:00:00","US","US","urn:uuid:60e28f81-e634-4869-aa3e-732caed713c8","United States of America",NA,"Florida","locality:  Eustis, Lake Co., occurrenceRemarks: NA, verbatimLocality: NA",NA,NA,NA,NA,NA,NA
"Asclepias curtissii A.Gray","Asclepias","curtissii",NA,"PRESERVED_SPECIMEN","1895-01-01T00:00:00","NCU","Vascular Plants","17f2d0fa-39a6-4465-8055-1d6fc12eeda2","United States of America","Lake","Florida","locality:  NA, occurrenceRemarks: NA, verbatimLocality: NA",NA,NA,NA,NA,"field values redacted: eventDate, month, day, startDayOfYear, verbatimEventDate, recordNumber, locality, decimalLatitude, decimalLongitude, geodeticDatum, coordinateUncertaintyInMeters, georeferenceRemarks, georeferencedBy",NA
"Asclepias aceratoides Nash","Asclepias","aceratoides",NA,"PRESERVED_SPECIMEN","1894-06-16T00:00:00","GH","GH","urn:lsid:biocol.org:col:15631","United States of America","Lake County","Florida","locality:  Vicinity of Eustis, exclusively in scrub, occurrenceRemarks: NA, verbatimLocality: Vicinity of Eustis, exclusively in scrub",NA,NA,NA,NA,NA,NA
"Asclepias curtissii A.Gray","Asclepias","curtissii",NA,"PRESERVED_SPECIMEN","1894-06-16T00:00:00","E","E","http://biocol.org/urn:lsid:biocol.org:col:15670","United States of America",NA,"Florida","locality:  Central Peninsula Florida. In vicinity of Eustis, Lake County, occurrenceRemarks: NA, verbatimLocality: NA",NA,NA,NA,NA,NA,NA
"Asclepias curtissii A.Gray","Asclepias","curtissii",NA,"PRESERVED_SPECIMEN","1894-06-16T00:00:00","US","US","urn:uuid:60e28f81-e634-4869-aa3e-732caed713c8","United States of America",NA,"Florida","locality:  Central Peninsular Florida. In vicinity of Eustis, Lake County., occurrenceRemarks: NA, verbatimLocality: NA",NA,NA,NA,NA,NA,NA
"Asclepias aceratoides Nash","Asclepias","aceratoides",NA,"PRESERVED_SPECIMEN","1894-06-16T00:00:00","US","US","urn:uuid:60e28f81-e634-4869-aa3e-732caed713c8","United States of America","Lake","Florida","locality:  Eustis., occurrenceRemarks: NA, verbatimLocality: NA",NA,NA,NA,NA,NA,NA
"Asclepias curtissii A.Gray","Asclepias","curtissii",NA,"PRESERVED_SPECIMEN","1894-06-16T00:00:00","MO","MO","http://biocol.org/urn:lsid:biocol.org:col:15859","United States of America","Lake","Florida","locality:  Vicinity of Eustis, occurrenceRemarks: NA, verbatimLocality: NA",NA,NA,NA,NA,NA,NA
"Asclepias curtissii A.Gray","Asclepias","curtissii",NA,"PRESERVED_SPECIMEN","1894-08-01T00:00:00","PH",NA,"019a3280-a69f-4312-bb30-8556e270f1a5",NA,NA,NA,"locality:  NA, occurrenceRemarks: can't read locality, J--- springs Jala?, verbatimLocality: NA",NA,NA,NA,NA,NA,NA
"Asclepias curtissii A.Gray","Asclepias","curtissii",NA,"PRESERVED_SPECIMEN","1886-01-01T00:00:00","GH","GH","urn:lsid:biocol.org:col:15631","United States of America","Hillsborough County","Florida","locality:  Hillsboro Co. W. Coast Florida, occurrenceRemarks: NA, verbatimLocality: Hillsboro Co. W. Coast Florida",NA,NA,NA,NA,NA,NA
"Asclepias curtissii A.Gray","Asclepias","curtissii",NA,"PRESERVED_SPECIMEN","1879-01-01T00:00:00","GH","GH","urn:lsid:biocol.org:col:15631","United States of America",NA,"Florida","locality:  NA, occurrenceRemarks: NA, verbatimLocality: NA",NA,NA,NA,NA,NA,NA
"Asclepias curtissii A.Gray","Asclepias","curtissii",NA,"PRESERVED_SPECIMEN",NA,"NY","NY","http://biocol.org/urn:lsid:biocol.org:col:15556",NA,NA,NA,"locality:  NA, occurrenceRemarks: NA, verbatimLocality: NA",NA,NA,NA,NA,NA,NA
"Asclepias curtissii A.Gray","Asclepias","curtissii",NA,"PRESERVED_SPECIMEN",NA,"GH","GH","urn:lsid:biocol.org:col:15631","United States of America","Brevard County","Florida","locality:  [data not captured], occurrenceRemarks: NA, verbatimLocality: [data not captured]",NA,NA,NA,NA,NA,NA
"Asclepias curtissii A.Gray","Asclepias","curtissii",NA,"PRESERVED_SPECIMEN",NA,"GA",NA,"urn:lsid:biocol.org:col:15610","United States of America","Highlands County","Florida","locality:  NA, occurrenceRemarks: NA, verbatimLocality: NA",NA,NA,NA,NA,"field values redacted: locality",NA
"Asclepias curtissii A.Gray","Asclepias","curtissii",NA,"PRESERVED_SPECIMEN",NA,"GA",NA,"urn:lsid:biocol.org:col:15610","United States of America","Highlands County","Florida","locality:  NA, occurrenceRemarks: NA, verbatimLocality: NA",NA,NA,NA,NA,"field values redacted: locality",NA
"Asclepias curtissii A.Gray","Asclepias","curtissii",NA,"PRESERVED_SPECIMEN",NA,"GA",NA,"urn:lsid:biocol.org:col:15610","United States of America","Pinellas County","Florida","locality:  NA, occurrenceRemarks: NA, verbatimLocality: NA",NA,NA,NA,NA,"field values redacted: locality",NA
"Asclepias curtissii A.Gray","Asclepias","curtissii",NA,"PRESERVED_SPECIMEN",NA,"GH","GH","urn:lsid:biocol.org:col:15631","United States of America","Highlands County","Florida","locality:  [data not captured], occurrenceRemarks: NA, verbatimLocality: [data not captured]",NA,NA,NA,NA,NA,NA
"Asclepias curtissii A.Gray","Asclepias","curtissii",NA,"PRESERVED_SPECIMEN",NA,"NY","NY","http://biocol.org/urn:lsid:biocol.org:col:15556",NA,NA,NA,"locality:  NA, occurrenceRemarks: NA, verbatimLocality: NA",NA,NA,NA,NA,NA,NA
"Asclepias curtissii A.Gray","Asclepias","curtissii",NA,"PRESERVED_SPECIMEN",NA,"NY","NY","http://biocol.org/urn:lsid:biocol.org:col:15556",NA,NA,NA,"locality:  NA, occurrenceRemarks: NA, verbatimLocality: NA",NA,NA,NA,NA,NA,NA
"Asclepias curtissii A.Gray","Asclepias","curtissii",NA,"PRESERVED_SPECIMEN",NA,"GH","GH","urn:lsid:biocol.org:col:15631","United States of America","Highlands County","Florida","locality:  [data not captured], occurrenceRemarks: NA, verbatimLocality: [data not captured]",NA,NA,NA,NA,NA,NA
"Asclepias curtissii A.Gray","Asclepias","curtissii",NA,"PRESERVED_SPECIMEN",NA,"NY","NY","http://biocol.org/urn:lsid:biocol.org:col:15556",NA,NA,NA,"locality:  NA, occurrenceRemarks: NA, verbatimLocality: NA",NA,NA,NA,NA,NA,NA
"Asclepias curtissii A.Gray","Asclepias","curtissii",NA,"PRESERVED_SPECIMEN",NA,"NY","NY","http://biocol.org/urn:lsid:biocol.org:col:15556",NA,NA,NA,"locality:  NA, occurrenceRemarks: NA, verbatimLocality: NA",NA,NA,NA,NA,NA,NA
"Asclepias curtissii A.Gray","Asclepias","curtissii",NA,"PRESERVED_SPECIMEN",NA,"NY","NY","http://biocol.org/urn:lsid:biocol.org:col:15556",NA,NA,NA,"locality:  NA, occurrenceRemarks: NA, verbatimLocality: NA",NA,NA,NA,NA,NA,NA
"Asclepias curtissii A.Gray","Asclepias","curtissii",NA,"PRESERVED_SPECIMEN",NA,"NY","NY","http://biocol.org/urn:lsid:biocol.org:col:15556",NA,NA,NA,"locality:  NA, occurrenceRemarks: NA, verbatimLocality: NA",NA,NA,NA,NA,NA,NA
"Asclepias curtissii A.Gray","Asclepias","curtissii",NA,"PRESERVED_SPECIMEN",NA,"RSA","VascularPlants","3818e1d3-b6a4-11e8-b408-001a64db2964","United States of America",NA,"Florida","locality:  NA, occurrenceRemarks: NA, verbatimLocality: NA",NA,NA,NA,NA,NA,NA
"Asclepias curtissii A.Gray","Asclepias","curtissii",NA,"PRESERVED_SPECIMEN",NA,"RSA","VascularPlants","3818e1d3-b6a4-11e8-b408-001a64db2964","United States of America",NA,"Florida","locality:  NA, occurrenceRemarks: NA, verbatimLocality: NA",NA,NA,NA,NA,NA,NA
"Asclepias curtissii A.Gray","Asclepias","curtissii",NA,"PRESERVED_SPECIMEN",NA,"RSA","VascularPlants","3818e1d3-b6a4-11e8-b408-001a64db2964","United States of America",NA,"Florida","locality:  NA, occurrenceRemarks: NA, verbatimLocality: NA",NA,NA,NA,NA,NA,NA
"Asclepias curtissii A.Gray","Asclepias","curtissii",NA,"PRESERVED_SPECIMEN",NA,"GH","GH","urn:lsid:biocol.org:col:15631","United States of America","Brevard County","Florida","locality:  [data not captured], occurrenceRemarks: NA, verbatimLocality: [data not captured]",NA,NA,NA,NA,NA,NA
"Asclepias curtissii A.Gray","Asclepias","curtissii",NA,"PRESERVED_SPECIMEN",NA,"NY","NY","http://biocol.org/urn:lsid:biocol.org:col:15556",NA,NA,NA,"locality:  NA, occurrenceRemarks: NA, verbatimLocality: NA",NA,NA,NA,NA,NA,NA
"Asclepias curtissii A.Gray","Asclepias","curtissii",NA,"PRESERVED_SPECIMEN",NA,"GH","GH","urn:lsid:biocol.org:col:15631","United States of America","Seminole County","Florida","locality:  [data not captured], occurrenceRemarks: NA, verbatimLocality: [data not captured]",NA,NA,NA,NA,NA,NA
"Asclepias curtissii A.Gray","Asclepias","curtissii",NA,"PRESERVED_SPECIMEN",NA,"GH","GH","urn:lsid:biocol.org:col:15631","United States of America","Polk County","Florida","locality:  [data not captured], occurrenceRemarks: NA, verbatimLocality: [data not captured]",NA,NA,NA,NA,NA,NA
"Asclepias curtissii A.Gray","Asclepias","curtissii",NA,"PRESERVED_SPECIMEN",NA,"K","Herbarium",NA,"United States of America",NA,NA,"locality:  Titusville, E. [T]la., occurrenceRemarks: Rec. 3/84, verbatimLocality: NA",NA,NA,NA,NA,NA,"Sandy barriers"
"Asclepias curtissii A.Gray","Asclepias","curtissii",NA,"PRESERVED_SPECIMEN",NA,"NY","NY","http://biocol.org/urn:lsid:biocol.org:col:15556",NA,NA,NA,"locality:  NA, occurrenceRemarks: NA, verbatimLocality: NA",NA,NA,NA,NA,NA,NA
"Asclepias curtissii A.Gray","Asclepias","curtissii",NA,"PRESERVED_SPECIMEN",NA,"GH","GH","urn:lsid:biocol.org:col:15631","United States of America","Highlands County","Florida","locality:  [data not captured], occurrenceRemarks: NA, verbatimLocality: [data not captured]",NA,NA,NA,NA,NA,NA
"Asclepias curtissii A.Gray","Asclepias","curtissii",NA,"PRESERVED_SPECIMEN",NA,"USF","Herb",NA,"United States of America","Highlands Co.","Florida","locality:  NA, occurrenceRemarks: NA, verbatimLocality: NA",NA,NA,"31852",NA,NA,NA
"Asclepias curtissii A.Gray","Asclepias","curtissii",NA,"PRESERVED_SPECIMEN",NA,"NY","NY","http://biocol.org/urn:lsid:biocol.org:col:15556",NA,NA,NA,"locality:  NA, occurrenceRemarks: NA, verbatimLocality: NA",NA,NA,NA,NA,NA,NA
"Asclepias curtissii A.Gray","Asclepias","curtissii",NA,"PRESERVED_SPECIMEN",NA,"NY","NY","http://biocol.org/urn:lsid:biocol.org:col:15556",NA,NA,NA,"locality:  NA, occurrenceRemarks: NA, verbatimLocality: NA",NA,NA,NA,NA,NA,NA
"Asclepias curtissii A.Gray","Asclepias","curtissii",NA,"PRESERVED_SPECIMEN",NA,"NY","NY","http://biocol.org/urn:lsid:biocol.org:col:15556",NA,NA,NA,"locality:  NA, occurrenceRemarks: NA, verbatimLocality: NA",NA,NA,NA,NA,NA,NA
"Asclepias curtissii A.Gray","Asclepias","curtissii",NA,"PRESERVED_SPECIMEN",NA,"NY","NY","http://biocol.org/urn:lsid:biocol.org:col:15556",NA,NA,NA,"locality:  NA, occurrenceRemarks: NA, verbatimLocality: NA",NA,NA,NA,NA,NA,NA
"Asclepias curtissii A.Gray","Asclepias","curtissii",NA,"PRESERVED_SPECIMEN",NA,NA,NA,NA,NA,NA,NA,"locality:  NA, occurrenceRemarks: Asclepias curtissii voucher LSUS:Lynch 12461 ribosomal protein L16 (rpl16) gene, exon 2 and partial cds; chloroplast., verbatimLocality: NA",NA,NA,NA,NA,NA,NA
"Asclepias curtissii A.Gray","Asclepias","curtissii",NA,"PRESERVED_SPECIMEN",NA,NA,NA,NA,NA,NA,NA,"locality:  NA, occurrenceRemarks: Asclepias curtissii trnS-trnG intergenic spacer and tRNA-Gly (trnG) gene, partial sequence., verbatimLocality: NA",NA,NA,NA,NA,NA,NA
"Asclepias curtissii A.Gray","Asclepias","curtissii",NA,"PRESERVED_SPECIMEN",NA,"MNHN","P",NA,NA,NA,NA,"locality:  NA, occurrenceRemarks: NA, verbatimLocality: NA",NA,NA,NA,NA,NA,NA
"Asclepias curtissii A.Gray","Asclepias","curtissii",NA,"PRESERVED_SPECIMEN",NA,"MNHN","P",NA,NA,NA,NA,"locality:  NA, occurrenceRemarks: NA, verbatimLocality: NA",NA,NA,NA,NA,NA,NA
"Asclepias curtissii A.Gray","Asclepias","curtissii",NA,"PRESERVED_SPECIMEN",NA,"US","US","urn:uuid:60e28f81-e634-4869-aa3e-732caed713c8","United States of America","Brevard","Florida","locality:  Titusville., occurrenceRemarks: NA, verbatimLocality: NA",NA,NA,NA,NA,NA,NA
"Asclepias curtissii A.Gray","Asclepias","curtissii",NA,"PRESERVED_SPECIMEN",NA,"US","US","urn:uuid:60e28f81-e634-4869-aa3e-732caed713c8","United States of America",NA,"Florida","locality:  Manatee., occurrenceRemarks: NA, verbatimLocality: NA",NA,NA,NA,NA,NA,NA
"Asclepias curtissii A.Gray","Asclepias","curtissii",NA,"PRESERVED_SPECIMEN",NA,"US","US","urn:uuid:60e28f81-e634-4869-aa3e-732caed713c8","United States of America",NA,"Florida","locality:  Route 27, near Venus, Highlands County., occurrenceRemarks: NA, verbatimLocality: NA",NA,NA,NA,NA,NA,NA
"Asclepias curtissii A.Gray","Asclepias","curtissii",NA,"PRESERVED_SPECIMEN",NA,NA,NA,NA,NA,NA,NA,"locality:  NA, occurrenceRemarks: Asclepias curtissii voucher Orzell 23705 (FLAS) ribulose-1,5-bisphosphate carboxylase/oxygenase large subunit (rbcL) gene, partial cds; chloroplast., verbatimLocality: NA",NA,NA,NA,NA,NA,NA
"Asclepias curtissii A.Gray","Asclepias","curtissii",NA,"PRESERVED_SPECIMEN",NA,NA,NA,NA,NA,NA,NA,"locality:  NA, occurrenceRemarks: Asclepias curtissii voucher FLAS:Orzell 23705 maturase K (matK) gene, partial cds; chloroplast., verbatimLocality: NA",NA,NA,NA,NA,NA,NA
"Asclepias curtissii A.Gray","Asclepias","curtissii",NA,"PRESERVED_SPECIMEN",NA,NA,NA,NA,NA,NA,NA,"locality:  NA, occurrenceRemarks: Asclepias curtissii voucher ARIZ:Fishbein 2421 chloroplast, partial genome., verbatimLocality: NA",NA,NA,NA,NA,NA,NA
"Asclepias curtissii","Asclepias","curtissii",NA,"PreservedSpecimen","1989-06-26","fsu","FSU",NA,"United States","Marion","Florida","Locality: Ocala National Forest. By forest road 58, a short distance NE of Kiwanis Camp. Occurrence Remarks: NA Verbatim Locality: NA",29.2105034326,-82.0566654801,"007d51a9-a10f-4178-91e2-09b395c95f9e",NA,NA,"none."
"Asclepias curtissii A. Gray","Asclepias","curtissii",NA,"PreservedSpecimen",NA,"mo","MO","http://biocol.org/urn:lsid:biocol.org:col:15859","United States","Palm Beach","Florida","Locality: south of Jupiter, Palm Beach County Natural Area, 0.5 mile north on U.S. 1 from Donald Ross Road, west of road (east of Lake Worth Creek Intracoastal Waterway). Somewhat degraded scrub, but with really nice remnants, on deep white sand. Occurrence Remarks: NA Verbatim Locality: NA",26.8894,-80.0631,"20768095-6d0a-408f-a1b4-26bc9d0a772d",NA,NA,NA
"Asclepias curtissii","Asclepias","curtissii",NA,"PreservedSpecimen","1961-08-23","fsu","FSU",NA,"United States","Polk","Florida","Locality: West US 27A, off #630, Frostproof. Occurrence Remarks: NA Verbatim Locality: NA",27.948760753,-81.6976674638,"323aea76-ebc5-4785-b9e3-6d91afd77bee",NA,NA,"white sand scrub with species of Quercus chapmanii & Q.  myrtifolia; overstory of Pinus clausa; plant rare in sandy openings and marginal area under shrubs."
"Asclepias curtissii","Asclepias","curtissii",NA,"PreservedSpecimen","1957-06-26","fsu","FSU",NA,"United States","Indian River","Florida","Locality: 2 mi N of Sebastian. Occurrence Remarks: NA Verbatim Locality: NA",27.7086561946,-80.3818652075,"332fff66-4508-4510-94a7-d9e04f9af4ba",NA,NA,"on dry sands of pine-palmetto scrub."
"Asclepias curtissii A. Gray","Asclepias","curtissii",NA,"PreservedSpecimen",NA,"f","Botany","Botany","United States of America","Columbia","Florida","Locality: Lake City Occurrence Remarks: NA Verbatim Locality: NA",30.189676,-82.63929,"4cd8cf1c-0571-4377-9474-ee3bd04c486d",NA,NA,NA
"Asclepias curtissii A. Gray","Asclepias","curtissii",NA,"PreservedSpecimen",NA,"f","Botany","Botany","United States of America","Lake","Florida","Locality: vicinity of Eustis Occurrence Remarks: NA Verbatim Locality: NA",28.852768,-81.685353,"a2db230f-4acb-49ba-bee8-cef79c579e54",NA,NA,NA
"Asclepias curtissii","Asclepias","curtissii",NA,"PreservedSpecimen","1957-07-27","fsu","FSU",NA,"United States","Indian River","Florida","Locality: S side of Vero Beach. Occurrence Remarks: NA Verbatim Locality: NA",27.7086561946,-80.3818652075,"cf276fce-9bff-4dee-ae40-98214bb8f05a",NA,NA,"on loose dry exposed sands of pine-palmetto scrubs."
"Asclepias curtissii","Asclepias","curtissii",NA,"PreservedSpecimen","2011-07-25","usf","Herb",NA,"USA","Hillsborough Co.","Florida","Locality: Balm Boyette Scrub Preserve, Lithia. Occurrence Remarks: NA Verbatim Locality: Balm Boyette Scrub Preserve, Lithia.",27.7819,-82.2575,"d4bc7826-4749-4b9a-a2b1-c45b8b42b095",NA,NA,"Both sides of N - S fire lane in sand pine [Pinus clausa] - oak scrub."
"Asclepias curtissii","Asclepias","curtissii",NA,"PreservedSpecimen",NA,"ftu",NA,"a31f5623-cb82-4dc3-93bb-79d834381394","United States",NA,"Florida","Locality: NA Occurrence Remarks: NA Verbatim Locality: NA",NA,NA,"027160c3-9aea-4de4-b30b-94ee0949e929",NA,NA,NA
"Asclepias curtissii","Asclepias","curtissii",NA,"PreservedSpecimen",NA,"us","US","urn:uuid:60e28f81-e634-4869-aa3e-732caed713c8","United States",NA,"Florida","Locality: Eustis, Lake Co. Occurrence Remarks: NA Verbatim Locality: NA",NA,NA,"03ec29b7-0156-4caa-b12b-cd74778f3258",NA,NA,NA
"Asclepias curtissii","Asclepias","curtissii",NA,"PreservedSpecimen","1963-06-11","usf","Herb",NA,"USA","Hillsborough Co.","Florida","Locality: NA Occurrence Remarks: NA Verbatim Locality: NA",NA,NA,"041b1039-d79d-49cd-82c1-da9b8de542c0",NA,NA,"Pinus clausa-Ceratiola association. White sand with scrub oaks and tallow wood [Ximenia americana]."
"Asclepias curtissii","Asclepias","curtissii",NA,"PreservedSpecimen","1934-07-13","flas",NA,NA,"United States of America","Highlands County","Florida","Locality: NA Occurrence Remarks: NA Verbatim Locality: west of Lake Jackson Sebring.",NA,NA,"071833f4-b504-4bd8-87dc-b0bcf9542d46",NA,"location information not given for endangered species",NA
"Asclepias curtissii","Asclepias","curtissii",NA,"PreservedSpecimen","1988-06","usf","Herb",NA,"USA","Martin Co.","Florida","Locality: NA Occurrence Remarks: NA Verbatim Locality: NA",NA,NA,"0a26eb99-e84b-48b2-8bc3-fae5584cb0a9",NA,NA,"Sand pine [Pinus clausa] scrub."
"Asclepias curtissii","Asclepias","curtissii",NA,"PreservedSpecimen",NA,"vdb",NA,"9bec1885-8556-470e-80f3-f31ed15228b0","United States","Indian River","Florida","Locality: NA Occurrence Remarks: Occaisonal.; Stems maroon, flowers greenish white. Verbatim Locality: NA",NA,NA,"0ae507a5-8dbd-40be-9808-751927a52357",NA,"field values redacted: eventDate, month, day, startDayOfYear, recordNumber, locality, habitat",NA
"Asclepias curtissii","Asclepias","curtissii",NA,"PreservedSpecimen","1989-07-03","flas",NA,NA,"United States of America","Hardee County","Florida","Locality: NA Occurrence Remarks: Voucher for M.S. thesis. Verbatim Locality: NA",NA,NA,"0b430962-f413-424f-ba1e-739a4e394d8b",NA,"location information not given for endangered species",NA
"Asclepias curtissii","Asclepias","curtissii",NA,"PreservedSpecimen",NA,"us","US","urn:uuid:60e28f81-e634-4869-aa3e-732caed713c8","United States",NA,"Florida","Locality: Ft. Pierce. Occurrence Remarks: NA Verbatim Locality: NA",NA,NA,"0d79d027-766d-43bd-ae39-73ccce4146c1",NA,NA,NA
"Asclepias curtissii","Asclepias","curtissii",NA,"PreservedSpecimen",NA,"ncu","Vascular Plants","17f2d0fa-39a6-4465-8055-1d6fc12eeda2","United States","Lake","Florida","Locality: NA Occurrence Remarks: NA Verbatim Locality: NA",NA,NA,"0dcca302-1d68-4d90-999a-81eee7469eea",NA,"field values redacted: eventDate, month, day, startDayOfYear, verbatimEventDate, recordNumber, locality, decimalLatitude, decimalLongitude, geodeticDatum, coordinateUncertaintyInMeters, georeferenceRemarks, georeferencedBy",NA
"Asclepias curtissii","Asclepias","curtissii",NA,"PreservedSpecimen","1985-10-08","flas",NA,NA,"United States of America","Polk","Florida","Locality: NA Occurrence Remarks: NA Verbatim Locality: NA",NA,NA,"0de509f5-a5dc-4aa8-a0a5-509f911da65f",NA,"location information not given for endangered species",NA
"Asclepias curtissii","Asclepias","curtissii",NA,"PreservedSpecimen","1960-08-12","usf","Herb",NA,"USA","Pinellas Co.","Florida","Locality: NA Occurrence Remarks: NA Verbatim Locality: NA",NA,NA,"0fd33d34-a61d-4a42-b4cb-1cd37b72eef9",NA,NA,"White sand scrub with sand pine [Pinus clausa], Osmanthus megacarpus, Ceratiola, and scrub oaks."
"Asclepias curtissii","Asclepias","curtissii",NA,"PreservedSpecimen","1981-09-05","usf","Herb",NA,"USA","Highlands Co.","Florida","Locality: NA Occurrence Remarks: NA Verbatim Locality: NA",NA,NA,"12ab2bbc-eae8-4a29-8dcb-02bf6b8d7778",NA,NA,"Open sand pine [Pinus clausa] scrub."
"Asclepias curtissii","Asclepias","curtissii",NA,"PreservedSpecimen","1934-09-04","flas",NA,NA,"United States of America","Highlands County","Florida","Locality: NA Occurrence Remarks: NA Verbatim Locality: Avon Park.",NA,NA,"13bbd7f8-7c4f-4780-96b6-a194e1d8b9d4",NA,"location information not given for endangered species",NA
"Asclepias curtissii A.Gray","Asclepias",NA,NA,"PreservedSpecimen",NA,"mnhn","P",NA,NA,NA,NA,"Locality: NA Occurrence Remarks: NA Verbatim Locality: NA",NA,NA,"143df730-a777-4cd0-98e9-65b49a594639",NA,NA,NA
"Asclepias curtissii","Asclepias","curtissii",NA,"PreservedSpecimen","1990-09-14","usf","Herb",NA,"USA","Collier Co.","Florida","Locality: NA Occurrence Remarks: NA Verbatim Locality: NA",NA,NA,"15d455c8-8e55-4bf1-a55c-8e7e704158c8",NA,NA,"Scrub."
"Asclepias curtissii","Asclepias","curtissii",NA,"PreservedSpecimen","1986-10-09","flas",NA,NA,"United States of America","Polk","Florida","Locality: NA Occurrence Remarks: NA Verbatim Locality: NA",NA,NA,"1679c435-d242-4045-b0b1-0a0b9687739a",NA,"location information not given for endangered species",NA
"Asclepias curtissii","Asclepias","curtissii",NA,"PreservedSpecimen","1995-06-11","flas",NA,NA,"United States of America","Highlands County","Florida","Locality: NA Occurrence Remarks: NA Verbatim Locality: NA",NA,NA,"19fe49b2-9780-4273-8617-c697f033c813",NA,"location information not given for endangered species",NA
"Asclepias curtissii","Asclepias","curtissii",NA,"PreservedSpecimen","1991-05-23","flas",NA,NA,"United States of America","Palm Beach County","Florida","Locality: NA Occurrence Remarks: NA Verbatim Locality: NA",NA,NA,"1adf4d90-2e8c-4e2a-9d70-321abb2dae59",NA,"location information not given for endangered species",NA
"Asclepias curtissii","Asclepias","curtissii",NA,"PreservedSpecimen",NA,"ga",NA,"urn:lsid:biocol.org:col:15610","United States","Pinellas County","Florida","Locality: NA Occurrence Remarks: NA Verbatim Locality: NA",NA,NA,"1af42d2d-3678-4e3c-a5c1-f70091906a6a",NA,"field values redacted: locality",NA
"Asclepias curtissii","Asclepias","curtissii",NA,"PreservedSpecimen","1962-09-02","usf","Herb",NA,"USA","Highlands Co.","Florida","Locality: NA Occurrence Remarks: NA Verbatim Locality: NA",NA,NA,"1d80ebce-12a5-4ad5-931f-7465fa055949",NA,NA,"In white sand scrub with Bumelia [Sideroxylon], Sabal etonia, Centrosema and Lechea."
"Asclepias curtissii A.Gray","Asclepias","curtissii",NA,"PreservedSpecimen",NA,"ny","NY","http://biocol.org/urn:lsid:biocol.org:col:15556",NA,NA,NA,"Locality: NA Occurrence Remarks: NA Verbatim Locality: NA",NA,NA,"1ecd3980-6bb4-4083-b1de-3dd12df75b11",NA,NA,NA
"Asclepias curtissii","Asclepias","curtissii",NA,"PreservedSpecimen","1894-08","ph",NA,"019a3280-a69f-4312-bb30-8556e270f1a5",NA,NA,NA,"Locality: NA Occurrence Remarks: can't read locality, J--- springs Jala? Verbatim Locality: NA",NA,NA,"1f0f86b9-f760-44ae-8bee-79f0699399a1",NA,NA,NA
"Asclepias curtissii","Asclepias","curtissii",NA,"PreservedSpecimen",NA,"vdb",NA,"9bec1885-8556-470e-80f3-f31ed15228b0","United States","Seminole","Florida","Locality: NA Occurrence Remarks: Frequent. Verbatim Locality: NA",NA,NA,"20f3ca3b-3098-4c72-a766-e0055f60c3e4",NA,"field values redacted: eventDate, month, day, startDayOfYear, recordNumber, locality, habitat",NA
"Asclepias curtissii","Asclepias","curtissii",NA,"PreservedSpecimen","1979-08-23","usf","Herb",NA,"USA","Polk Co.","Florida","Locality: NA Occurrence Remarks: NA Verbatim Locality: NA",NA,NA,"2206291e-58df-4b96-a40f-d6b53ba50c50",NA,NA,"More or less open white sand scrub, with scattered Pinus clausa."
"Asclepias curtissii A.Gray","Asclepias","curtissii",NA,"PreservedSpecimen",NA,"ny","NY","http://biocol.org/urn:lsid:biocol.org:col:15556",NA,NA,NA,"Locality: NA Occurrence Remarks: NA Verbatim Locality: NA",NA,NA,"23fd1138-84fd-470e-9fb1-ca6ad61b4d8b",NA,NA,NA
"Asclepias curtissii","Asclepias","curtissii",NA,"PreservedSpecimen","1979-07-26","usf","Herb",NA,"USA","Highlands Co.","Florida","Locality: NA Occurrence Remarks: NA Verbatim Locality: NA",NA,NA,"250a21be-6719-4b82-b953-bd8145066b70",NA,NA,"Remnant white sand scrub on low hills along railroad."
"Asclepias curtissii","Asclepias","curtissii",NA,"PreservedSpecimen",NA,"duke",NA,"274b5332-1247-4374-b124-c819b814cd6e","United States","Highlands","Florida","Locality: NA Occurrence Remarks: NA Verbatim Locality: NA",NA,NA,"25d7cf61-65bb-42ef-880b-dcbc680562a6",NA,NA,NA
"Asclepias curtissii","Asclepias","curtissii",NA,"PreservedSpecimen","1991-05-23","usf","Herb",NA,"USA","Palm Beach Co.","Florida","Locality: NA Occurrence Remarks: NA Verbatim Locality: NA",NA,NA,"26ad372e-3e7e-4f0e-afc6-acae49e5cc74",NA,NA,"Coastal dwarf oak [Quercus] scrub. Soils - Paola (Spodic Quartzipsamments)."
"Asclepias curtissii","Asclepias","curtissii",NA,"PreservedSpecimen",NA,"ftu",NA,"a31f5623-cb82-4dc3-93bb-79d834381394","United States",NA,"Florida","Locality: NA Occurrence Remarks: NA Verbatim Locality: NA",NA,NA,"2865206e-a5c8-49c6-8ac1-69192ffeab88",NA,NA,NA
"Asclepias curtissii","Asclepias","curtissii",NA,"PreservedSpecimen",NA,"arch","herbarium","7a265b8e-90e3-42e9-9a7d-f86f6e810fba","U.S.A.","Highlands","Florida","Locality: NA Occurrence Remarks: Sepals & petals pale green, tinged with brown; lower parts & midrib of hoods pale green, body whitish with purple tips. Verbatim Locality: NA",NA,NA,"29b53e4e-7ba5-49f2-b35c-2fb6cc17c3de",NA,"field values redacted: eventDate, month, day, startDayOfYear, recordNumber, locality, habitat",NA
"Asclepias curtissii","Asclepias","curtissii",NA,"PreservedSpecimen","1937-07-24","flas",NA,NA,"United States of America","Collier County","Florida","Locality: NA Occurrence Remarks: NA Verbatim Locality: north of Naples.",NA,NA,"31356cbb-7dbf-4f0c-9bbb-5bee6336b1dc",NA,"location information not given for endangered species",NA
"Asclepias curtissii","Asclepias","curtissii",NA,"PreservedSpecimen","1972-08-03","fsu","FSU",NA,"United States","Clay","Florida","Locality: NA Occurrence Remarks: NA Verbatim Locality: NA",NA,NA,"32bd53b0-5afd-4b7b-b270-d7d9f6ef9e6c",NA,NA,"white sand, under Quercus myrtifolia scrub, on low hill."
"Asclepias curtissii","Asclepias","curtissii",NA,"PreservedSpecimen",NA,"wis",NA,"b20b8d91-3255-4926-93e6-af9c6ad60faf","United States","Orange","Florida","Locality: NA Occurrence Remarks: NA Verbatim Locality: NA",NA,NA,"3355cf2c-c979-4d3b-8c3c-00c50f0229cd",NA,"field values redacted: eventDate, month, day, startDayOfYear, verbatimEventDate, recordNumber, locality, habitat",NA
"Asclepias curtissii","Asclepias","curtissii",NA,"PreservedSpecimen","1929-08-30","flas",NA,NA,"United States of America","Orange","Florida","Locality: NA Occurrence Remarks: NA Verbatim Locality: Gotha.",NA,NA,"339a6b2c-8e9f-4561-b3e1-2f7b46676213",NA,"location information not given for endangered species",NA
"Asclepias curtissii","Asclepias","curtissii",NA,"PreservedSpecimen",NA,"ncsc",NA,"024f44f2-a2f5-4daa-b306-c11efb5aa4d0","United States","Osceola","Florida","Locality: NA Occurrence Remarks: NA Verbatim Locality: NA",NA,NA,"34bd67fe-ad57-4d7f-9a79-8ec8d744e79f",NA,"field values redacted: eventDate, month, day, startDayOfYear, recordNumber, locality, habitat",NA
"Asclepias curtissii","Asclepias","curtissii",NA,"PreservedSpecimen","2004-07-20","usf","Herb",NA,"USA","Brevard Co.","Florida","Locality: NA Occurrence Remarks: NA Verbatim Locality: NA",NA,NA,"34f6ba38-c3a4-41af-be6d-aa98b2f54393",NA,NA,"Edge of sandy road, scrubby flatwoods."
"Asclepias curtissii","Asclepias","curtissii",NA,"PreservedSpecimen","1976-06-27","flas",NA,NA,"United States of America","Marion","Florida","Locality: NA Occurrence Remarks: NA Verbatim Locality: NA",NA,NA,"35961293-24b1-428d-a7d9-a488915bf83e",NA,"location information not given for endangered species",NA
"Asclepias curtissii","Asclepias","curtissii",NA,"PreservedSpecimen","1962-07-18","flas",NA,NA,"United States of America","Hillsborough County","Florida","Locality: NA Occurrence Remarks: NA Verbatim Locality: Little Manatee R. south of the bridge on US 41. Ruskin.",NA,NA,"3711932d-b9ab-4b43-93f2-e43509daf42b",NA,"location information not given for endangered species",NA
"Asclepias curtissii","Asclepias","curtissii",NA,"PreservedSpecimen","1987-08-08","usf","Herb",NA,"USA","Polk Co.","Florida","Locality: NA Occurrence Remarks: NA Verbatim Locality: NA",NA,NA,"37925813-d5cd-4f3d-b785-397dc200f8ca",NA,NA,"Scrub forest on white sand along old roadway."
"Asclepias curtissii","Asclepias","curtissii",NA,"PreservedSpecimen","1989-07-03","flas",NA,NA,"United States of America","Lee County","Florida","Locality: NA Occurrence Remarks: Voucher for M.S. thesis Verbatim Locality: NA",NA,NA,"37ba2406-f4aa-4af1-9b42-6c725add9dbb",NA,"location information not given for endangered species",NA
"Asclepias curtissii","Asclepias","curtissii",NA,"PreservedSpecimen",NA,"arch","herbarium","7a265b8e-90e3-42e9-9a7d-f86f6e810fba","U.S.A.","Highlands","Florida","Locality: NA Occurrence Remarks: Sepals & petals green, the latter with brownish tips & whitish margins; crown lobes white, with purple midrib; flower buds flat topped Verbatim Locality: NA",NA,NA,"3936c6fa-28f7-483d-89c9-2d46e358d9ae",NA,"field values redacted: eventDate, month, day, startDayOfYear, recordNumber, locality, habitat",NA
"Asclepias curtissii","Asclepias","curtissii",NA,"PreservedSpecimen","2006-05-23","usf","Herb",NA,"USA","Manatee Co.","Florida","Locality: NA Occurrence Remarks: NA Verbatim Locality: NA",NA,NA,"3a0e2cc0-7bcd-4682-8fa6-529cd90d6e9f",NA,NA,"Scrub."
"Asclepias curtissii","Asclepias","curtissii",NA,"PreservedSpecimen","2009-10-04","usf","Herb",NA,"USA","Hernando Co.","Florida","Locality: NA Occurrence Remarks: NA Verbatim Locality: NA",NA,NA,"3a4b59c9-cd51-4a38-a16e-83a7db1fa0e9",NA,NA,"Scrub just S of scrubby flatwoods.."
"Asclepias curtissii","Asclepias","curtissii",NA,"PreservedSpecimen","1992-08-05","usf","Herb",NA,"USA","Lee Co.","Florida","Locality: NA Occurrence Remarks: NA Verbatim Locality: NA",NA,NA,"3bd7d44d-2d10-4728-bfdc-25abd6fcc69e",NA,NA,"Xeric oak [Quercus]-rosemary [Ceratiola ericoides] scrub. Soils - Satelite (Aquic Quartzipsamments)."
"Asclepias curtissii","Asclepias","curtissii",NA,"PreservedSpecimen","1975-08-25","usf","Herb",NA,"USA","Hillsborough Co.","Florida","Locality: NA Occurrence Remarks: NA Verbatim Locality: NA",NA,NA,"3f5ab3d9-80aa-4784-a646-3755156f4cc0",NA,NA,"From white sand pine-oak scrub."
"Asclepias curtissii","Asclepias","curtissii",NA,"PreservedSpecimen","1987-09-15","flas",NA,NA,"United States of America","Indian River County","Florida","Locality: NA Occurrence Remarks: NA Verbatim Locality: NA",NA,NA,"40025afe-2196-44b9-a4fe-c608bde5ae04",NA,"location information not given for endangered species",NA
"Asclepias curtissii","Asclepias","curtissii",NA,"PreservedSpecimen",NA,"usf","Herb",NA,"USA","Highlands Co.","Florida","Locality: NA Occurrence Remarks: NA Verbatim Locality: NA",NA,NA,"4063b160-f201-47ec-82be-e10a5e875f60",NA,NA,NA
"Asclepias curtissii A.Gray","Asclepias","curtissii",NA,"PreservedSpecimen",NA,"ny","NY","http://biocol.org/urn:lsid:biocol.org:col:15556",NA,NA,NA,"Locality: NA Occurrence Remarks: NA Verbatim Locality: NA",NA,NA,"4238901b-6088-46d3-83eb-5c91bafc3ab4",NA,NA,NA
"Asclepias curtissii","Asclepias","curtissii",NA,"PreservedSpecimen","1994-05-09","usf","Herb",NA,"USA","Pasco Co.","Florida","Locality: NA Occurrence Remarks: NA Verbatim Locality: NA",NA,NA,"43962c83-32d7-4547-a3a2-10c31140d530",NA,NA,"Mature sand pine [Pinus clausa]/rosemary [Ceratiola ericoides] scrub."
"Asclepias curtissii","Asclepias","curtissii",NA,"PreservedSpecimen","1935-07-21","flas",NA,NA,"United States of America","Marion County","Florida","Locality: NA Occurrence Remarks: NA Verbatim Locality: Lake Kerr",NA,NA,"445499f0-2fdd-447b-b24d-461fe0261c91",NA,"location information not given for endangered species",NA
"Asclepias curtissii","Asclepias","curtissii",NA,"PreservedSpecimen","1986-10-01","flas",NA,NA,"United States of America","Highlands County","Florida","Locality: NA Occurrence Remarks: Voucher for Scrub Study Verbatim Locality: NA",NA,NA,"497b6b93-a1bb-4e81-a046-192c661848c3",NA,"location information not given for endangered species",NA
"Asclepias curtissii","Asclepias","curtissii",NA,"PreservedSpecimen","1929-07-19","flas",NA,NA,"United States of America","Orange","Florida","Locality: NA Occurrence Remarks: NA Verbatim Locality: S.E. of Windemere.",NA,NA,"4a69b000-88de-434e-a1f7-280ed19e9954",NA,"location information not given for endangered species",NA
"Asclepias curtissii","Asclepias","curtissii",NA,"PreservedSpecimen","1987-07-07","flas",NA,NA,"United States of America","Marion County","Florida","Locality: NA Occurrence Remarks: NA Verbatim Locality: (Lake Kerr quad).",NA,NA,"4b53cef0-9501-4c1e-8b08-2f8de3baa47d",NA,"location information not given for endangered species",NA
"Asclepias curtissii A.Gray","Asclepias","curtissii",NA,"PreservedSpecimen",NA,"ny","NY","http://biocol.org/urn:lsid:biocol.org:col:15556",NA,NA,NA,"Locality: NA Occurrence Remarks: NA Verbatim Locality: NA",NA,NA,"4c19f76e-814b-416f-85f6-f78b4164911f",NA,NA,NA
"Asclepias curtissii","Asclepias","curtissii",NA,"PreservedSpecimen","1929-08-16","flas",NA,NA,"United States of America","Orange","Florida","Locality: NA Occurrence Remarks: NA Verbatim Locality: Gotha.",NA,NA,"4ef25a94-4850-4f1d-ade9-cdb34c849113",NA,"location information not given for endangered species",NA
"Asclepias curtissii","Asclepias","curtissii",NA,"PreservedSpecimen",NA,"ftu",NA,"a31f5623-cb82-4dc3-93bb-79d834381394","United States",NA,"Florida","Locality: NA Occurrence Remarks: NA Verbatim Locality: NA",NA,NA,"519c9d26-dc42-4752-9f0a-cb8609d63560",NA,NA,NA
"Asclepias curtissii","Asclepias","curtissii",NA,"PreservedSpecimen","1995-06-11","usf","Herb",NA,"USA","Highlands Co.","Florida","Locality: NA Occurrence Remarks: NA Verbatim Locality: NA",NA,NA,"5267c889-eddd-47d1-b7f6-6f75e8530e51",NA,NA,"Dense low xeric oak [Quercus] scrub. Soils - Archbold (Typic Quartzipsamments). Community dominated by Quercus inopina, Q. chapmanii, Q. myrtifolia, Q. geminata."
"Asclepias curtissii","Asclepias","curtissii",NA,"PreservedSpecimen",NA,"rsa","VascularPlants","3818e1d3-b6a4-11e8-b408-001a64db2964","United States",NA,"Florida","Locality: NA Occurrence Remarks: NA Verbatim Locality: NA",NA,NA,"5285fd00-ffc8-4c3e-9dcd-9768fa15455a",NA,NA,NA
"Asclepias curtissii","Asclepias","curtissii",NA,"PreservedSpecimen","1957-08-29","flas",NA,NA,"United States of America","Highlands County","Florida","Locality: NA Occurrence Remarks: NA Verbatim Locality: between North Branch of Hickory Branch and U.S. 27 in near Archbold Foundation.",NA,NA,"537e17e1-4300-4277-93b1-62d4cbed9ef4",NA,"location information not given for endangered species",NA
"Asclepias curtissii","Asclepias","curtissii",NA,"PreservedSpecimen","1971-09","usf","Herb",NA,"USA","Hernando Co.","Florida","Locality: NA Occurrence Remarks: NA Verbatim Locality: NA",NA,NA,"570ad6fe-abf2-4f55-be79-7e5ee82e4f43",NA,NA,"White sand, pinelands."
"Asclepias curtissii A. Gray","Asclepias","curtissii",NA,"PreservedSpecimen",NA,"gh","GH","urn:lsid:biocol.org:col:15631","United States of America","Highlands County","Florida","Locality: [data not captured] Occurrence Remarks: NA Verbatim Locality: [data not captured]",NA,NA,"57cec361-11cb-41da-8f5d-70492baf53a6",NA,NA,NA
"Asclepias curtissii","Asclepias","curtissii",NA,"PreservedSpecimen","1965-05-21","flas",NA,NA,"United States of America","Palm Beach County","Florida","Locality: NA Occurrence Remarks: NA Verbatim Locality: NA",NA,NA,"5ce0eeb9-6caa-4c4e-b784-ca9967515880",NA,"location information not given for endangered species",NA
"Asclepias curtissii A.Gray","Asclepias","curtissii",NA,"PreservedSpecimen",NA,"ny","NY","http://biocol.org/urn:lsid:biocol.org:col:15556",NA,NA,NA,"Locality: NA Occurrence Remarks: NA Verbatim Locality: NA",NA,NA,"5da81228-d530-4401-831b-c5d501c83647",NA,NA,NA
"Asclepias curtissii","Asclepias","curtissii",NA,"PreservedSpecimen","1995-06-08","usf","Herb",NA,"USA","Hillsborough Co.","Florida","Locality: NA Occurrence Remarks: NA Verbatim Locality: NA",NA,NA,"5ee6f36b-80d1-41ac-a8cb-89fee559f054",NA,NA,NA
"Asclepias curtissii","Asclepias","curtissii",NA,"PreservedSpecimen","1989-07-02","flas",NA,NA,"United States of America","Broward County","Florida","Locality: NA Occurrence Remarks: Voucher for M.S. thesis Verbatim Locality: NA",NA,NA,"63920eab-2600-44bb-95fa-357b0cb6903e",NA,"location information not given for endangered species",NA
"Asclepias curtissii","Asclepias","curtissii",NA,"PreservedSpecimen",NA,"us","US","urn:uuid:60e28f81-e634-4869-aa3e-732caed713c8","United States","Brevard","Florida","Locality: Titusville. Occurrence Remarks: NA Verbatim Locality: NA",NA,NA,"639791ee-93e2-45bc-aaa9-2cb9f5a435bb",NA,NA,NA
"Asclepias curtissii","Asclepias","curtissii",NA,"PreservedSpecimen",NA,"uam",NA,"192ef3f0-8d79-4e7b-aaad-d2430f07e6cd","United States","Polk","Florida","Locality: NA Occurrence Remarks: Stems decumbent; corolla lobes green; hoods erect, oblong-attenuate, white with purple lines. Verbatim Locality: NA",NA,NA,"6642d54a-5951-4841-a18b-e2d39475933a",NA,"field values redacted: eventDate, month, day, startDayOfYear, verbatimEventDate, recordNumber, locality, habitat",NA
"Asclepias curtissii","Asclepias","curtissii",NA,"PreservedSpecimen","2007-06-28","usf","Herb",NA,"USA","Brevard Co.","Florida","Locality: NA Occurrence Remarks: NA Verbatim Locality: NA",NA,NA,"66b85e95-653c-43a9-9eb0-d557915823b6",NA,NA,"Scrub."
"Asclepias curtissii","Asclepias","curtissii",NA,"PreservedSpecimen",NA,"cm","Botany","a3883acd-bc7d-40f2-a6e4-372a3435e5d1","United States","Orange","Florida","Locality: NA Occurrence Remarks: NA Verbatim Locality: NA",NA,NA,"6a983126-884d-4d87-9f7f-cd788f26f697",NA,"field values redacted: eventDate, month, day, startDayOfYear, verbatimEventDate, recordNumber, locality, verbatimCoordinates, habitat",NA
"Asclepias curtissii","Asclepias","curtissii",NA,"PreservedSpecimen","2003-08-19","usf","Herb",NA,"USA","Brevard Co.","Florida","Locality: NA Occurrence Remarks: NA Verbatim Locality: NA",NA,NA,"70575e46-665b-40fa-88e1-93a3b3d23c8e",NA,NA,"Sand pine [Pinus clausa] scrub, xeric. Soil sandy."
"Asclepias curtissii","Asclepias","curtissii",NA,"PreservedSpecimen","1963-06-11","flas",NA,NA,"United States of America","Hillsborough County","Florida","Locality: NA Occurrence Remarks: NA Verbatim Locality: south side of Little Manatee River, Ruskin.",NA,NA,"7463272b-c09a-446c-9adc-562df84708bb",NA,"location information not given for endangered species",NA
"Asclepias curtissii","Asclepias","curtissii",NA,"PreservedSpecimen","1984-09-02","usf","Herb",NA,"USA","Highlands Co.","Florida","Locality: NA Occurrence Remarks: NA Verbatim Locality: NA",NA,NA,"74669abe-3cc9-41ae-b73a-d32ce86407be",NA,NA,"Sand pine [Pinus clausa] scrub community."
"Asclepias curtissii","Asclepias","curtissii",NA,"PreservedSpecimen","1988-04-25","usf","Herb",NA,"USA","Highlands Co.","Florida","Locality: NA Occurrence Remarks: Associate voucher for Cortalaria avonensis Delaney & Wunderlin. Verbatim Locality: NA",NA,NA,"75008285-599c-4346-91d5-50e5de283f20",NA,NA,"Sand pine [Pinus clausa] scrub. White sand."
"Asclepias curtissii","Asclepias","curtissii",NA,"PreservedSpecimen","1986-06-30","flas",NA,NA,"United States of America","Highlands County","Florida","Locality: NA Occurrence Remarks: NA Verbatim Locality: NA",NA,NA,"77682e77-4428-4a2c-ac4b-cefa6563a765",NA,"location information not given for endangered species",NA
"Asclepias curtissii","Asclepias","curtissii",NA,"PreservedSpecimen","1971-08-02","usf","Herb",NA,"USA","Hernando Co.","Florida","Locality: NA Occurrence Remarks: NA Verbatim Locality: NA",NA,NA,"782d85cd-dff7-4527-ab0e-eace87d300c2",NA,NA,"White sand, road around lake."
"Asclepias curtissii","Asclepias","curtissii",NA,"PreservedSpecimen",NA,"duke",NA,"274b5332-1247-4374-b124-c819b814cd6e","United States","Marion","Florida","Locality: NA Occurrence Remarks: NA Verbatim Locality: NA",NA,NA,"78f0b6ea-61a0-4c06-8a1a-44acdd7e61e1",NA,NA,NA
"Asclepias curtissii","Asclepias","curtissii",NA,"PreservedSpecimen","1989-07-02","flas",NA,NA,"United States of America","Osceola","Florida","Locality: NA Occurrence Remarks: Voucher for M.S. Thesis Verbatim Locality: NA",NA,NA,"7975cd4f-cd33-42b2-b9b3-9f1daff62b77",NA,"location information not given for endangered species",NA
"Asclepias curtissii","Asclepias","curtissii",NA,"PreservedSpecimen",NA,"us","US","urn:uuid:60e28f81-e634-4869-aa3e-732caed713c8","United States",NA,"Florida","Locality: Scrub near Weekiwachee Spring. Occurrence Remarks: NA Verbatim Locality: NA",NA,NA,"7a0eb32c-8cf3-4f0e-8940-8e4932aa2a54",NA,NA,NA
"Asclepias curtissii","Asclepias","curtissii",NA,"PreservedSpecimen","1968-08-01","flas",NA,NA,"United States of America","Polk","Florida","Locality: NA Occurrence Remarks: NA Verbatim Locality: 9 mi. east of Lake Wales via U.S. 60, at Flaming Arrow Scout Reserve.",NA,NA,"7a7fe2be-f3c5-49b8-b3b8-e928f074a94f",NA,"location information not given for endangered species",NA
"Asclepias curtissii A. Gray","Asclepias","curtissii",NA,"PreservedSpecimen",NA,"mo","MO","http://biocol.org/urn:lsid:biocol.org:col:15859","United States","Lake","Florida","Locality: Vicinity of Eustis Occurrence Remarks: NA Verbatim Locality: NA",NA,NA,"7b44e2d7-a701-4e87-a416-9f7f36edf042",NA,NA,NA
"Asclepias curtissii","Asclepias","curtissii",NA,"PreservedSpecimen","1973-06-29","usf","Herb",NA,"USA","Pinellas Co.","Florida","Locality: NA Occurrence Remarks: NA Verbatim Locality: NA",NA,NA,"7e56325f-c13b-4806-8349-5e1939431232",NA,NA,"White sands area."
"Asclepias curtissii","Asclepias","curtissii",NA,"PreservedSpecimen","1929-07-19","flas",NA,NA,"United States of America","Orange","Florida","Locality: NA Occurrence Remarks: NA Verbatim Locality: S.E. of Windemere.",NA,NA,"7ef65b92-6c39-4fff-a0fb-d344a8a6d13f",NA,"location information not given for endangered species",NA
"Asclepias curtissii","Asclepias","curtissii",NA,"PreservedSpecimen","1974-07-08","flas",NA,NA,"United States of America","Marion","Florida","Locality: NA Occurrence Remarks: NA Verbatim Locality: approx. 1/3 mi. s. of Fla. 40, and 3 mi. s.s.e. of Lynn off of Fla. 40.",NA,NA,"7fb266d6-75c2-492a-9087-9d879ee8edfc",NA,"location information not given for endangered species",NA
"Asclepias curtissii","Asclepias","curtissii",NA,"PreservedSpecimen",NA,"ga",NA,"urn:lsid:biocol.org:col:15610","United States","Highlands County","Florida","Locality: NA Occurrence Remarks: NA Verbatim Locality: NA",NA,NA,"7feee338-3e2a-45a5-a769-be03567d785b",NA,"field values redacted: locality",NA
"Asclepias curtissii","Asclepias","curtissii",NA,"PreservedSpecimen",NA,"rsa","VascularPlants","3818e1d3-b6a4-11e8-b408-001a64db2964","United States",NA,"Florida","Locality: NA Occurrence Remarks: NA Verbatim Locality: NA",NA,NA,"8185e93c-1ffe-4faa-ab48-dbbb2f72d29b",NA,NA,NA
"Asclepias curtissii","Asclepias","curtissii",NA,"PreservedSpecimen","2005-07-31","flas",NA,NA,"United States of America","Marion County","Florida","Locality: NA Occurrence Remarks: Voucher for: Hubbard, Jeffery. Floristic Inventory of Silver River State Park. University of Florida, Gainesville, FL. Verbatim Locality: NA",NA,NA,"82698814-dfdc-414a-9ef1-b7736f257360",NA,"location information not given for endangered species",NA
"Asclepias curtissii","Asclepias","curtissii",NA,"PreservedSpecimen","1990-09-14","usf","Herb",NA,"USA","Collier Co.","Florida","Locality: NA Occurrence Remarks: NA Verbatim Locality: NA",NA,NA,"82e9c9e3-ae9e-42af-abb0-0c47483321dc",NA,NA,"Scrub."
"Asclepias curtissii A. Gray","Asclepias","curtissii",NA,"PreservedSpecimen",NA,"gh","GH","urn:lsid:biocol.org:col:15631","United States of America","Polk County","Florida","Locality: [data not captured] Occurrence Remarks: NA Verbatim Locality: [data not captured]",NA,NA,"86e773e2-a90a-4bd0-b0c9-6af2bc9924ce",NA,NA,NA
"Asclepias curtissii A.Gray","Asclepias","curtissii",NA,"PreservedSpecimen",NA,"ny","NY","http://biocol.org/urn:lsid:biocol.org:col:15556",NA,NA,NA,"Locality: NA Occurrence Remarks: NA Verbatim Locality: NA",NA,NA,"873c1569-d63d-47e0-8b1e-2c1118fdab7d",NA,NA,NA
"Asclepias curtissii A. Gray","Asclepias","curtissii",NA,"PreservedSpecimen",NA,"gh","GH","urn:lsid:biocol.org:col:15631","United States of America","Highlands County","Florida","Locality: [data not captured] Occurrence Remarks: NA Verbatim Locality: [data not captured]",NA,NA,"877f442d-1271-411d-bf30-9b4d6778c474",NA,NA,NA
"Asclepias curtissii","Asclepias","curtissii",NA,"PreservedSpecimen","2005-06-10","flas",NA,NA,"United States of America","Polk","Florida","Locality: NA Occurrence Remarks: NA Verbatim Locality: NA",NA,NA,"88125846-cd1e-4800-8a63-a9cae7b3f866",NA,"location information not given for endangered species",NA
"Asclepias curtissii","Asclepias","curtissii",NA,"PreservedSpecimen",NA,"vdb",NA,"9bec1885-8556-470e-80f3-f31ed15228b0","United States","Seminole","Florida","Locality: NA Occurrence Remarks: Frequent. Verbatim Locality: NA",NA,NA,"89fd40ca-3bd8-40f5-83b1-f8bc4adc7e99",NA,"field values redacted: eventDate, month, day, startDayOfYear, recordNumber, locality, habitat",NA
"Asclepias curtissii","Asclepias","curtissii",NA,"PreservedSpecimen","1962-07-18","usf","Herb",NA,"USA","Hillsborough Co.","Florida","Locality: NA Occurrence Remarks: NA Verbatim Locality: NA",NA,NA,"8cf592d9-8e2b-45af-aaec-ecfff4bc11a7",NA,NA,"White sand scrub. Ceratiola and Pinus clausa overhead. Quercus myrtifolia, Q. geminata with Ximenia, Vitis and Cassytha."
"Asclepias curtissii","Asclepias","curtissii",NA,"PreservedSpecimen","1995-06-04","usf","Herb",NA,"USA","Hardee Co.","Florida","Locality: NA Occurrence Remarks: NA Verbatim Locality: NA",NA,NA,"8eb55297-7b90-4d92-9f75-d2fcb889ab1d",NA,NA,"Open rosemary [Ceratiola ericoides]-low oak [Quercus] scrub on white sand. Soils - St. Lucie (Typic Quartzipsamments)."
"Asclepias curtissii","Asclepias","curtissii",NA,"PreservedSpecimen",NA,"arch","herbarium","7a265b8e-90e3-42e9-9a7d-f86f6e810fba","U.S.A.","Highlands","Florida","Locality: NA Occurrence Remarks: NA Verbatim Locality: NA",NA,NA,"945e9e9a-e872-4346-9a0a-ffa8844a4e4e",NA,"field values redacted: eventDate, month, day, startDayOfYear, locality, habitat",NA
"Asclepias curtissii","Asclepias","curtissii",NA,"PreservedSpecimen","1998-07-16","usf","Herb",NA,"USA","Highlands Co.","Florida","Locality: NA Occurrence Remarks: NA Verbatim Locality: NA",NA,NA,"9621cacd-5fb0-491e-bd5c-d21922500f43",NA,NA,"Scrub."
"Asclepias curtissii","Asclepias","curtissii",NA,"PreservedSpecimen","1970-06-28","usf","Herb",NA,"USA","Pinellas Co.","Florida","Locality: NA Occurrence Remarks: NA Verbatim Locality: NA",NA,NA,"980b6b3b-a6c6-4cb6-bec9-4c622ed584ec",NA,NA,"Sandy, pine area."
"Asclepias curtissii","Asclepias","curtissii",NA,"PreservedSpecimen",NA,"us","US","urn:uuid:60e28f81-e634-4869-aa3e-732caed713c8","United States",NA,"Florida","Locality: Route 27, near Venus, Highlands County. Occurrence Remarks: NA Verbatim Locality: NA",NA,NA,"9933cc37-bbef-41e8-9651-365dd6eeae32",NA,NA,NA
"Asclepias curtissii","Asclepias","curtissii",NA,"PreservedSpecimen",NA,"rsa","VascularPlants","3818e1d3-b6a4-11e8-b408-001a64db2964","United States",NA,"Florida","Locality: NA Occurrence Remarks: NA Verbatim Locality: NA",NA,NA,"9b3cccff-2b8d-4575-9d45-72d58d97f51e",NA,NA,NA
"Asclepias curtissii A. Gray","Asclepias","curtissii",NA,"PreservedSpecimen",NA,"gh","GH","urn:lsid:biocol.org:col:15631","United States of America","Brevard County","Florida","Locality: [data not captured] Occurrence Remarks: NA Verbatim Locality: [data not captured]",NA,NA,"9c9d1399-ee2b-4845-a3ce-9ad29ae1f0b4",NA,NA,NA
"Asclepias curtissii","Asclepias","curtissii",NA,"PreservedSpecimen","1992-06-30","usf","Herb",NA,"USA","Seminole Co.","Florida","Locality: NA Occurrence Remarks: NA Verbatim Locality: NA",NA,NA,"9d637c49-07d2-4432-8af8-e3434d613417",NA,NA,"Unburned sand pine [Pinus clausa] and burned low oak-ericad scrub. Soils - St. Lucie (Typic Quartzipsamments)."
"Asclepias curtissii","Asclepias","curtissii",NA,"PreservedSpecimen","1981-09-16","usf","Herb",NA,"USA","Highlands Co.","Florida","Locality: NA Occurrence Remarks: NA Verbatim Locality: NA",NA,NA,"a3171cc7-0847-4f4a-bee4-05a58037eb70",NA,NA,"Disturbed white sand scrub."
"Asclepias curtissii","Asclepias","curtissii",NA,"PreservedSpecimen","1977-05-09","flas",NA,NA,"United States of America","Palm Beach County","Florida","Locality: NA Occurrence Remarks: NA Verbatim Locality: About 100 yds. NE of corner of Overlook Rd. & Oleander Rd., Lantana.",NA,NA,"a3b7eb63-29e2-4808-9f21-7574354c9c65",NA,"location information not given for endangered species",NA
"Asclepias curtissii","Asclepias","curtissii",NA,"PreservedSpecimen",NA,"vdb",NA,"9bec1885-8556-470e-80f3-f31ed15228b0","United States","Marion","Florida","Locality: NA Occurrence Remarks: NA Verbatim Locality: NA",NA,NA,"a3fdf3b7-facb-490f-a4ad-780dae8e758f",NA,"field values redacted: eventDate, month, day, startDayOfYear, recordNumber, locality, habitat",NA
"Asclepias curtissii","Asclepias","curtissii",NA,"PreservedSpecimen","1989-07-01","flas",NA,NA,"United States of America","Volusia","Florida","Locality: NA Occurrence Remarks: Voucher for M.S. thesis Verbatim Locality: NA",NA,NA,"a46668cf-5a00-41f6-aaa6-39b4645754ae",NA,"location information not given for endangered species",NA
"Asclepias curtissii A. Gray","Asclepias","curtissii",NA,"PreservedSpecimen",NA,"mo","MO","http://biocol.org/urn:lsid:biocol.org:col:15859","United States","Osceola","Florida","Locality: In pinelands near Kissimee Occurrence Remarks: NA Verbatim Locality: NA",NA,NA,"a58af9a0-dca4-4d10-b5a3-73a7e165b61c",NA,NA,NA
"Asclepias curtissii","Asclepias","curtissii",NA,"PreservedSpecimen","1961-06-03","usf","Herb",NA,"USA","Polk Co.","Florida","Locality: NA Occurrence Remarks: NA Verbatim Locality: NA",NA,NA,"a66aa194-03ea-4630-9326-f82ebde1cc34",NA,NA,"In white sand scrub, with Dentoceras [Polygonella myriophylla], and Satureja [Calamintha]. Overstory of Pinus clausa, scrub oaks, Bumelia lacuum [Sideroxylon tenax], Asimina obovata."
"Asclepias curtissii","Asclepias","curtissii",NA,"PreservedSpecimen","1991-07-06","flas",NA,NA,"United States of America","Marion County","Florida","Locality: NA Occurrence Remarks: Photograph & Specimen Verbatim Locality: NA",NA,NA,"a6de63d9-7284-4891-b0fd-7cfaaae95b3c",NA,"location information not given for endangered species",NA
"Asclepias curtissii A.Gray","Asclepias","curtissii",NA,"PreservedSpecimen",NA,"ny","NY","http://biocol.org/urn:lsid:biocol.org:col:15556",NA,NA,NA,"Locality: NA Occurrence Remarks: NA Verbatim Locality: NA",NA,NA,"a7b03d6a-ad17-435a-8e9b-60d8659066d5",NA,NA,NA
"Asclepias curtissii","Asclepias","curtissii",NA,"PreservedSpecimen",NA,"us","US","urn:uuid:60e28f81-e634-4869-aa3e-732caed713c8","United States",NA,"Florida","Locality: Scrub between Avon park and Sebring. Occurrence Remarks: NA Verbatim Locality: NA",NA,NA,"a854f68d-d7f9-4ed3-916f-01b42c3cf934",NA,NA,NA
"Asclepias curtissii","Asclepias","curtissii",NA,"PreservedSpecimen",NA,"uwfp",NA,"8583263d-cb31-45a3-80ec-406d3c1dec61","United States","Lake","Florida","Locality: NA Occurrence Remarks: NA Verbatim Locality: NA",NA,NA,"a886e3a8-e602-4da8-8ddb-fa07b4bf3040",NA,"field values redacted: eventDate, month, day, startDayOfYear, verbatimEventDate, locality, habitat",NA
"Asclepias curtissii","Asclepias","curtissii",NA,"PreservedSpecimen",NA,"ga",NA,"urn:lsid:biocol.org:col:15610","United States","Highlands County","Florida","Locality: NA Occurrence Remarks: NA Verbatim Locality: NA",NA,NA,"accf611b-8669-4cb1-9269-4caad261b873",NA,"field values redacted: locality",NA
"Asclepias curtissii A. Gray","Asclepias","curtissii",NA,"PreservedSpecimen","1886","gh","GH","urn:lsid:biocol.org:col:15631","United States of America","Hillsborough County","Florida","Locality: Hillsboro Co. W. Coast Florida Occurrence Remarks: NA Verbatim Locality: Hillsboro Co. W. Coast Florida",NA,NA,"ae407190-6b49-48b0-b51e-f865c2463321",NA,NA,NA
"Asclepias curtissii","Asclepias","curtissii",NA,"PreservedSpecimen","1986-07-26","flas",NA,NA,"United States of America","Highlands County","Florida","Locality: NA Occurrence Remarks: NA Verbatim Locality: NA",NA,NA,"b02bb99a-c636-4691-a316-3b504270c220",NA,"location information not given for endangered species",NA
"Asclepias curtissii","Asclepias","curtissii",NA,"PreservedSpecimen",NA,"us","US","urn:uuid:60e28f81-e634-4869-aa3e-732caed713c8","United States",NA,"Florida","Locality: Central Peninsular Florida. In vicinity of Eustis, Lake County. Occurrence Remarks: NA Verbatim Locality: NA",NA,NA,"b09658e5-3fee-4c46-91c4-0cb8f5c254eb",NA,NA,NA
"Asclepias curtissii A.Gray","Asclepias","curtissii",NA,"PreservedSpecimen",NA,"ny","NY","http://biocol.org/urn:lsid:biocol.org:col:15556",NA,NA,NA,"Locality: NA Occurrence Remarks: NA Verbatim Locality: NA",NA,NA,"b28b4d73-2049-47e4-90f3-502f58b41fc8",NA,NA,NA
"Asclepias curtissii A.Gray","Asclepias","curtissii",NA,"PreservedSpecimen",NA,"ny","NY","http://biocol.org/urn:lsid:biocol.org:col:15556",NA,NA,NA,"Locality: NA Occurrence Remarks: NA Verbatim Locality: NA",NA,NA,"b384a8df-c244-42e0-a22a-7e1fadabf261",NA,NA,NA
"Asclepias curtissii","Asclepias","curtissii",NA,"PreservedSpecimen",NA,"arch","herbarium","7a265b8e-90e3-42e9-9a7d-f86f6e810fba","U.S.A.","Highlands","Florida","Locality: NA Occurrence Remarks: NA Verbatim Locality: NA",NA,NA,"b4cd21ec-d6fb-4a3a-b4d8-bff599df2e6f",NA,"field values redacted: eventDate, month, day, startDayOfYear, locality, habitat",NA
"Asclepias curtissii","Asclepias","curtissii",NA,"PreservedSpecimen","1987-06-24","flas",NA,NA,"United States of America","Highlands County","Florida","Locality: NA Occurrence Remarks: NA Verbatim Locality: NA",NA,NA,"b55f116d-7e23-44c1-b74b-a11be7ae6ed4",NA,"location information not given for endangered species",NA
"Asclepias curtissii","Asclepias","curtissii",NA,"PreservedSpecimen","1961-08-23","usf","Herb",NA,"USA","Polk Co.","Florida","Locality: NA Occurrence Remarks: NA Verbatim Locality: NA",NA,NA,"b9b05841-b249-423c-9466-f1b009315529",NA,NA,"Margin of white [sand] scrub withGalactia, Lyonia, and Bumelia [Sideroxylon] shrubs."
"Asclepias curtissii A. Gray","Asclepias","curtissii",NA,"PreservedSpecimen",NA,"gh","GH","urn:lsid:biocol.org:col:15631","United States of America","Brevard County","Florida","Locality: [data not captured] Occurrence Remarks: NA Verbatim Locality: [data not captured]",NA,NA,"bb12b925-883d-406e-8b17-70873f867614",NA,NA,NA
"Asclepias curtissii","Asclepias","curtissii",NA,"PreservedSpecimen",NA,"arch","herbarium","7a265b8e-90e3-42e9-9a7d-f86f6e810fba","U.S.A.","Highlands","Florida","Locality: NA Occurrence Remarks: Corolla green within, purplish without; hoods white with purplish cast, a purple area below apex and a green stripe down back. Verbatim Locality: NA",NA,NA,"bb323f61-f84a-4dae-b8a4-4c8825551d26",NA,"field values redacted: eventDate, month, day, startDayOfYear, recordNumber, locality, habitat",NA
"Asclepias curtissii","Asclepias","curtissii",NA,"PreservedSpecimen","1986-10-14","flas",NA,NA,"United States of America","Highlands County","Florida","Locality: NA Occurrence Remarks: NA Verbatim Locality: NA",NA,NA,"bc6c73cd-c820-4757-bfb9-78cbced3a869",NA,"location information not given for endangered species",NA
"Asclepias curtissii","Asclepias","curtissii",NA,"PreservedSpecimen",NA,"ncu","Vascular Plants","17f2d0fa-39a6-4465-8055-1d6fc12eeda2","United States","Highlands","Florida","Locality: NA Occurrence Remarks: NA Verbatim Locality: NA",NA,NA,"bd8f7bb1-2a30-477d-85f9-22e5af319bd5",NA,"field values redacted: eventDate, month, day, startDayOfYear, recordNumber, locality, decimalLatitude, decimalLongitude, geodeticDatum, coordinateUncertaintyInMeters, verbatimCoordinates, georeferenceRemarks, georeferenceSources",NA
"Asclepias curtissii","Asclepias","curtissii",NA,"PreservedSpecimen","1929-07-29","flas",NA,NA,"United States of America","Orange","Florida","Locality: NA Occurrence Remarks: Collected first name mispelled as ""Claud"" on label. Verbatim Locality: Vineland.",NA,NA,"bdfb94c8-2035-4ad8-9e43-18ae53b4d7cc",NA,"location information not given for endangered species",NA
"Asclepias curtissii","Asclepias","curtissii",NA,"PreservedSpecimen","1986-10-09","flas",NA,NA,"United States of America","Polk","Florida","Locality: NA Occurrence Remarks: NA Verbatim Locality: NA",NA,NA,"be6060d9-c990-4993-9b78-0c8ac70a73bf",NA,"location information not given for endangered species",NA
"Asclepias curtissii","Asclepias","curtissii",NA,"PreservedSpecimen","1987-05-18","flas",NA,NA,"United States of America","Highlands County","Florida","Locality: NA Occurrence Remarks: NA Verbatim Locality: NA",NA,NA,"c0f92e6e-05cc-4ddb-8065-2aee9cf82eaf",NA,"location information not given for endangered species",NA
"Asclepias curtissii A.Gray","Asclepias","curtissii",NA,"PreservedSpecimen",NA,"ny","NY","http://biocol.org/urn:lsid:biocol.org:col:15556",NA,NA,NA,"Locality: NA Occurrence Remarks: NA Verbatim Locality: NA",NA,NA,"c11ee8f2-8d25-4c76-ae7b-51e959927195",NA,NA,NA
"Asclepias curtissii","Asclepias","curtissii",NA,"PreservedSpecimen",NA,"vdb",NA,"9bec1885-8556-470e-80f3-f31ed15228b0","United States","Martin","Florida","Locality: NA Occurrence Remarks: NA Verbatim Locality: NA",NA,NA,"c21f0b5a-0194-4e71-9111-b9321e577a7e",NA,"field values redacted: eventDate, month, day, startDayOfYear, recordNumber, locality, habitat",NA
"Asclepias curtissii","Asclepias","curtissii",NA,"PreservedSpecimen",NA,"arch","herbarium","7a265b8e-90e3-42e9-9a7d-f86f6e810fba","U.S.A.","Highlands","Florida","Locality: NA Occurrence Remarks: In bloom. Verbatim Locality: NA",NA,NA,"c315bd3a-765f-4803-857d-3028fcf70449",NA,"field values redacted: eventDate, month, day, startDayOfYear, locality, habitat",NA
"Asclepias curtissii A.Gray","Asclepias","curtissii",NA,"PreservedSpecimen",NA,"ny","NY","http://biocol.org/urn:lsid:biocol.org:col:15556",NA,NA,NA,"Locality: NA Occurrence Remarks: NA Verbatim Locality: NA",NA,NA,"c470308e-5cb4-436b-83a9-76c260fc7bb6",NA,NA,NA
"Asclepias curtissii","Asclepias","curtissii",NA,"PreservedSpecimen","1987-09-30","flas",NA,NA,"United States of America","Polk","Florida","Locality: NA Occurrence Remarks: NA Verbatim Locality: NA",NA,NA,"c4e8aedd-b384-41bf-8d26-7d0bc90aab0a",NA,"location information not given for endangered species",NA
"Asclepias curtissii","Asclepias","curtissii",NA,"PreservedSpecimen","1986-09-24","flas",NA,NA,"United States of America","Highlands County","Florida","Locality: NA Occurrence Remarks: Miced collection. Filed under the rarer specimen, A. curtissii. Verbatim Locality: NA",NA,NA,"c5df40c6-88fe-4c64-a339-d806a2ae26ee",NA,"location information not given for endangered species",NA
"Asclepias curtissii","Asclepias","curtissii",NA,"PreservedSpecimen","1999-08-16","usf","Herb",NA,"USA","Manatee Co.","Florida","Locality: NA Occurrence Remarks: NA Verbatim Locality: NA",NA,NA,"c70a91b9-d2a3-498f-a067-4f8c699c8887",NA,NA,"Sand pine [Pinus clausa] scrub."
"Asclepias curtissii","Asclepias","curtissii",NA,"PreservedSpecimen",NA,"ncu","Vascular Plants","17f2d0fa-39a6-4465-8055-1d6fc12eeda2","United States","Broward","Florida","Locality: NA Occurrence Remarks: Several scattered plants. Flowers whitish. Verbatim Locality: NA",NA,NA,"c76cfb3e-2ebe-4cc3-99a5-ec763d2c06d1",NA,"field values redacted: eventDate, month, day, startDayOfYear, recordNumber, locality, decimalLatitude, decimalLongitude, geodeticDatum, coordinateUncertaintyInMeters, georeferenceRemarks, georeferencedBy, georeferenceSources, habitat",NA
"Asclepias curtissii","Asclepias","curtissii",NA,"PreservedSpecimen",NA,"uwfp",NA,"8583263d-cb31-45a3-80ec-406d3c1dec61","United States","Highlands","Florida","Locality: NA Occurrence Remarks: NA Verbatim Locality: NA",NA,NA,"cc1eb990-2f1e-4984-8884-f2c4e3be63bc",NA,"field values redacted: eventDate, month, day, startDayOfYear, verbatimEventDate, recordNumber, locality, habitat",NA
"Asclepias curtissii A. Gray","Asclepias","curtissii",NA,"PreservedSpecimen",NA,"mo","MO","http://biocol.org/urn:lsid:biocol.org:col:15859","United States","Highlands","Florida","Locality: 4 mi S of Highlands Hammock State Park Occurrence Remarks: NA Verbatim Locality: NA",NA,NA,"d017b735-aa6c-4d8f-9c80-763b575af739",NA,NA,NA
"Asclepias curtissii","Asclepias","curtissii",NA,"PreservedSpecimen",NA,"duke",NA,"274b5332-1247-4374-b124-c819b814cd6e","United States","Osceola","Florida","Locality: NA Occurrence Remarks: NA Verbatim Locality: NA",NA,NA,"d5e4a71d-79fa-4030-a6ba-6f25c63714b3",NA,NA,NA
"Asclepias curtissii","Asclepias","curtissii",NA,"PreservedSpecimen",NA,"ftu",NA,"a31f5623-cb82-4dc3-93bb-79d834381394","United States",NA,"Florida","Locality: NA Occurrence Remarks: NA Verbatim Locality: NA",NA,NA,"d8567266-2b2b-45b5-998d-bd336c80540d",NA,NA,NA
"Asclepias curtissii","Asclepias","curtissii",NA,"PreservedSpecimen","1972-08-03","flas",NA,NA,"United States of America","Clay County","Florida","Locality: NA Occurrence Remarks: Northernmost station!-- DBW Verbatim Locality: near s.e. corner of Blue Pond, 5 mi. (airline) n. of Keystone Heights,",NA,NA,"da8e8fc2-8b93-450c-93ad-5878fe1bcfb5",NA,"location information not given for endangered species",NA
"Asclepias curtissii","Asclepias","curtissii",NA,"PreservedSpecimen",NA,"vdb",NA,"9bec1885-8556-470e-80f3-f31ed15228b0","United States","Highlands","Florida","Locality: NA Occurrence Remarks: NA Verbatim Locality: NA",NA,NA,"dcf0444c-bc17-4493-a0b8-f00a7e236f6e",NA,"field values redacted: eventDate, month, day, startDayOfYear, recordNumber, locality, habitat",NA
"Asclepias curtissii","Asclepias","curtissii",NA,"PreservedSpecimen","1990-08-17","fsu","FSU",NA,"United States","Collier","Florida","Locality: NA Occurrence Remarks: NA Verbatim Locality: NA",NA,NA,"dd71b0d6-412c-481e-aac8-c3a2d35a905d",NA,NA,"with Selaginella and Lechea spp. in dry sand of Quercus, Lyonia, Ilex scrub near trail."
"Asclepias curtissii","Asclepias","curtissii",NA,"PreservedSpecimen",NA,"vdb",NA,"9bec1885-8556-470e-80f3-f31ed15228b0","United States","Highlands","Florida","Locality: NA Occurrence Remarks: NA Verbatim Locality: NA",NA,NA,"e3491fcd-6947-4644-8c4d-61282bbe83e4",NA,"field values redacted: eventDate, month, day, startDayOfYear, recordNumber, locality, habitat",NA
"Asclepias curtissii","Asclepias","curtissii",NA,"PreservedSpecimen","1979-05-28","tex","TEX",NA,"United States","Marion","Florida","Locality: Sandhills by 19, ca. 2 mi. s. jct. Fla. 40. Occurrence Remarks: NA Verbatim Locality: NA",NA,NA,"e4311f80-fb83-4de7-80c0-cf7dfb0d19d8",NA,NA,NA
"Asclepias curtissii","Asclepias","curtissii",NA,"PreservedSpecimen","1987-08-17","flas",NA,NA,"United States of America","Brevard County","Florida","Locality: NA Occurrence Remarks: Email of 15 Oct. 2002 from Travis Macclendon states that in a personal conversation between Margaret Hames and Karen Weichman in early Oct. 2002 Margaret Hames indicates that the location of the specimen on the label should be ""SE"" and not ""SW"" Wickham Park. The small population Travis and Karen Weichman found [recently] is almost certainly part of the population Margaret Hames reported. Kent D. Perkins, FLAS 15 Oct. 2002. Verbatim Locality: NA",NA,NA,"e5a6ec13-ef57-4158-bd9a-d2599953ca3c",NA,"location information not given for endangered species",NA
"Asclepias curtissii A. Gray","Asclepias","curtissii",NA,"PreservedSpecimen",NA,"gh","GH","urn:lsid:biocol.org:col:15631","United States of America","Highlands County","Florida","Locality: [data not captured] Occurrence Remarks: NA Verbatim Locality: [data not captured]",NA,NA,"e5aa1298-b496-4cb8-9e0c-325bf484492c",NA,NA,NA
"Asclepias curtissii A. Gray","Asclepias","curtissii",NA,"PreservedSpecimen","1879","gh","GH","urn:lsid:biocol.org:col:15631","United States of America",NA,"Florida","Locality: NA Occurrence Remarks: NA Verbatim Locality: NA",NA,NA,"e5d4da8b-77a2-4c45-a162-8c9660467869",NA,NA,NA
"Asclepias curtissii","Asclepias","curtissii",NA,"PreservedSpecimen",NA,"us","US","urn:uuid:60e28f81-e634-4869-aa3e-732caed713c8","United States",NA,"Florida","Locality: Marion County: just N of the Sumter/Marion County line, near southern edge of Marion Oaks, W of the end of SW 179th Pl., 8 km (by air) SSW of Pedro. Occurrence Remarks: NA Verbatim Locality: NA",NA,NA,"ec31ca94-823f-4842-9322-b21e34c588c5",NA,NA,NA
"Asclepias curtissii","Asclepias","curtissii",NA,"PreservedSpecimen","1991-05-24","fsu","FSU",NA,"United States","Highlands","Florida","Locality: NA Occurrence Remarks: NA Verbatim Locality: NA",NA,NA,"ed900901-a7bf-4382-956b-f5338a33a44d",NA,NA,"recently bulldozed low ancient scrub on white sand; soils - Paola & St. Lucie (Spodic and Typic Quartzipsamments)."
"Asclepias curtissii","Asclepias","curtissii",NA,"PreservedSpecimen","1987-09-10","usf","Herb",NA,"USA","Highlands Co.","Florida","Locality: NA Occurrence Remarks: NA Verbatim Locality: NA",NA,NA,"ef4d8020-8f06-44a3-9313-558ebc2142b9",NA,NA,"Scrub on rolling hills. Associate in type locality of Dicerandra christmanii."
"Asclepias curtissii A.Gray","Asclepias",NA,NA,"PreservedSpecimen",NA,"mnhn","P",NA,NA,NA,NA,"Locality: NA Occurrence Remarks: NA Verbatim Locality: NA",NA,NA,"efdb5fbf-896f-4e04-9d44-fc166a3e5bfd",NA,NA,NA
"Asclepias curtissii A.Gray","Asclepias","curtissii",NA,"PreservedSpecimen",NA,"ny","NY","http://biocol.org/urn:lsid:biocol.org:col:15556",NA,NA,NA,"Locality: NA Occurrence Remarks: NA Verbatim Locality: NA",NA,NA,"f2861db0-91aa-49ad-8fc1-444f958c5e7d",NA,NA,NA
"Asclepias curtissii","Asclepias","curtissii",NA,"PreservedSpecimen",NA,"arch","herbarium","7a265b8e-90e3-42e9-9a7d-f86f6e810fba","U.S.A.","Highlands","Florida","Locality: NA Occurrence Remarks: Erect, unbranched perennial 30-80 cm; sepals and petals green; hoods white, with a purple spot below the tip. Verbatim Locality: NA",NA,NA,"f2e5064b-9383-440f-88d7-4459aedc75f2",NA,"field values redacted: eventDate, month, day, startDayOfYear, recordNumber, locality, habitat",NA
"Asclepias curtissii","Asclepias","curtissii",NA,"PreservedSpecimen","1981-09-05","usf","Herb",NA,"USA","Highlands Co.","Florida","Locality: NA Occurrence Remarks: NA Verbatim Locality: NA",NA,NA,"f56a9184-65df-4cbf-9259-613f946f546c",NA,NA,"Open sand pine [Pinus clausa] scrub."
"Asclepias curtissii","Asclepias","curtissii",NA,"PreservedSpecimen",NA,"us","US","urn:uuid:60e28f81-e634-4869-aa3e-732caed713c8","United States",NA,"Florida","Locality: Manatee. Occurrence Remarks: NA Verbatim Locality: NA",NA,NA,"f87ffd18-918e-42c9-98cb-c06af97588fc",NA,NA,NA
"Asclepias curtissii","Asclepias","curtissii",NA,"PreservedSpecimen","1995-06-11","usf","Herb",NA,"USA","Highlands Co.","Florida","Locality: NA Occurrence Remarks: NA Verbatim Locality: NA",NA,NA,"f8c51d69-861f-457b-81f5-d572d414dda6",NA,NA,"Vacant lots cleared of former sand pine [Pinus clausa] scrub. Soils - Archbold (Typic Quartzipsamments). Community dominated by: Polygonella myriophylla, Paronychia chartacea, Chapmannia floridana."
"Asclepias curtissii","Asclepias","curtissii",NA,"PreservedSpecimen","1994-07-11","flas",NA,NA,"United States of America","Lee County","Florida","Locality: NA Occurrence Remarks: Rcd. for plant id. Verbatim Locality: NA",NA,NA,"f9718c65-6ed3-4c30-aea4-3182ce78dde3",NA,"location information not given for endangered species",NA
"Asclepias curtissii A.Gray","Asclepias","curtissii",NA,"PreservedSpecimen",NA,"ny","NY","http://biocol.org/urn:lsid:biocol.org:col:15556",NA,NA,NA,"Locality: NA Occurrence Remarks: NA Verbatim Locality: NA",NA,NA,"f982894d-d1a2-482c-8841-5be5a568f8fa",NA,NA,NA
"Asclepias curtissii","Asclepias","curtissii",NA,"PreservedSpecimen","1989-07-01","flas",NA,NA,"United States of America","Flagler County","Florida","Locality: NA Occurrence Remarks: Voucher for M.S. thesis. Verbatim Locality: NA",NA,NA,"fa124ece-ca62-48d5-bfbc-d10de05f768f",NA,"location information not given for endangered species",NA
"Asclepias curtissii A. Gray","Asclepias","curtissii",NA,"PreservedSpecimen",NA,"gh","GH","urn:lsid:biocol.org:col:15631","United States of America","Seminole County","Florida","Locality: [data not captured] Occurrence Remarks: NA Verbatim Locality: [data not captured]",NA,NA,"fc2d87b1-f90a-43af-a7c0-33c8b30317cc",NA,NA,NA
"Asclepias curtissii","Asclepias","curtissii",NA,"PreservedSpecimen","1986-09-30","flas",NA,NA,"United States of America","Highlands County","Florida","Locality: NA Occurrence Remarks: NA Verbatim Locality: NA",NA,NA,"fc3f7f49-a827-46b6-a71b-7def5921ac32",NA,"location information not given for endangered species",NA
"Asclepias curtissii","Asclepias","curtissii",NA,"PreservedSpecimen","1929-08-10","flas",NA,NA,"United States of America","Orange","Florida","Locality: NA Occurrence Remarks: NA Verbatim Locality: Gotha.",NA,NA,"fdb291b3-f037-43a5-aefb-92a9f142cb03",NA,"location information not given for endangered species",NA
"Asclepias curtissii","Asclepias","curtissii",NA,"PreservedSpecimen","1963-05-00","flas",NA,NA,"United States of America","Martin County","Florida","Locality: NA Occurrence Remarks: NA Verbatim Locality: NA",NA,NA,"fee3cba7-5a38-4216-93e6-e2757b9ad7a9",NA,"location information not given for endangered species",NA
"Asclepias curtissii","Asclepias","curtissii",NA,"PreservedSpecimen",NA,"ncu","Vascular Plants","17f2d0fa-39a6-4465-8055-1d6fc12eeda2","United States","Lake","Florida","Locality: NA Occurrence Remarks: NA Verbatim Locality: NA",NA,NA,"0dcca302-1d68-4d90-999a-81eee7469eea",NA,"field values redacted: eventDate, month, day, startDayOfYear, verbatimEventDate, recordNumber, locality, decimalLatitude, decimalLongitude, geodeticDatum, coordinateUncertaintyInMeters, georeferenceRemarks, georeferencedBy",NA
"Asclepias curtissii","Asclepias","curtissii",NA,"PreservedSpecimen","1934-07-13","flas",NA,NA,"United States of America","Highlands County","Florida","Locality: NA Occurrence Remarks: NA Verbatim Locality: west of Lake Jackson Sebring.",NA,NA,"071833f4-b504-4bd8-87dc-b0bcf9542d46",NA,"location information not given for endangered species",NA
"Asclepias curtissii","Asclepias","curtissii",NA,"PreservedSpecimen","1937-07-24","flas",NA,NA,"United States of America","Collier County","Florida","Locality: NA Occurrence Remarks: NA Verbatim Locality: north of Naples.",NA,NA,"31356cbb-7dbf-4f0c-9bbb-5bee6336b1dc",NA,"location information not given for endangered species",NA
"Asclepias curtissii","Asclepias","curtissii",NA,"PreservedSpecimen",NA,"ncsc",NA,"024f44f2-a2f5-4daa-b306-c11efb5aa4d0","United States","Osceola","Florida","Locality: NA Occurrence Remarks: NA Verbatim Locality: NA",NA,NA,"34bd67fe-ad57-4d7f-9a79-8ec8d744e79f",NA,"field values redacted: eventDate, month, day, startDayOfYear, recordNumber, locality, habitat",NA
"Asclepias aceratoides Nash","Asclepias","aceratoides",NA,"PreservedSpecimen","1894-06-16/1894-06-30","ny","NY","http://biocol.org/urn:lsid:biocol.org:col:15556","United States of America","Lake Co.","Florida","Locality: Vicinity of Eustis Occurrence Remarks: NA Verbatim Locality: NA",28.852768,-81.685353,"9b49b276-ddd3-4ea8-bda2-f630c8e668f4",NA,NA,"Exclusively in ""scrub"""
"Asclepias aceratoides Nash","Asclepias","aceratoides",NA,"PreservedSpecimen","1894-06-16/1894-06-30","ny","NY","http://biocol.org/urn:lsid:biocol.org:col:15556","United States of America","Lake Co.","Florida","Locality: Vicinity of Eustis Occurrence Remarks: NA Verbatim Locality: NA",28.852768,-81.685353,"9b49b276-ddd3-4ea8-bda2-f630c8e668f4",NA,NA,"Exclusively in ""scrub"""
"Asclepias aceratoides","Asclepias","aceratoides",NA,"PreservedSpecimen",NA,"us","US","urn:uuid:60e28f81-e634-4869-aa3e-732caed713c8","United States","Lake","Florida","Locality: Eustis. Occurrence Remarks: NA Verbatim Locality: NA",NA,NA,"2aece891-f05f-49a7-8e77-8dacca4118a5",NA,NA,NA
"Asclepias aceratoides","Asclepias","aceratoides",NA,"PreservedSpecimen","1894-06-16","msc","Vascular Plants",NA,"United States","Lake","Florida","Locality: Eustis Occurrence Remarks: NA Verbatim Locality: North and Central America | United States | Florida | Lake | Eustis",NA,NA,"75d0b67c-375e-4e78-be36-13f4754dfb93",NA,NA,"Exclusively in""scrub"""
"Asclepias aceratoides Nash","Asclepias","aceratoides",NA,"PreservedSpecimen","1894-06-16/1894-06-30","gh","GH","urn:lsid:biocol.org:col:15631","United States of America","Lake County","Florida","Locality: Vicinity of Eustis, exclusively in scrub Occurrence Remarks: NA Verbatim Locality: Vicinity of Eustis, exclusively in scrub",NA,NA,"8ffb4cad-3682-48b5-b0e8-26a5a4ab5d82",NA,NA,NA
"Asclepias aceratoides","Asclepias","aceratoides",NA,"PreservedSpecimen","1945-04-10","smu",NA,"fea81a47-2365-45cc-bef9-b6bbff7457e6","United States","Aransas","Texas","Locality: Aransas Refuge. Occurrence Remarks: NA Verbatim Locality: NA",NA,NA,"98f1844d-f1dd-4ce9-bf58-38de2b2c779a",NA,NA,NA
"Asclepias aceratoides","Asclepias","aceratoides",NA,"PreservedSpecimen","1894-06-16","mich","Angiosperms","https://www.gbif.org/grscicoll/collection/62289b33-ae4f-438c-8574-bd27b348c1fb","USA","Lake","Florida","Locality: Vicinity of Eustis Occurrence Remarks: NA Verbatim Locality: NA",NA,NA,"9d0ba49c-ae2f-48f6-9699-37efd709f226",NA,NA,"Dry sandy soil, exclusively in ""scrub"""
"Asclepias aceratoides","Asclepias","aceratoides",NA,"PreservedSpecimen",NA,"ph",NA,"019a3280-a69f-4312-bb30-8556e270f1a5","United States",NA,"North Carolina","Locality: NA Occurrence Remarks: NA Verbatim Locality: NA",NA,NA,"b199d23a-b359-440d-a0af-3ab4758c2b47",NA,NA,NA
"Asclepias aceratoides","Asclepias","aceratoides",NA,"PreservedSpecimen",NA,"dov",NA,"c14e1b97-e72e-442b-b408-6c8b370a5d37","United States","Lake","Florida","Locality: NA Occurrence Remarks: NA Verbatim Locality: NA",NA,NA,"d00c1b20-3e0d-4859-8547-e1d1094c9e55",NA,"field values redacted: eventDate, month, day, startDayOfYear, verbatimEventDate, recordNumber, locality",NA
"Asclepias aceratoides","Asclepias","aceratoides",NA,"PreservedSpecimen",NA,"ph",NA,"019a3280-a69f-4312-bb30-8556e270f1a5","United States","Cumberland","North Carolina","Locality: NA Occurrence Remarks: NA Verbatim Locality: NA",NA,NA,"dd7c37ab-5d39-4c09-99b3-7348a91b59ca",NA,NA,NA
"Asclepias aceratoides","Asclepias","aceratoides",NA,"PreservedSpecimen",NA,"us","US","urn:uuid:60e28f81-e634-4869-aa3e-732caed713c8","United States","Lake","Florida","Locality: Eustis. Occurrence Remarks: NA Verbatim Locality: NA",NA,NA,"2aece891-f05f-49a7-8e77-8dacca4118a5",NA,NA,NA
"Asclepias aceratoides","Asclepias","aceratoides",NA,"PreservedSpecimen","1894-06-16","msc","Vascular Plants",NA,"United States","Lake","Florida","Locality: Eustis Occurrence Remarks: NA Verbatim Locality: North and Central America | United States | Florida | Lake | Eustis",NA,NA,"75d0b67c-375e-4e78-be36-13f4754dfb93",NA,NA,"Exclusively in""scrub"""
"Asclepias aceratoides Nash","Asclepias","aceratoides",NA,"PreservedSpecimen","1894-06-16/1894-06-30","gh","GH","urn:lsid:biocol.org:col:15631","United States of America","Lake County","Florida","Locality: Vicinity of Eustis, exclusively in scrub Occurrence Remarks: NA Verbatim Locality: Vicinity of Eustis, exclusively in scrub",NA,NA,"8ffb4cad-3682-48b5-b0e8-26a5a4ab5d82",NA,NA,NA
"Asclepias aceratoides","Asclepias","aceratoides",NA,"PreservedSpecimen","1945-04-10","smu",NA,"fea81a47-2365-45cc-bef9-b6bbff7457e6","United States","Aransas","Texas","Locality: Aransas Refuge. Occurrence Remarks: NA Verbatim Locality: NA",NA,NA,"98f1844d-f1dd-4ce9-bf58-38de2b2c779a",NA,NA,NA
"Asclepias aceratoides","Asclepias","aceratoides",NA,"PreservedSpecimen","1894-06-16","mich","Angiosperms","https://www.gbif.org/grscicoll/collection/62289b33-ae4f-438c-8574-bd27b348c1fb","USA","Lake","Florida","Locality: Vicinity of Eustis Occurrence Remarks: NA Verbatim Locality: NA",NA,NA,"9d0ba49c-ae2f-48f6-9699-37efd709f226",NA,NA,"Dry sandy soil, exclusively in ""scrub"""
"Asclepias aceratoides","Asclepias","aceratoides",NA,"PreservedSpecimen",NA,"ph",NA,"019a3280-a69f-4312-bb30-8556e270f1a5","United States",NA,"North Carolina","Locality: NA Occurrence Remarks: NA Verbatim Locality: NA",NA,NA,"b199d23a-b359-440d-a0af-3ab4758c2b47",NA,NA,NA
"Asclepias aceratoides","Asclepias","aceratoides",NA,"PreservedSpecimen",NA,"dov",NA,"c14e1b97-e72e-442b-b408-6c8b370a5d37","United States","Lake","Florida","Locality: NA Occurrence Remarks: NA Verbatim Locality: NA",NA,NA,"d00c1b20-3e0d-4859-8547-e1d1094c9e55",NA,"field values redacted: eventDate, month, day, startDayOfYear, verbatimEventDate, recordNumber, locality",NA
"Asclepias aceratoides","Asclepias","aceratoides",NA,"PreservedSpecimen",NA,"ph",NA,"019a3280-a69f-4312-bb30-8556e270f1a5","United States","Cumberland","North Carolina","Locality: NA Occurrence Remarks: NA Verbatim Locality: NA",NA,NA,"dd7c37ab-5d39-4c09-99b3-7348a91b59ca",NA,NA,NA
